{
  "version": 0.6,
  "generator": "Overpass API 0.7.57 93a4d346",
  "osm3s": {
    "copyright": "The data included in this document is from www.openstreetmap.org. The data is made available under ODbL."
  },
  "elements": [

{
  "type": "node",
  "id": 7773747775,
  "lat": 38.7277199,
  "lon": -8.9871383,
  "tags": {
    "access": "yes",
    "addr:country": "PT",
    "amenity": "charging_station",
    "authentication:membership_card": "yes",
    "authentication:none": "no",
    "capacity": "2",
    "email": "mobilidade.electricacrc@galp.com",
    "fee": "yes",
    "motorcar": "yes",
    "name": "ACH-00003",
    "network": "Mobi.E",
    "opening_hours": "24/7",
    "operator": "Galp Geste",
    "parking:fee": "no",
    "phone": "+351 800 249 249",
    "ref": "ACH-00003",
    "socket:chademo": "1",
    "socket:chademo:current": "120",
    "socket:chademo:output": "20kW",
    "socket:chademo:voltage": "500",
    "socket:type2_cable": "1",
    "socket:type2_cable:current": "30",
    "socket:type2_cable:output": "20kW",
    "socket:type2_cable:voltage": "400",
    "socket:type2_combo": "1",
    "socket:type2_combo:current": "125",
    "socket:type2_combo:output": "20kW",
    "socket:type2_combo:voltage": "500",
    "website": "https://www.mobie.pt"
  }
},
{
  "type": "node",
  "id": 8078341755,
  "lat": 41.1843063,
  "lon": -8.6815327,
  "tags": {
    "access": "yes",
    "addr:city": "Matosinhos",
    "addr:country": "PT",
    "addr:street": "Rua de Alfredo Cunha",
    "amenity": "charging_station",
    "authentication:membership_card": "yes",
    "authentication:none": "no",
    "capacity": "1",
    "email": "mobilidade.electricacrc@galp.com",
    "fee": "yes",
    "motorcar": "yes",
    "name": "MTS-00021 - Parque Casa Rotativa",
    "network": "Mobi.E",
    "opening_hours": "24/7",
    "operator": "Galp Power",
    "parking:fee": "no",
    "phone": "+351 800 249 249",
    "ref": "MTS-00021",
    "socket:chademo": "1",
    "socket:chademo:current": "120",
    "socket:chademo:output": "25kW",
    "socket:chademo:voltage": "500",
    "socket:type2_cable:voltage": "400",
    "socket:type2_combo": "1",
    "socket:type2_combo:current": "125",
    "socket:type2_combo:output": "25kW",
    "socket:type2_combo:voltage": "500",
    "website": "https://www.mobie.pt"
  }
},
{
  "type": "node",
  "id": 8231889334,
  "lat": 41.3927550,
  "lon": -8.7546042,
  "tags": {
    "access": "yes",
    "addr:city": "Póvoa de Varzim",
    "addr:country": "PT",
    "addr:street": "Avenida 25 de Abril",
    "amenity": "charging_station",
    "authentication:membership_card": "yes",
    "authentication:none": "no",
    "capacity": "1",
    "email": "electric@prioenergy.com",
    "fee": "yes",
    "motorcar": "yes",
    "name": "PVZ-00002",
    "network": "Mobi.E",
    "opening_hours": "24/7",
    "operator": "Prio.E",
    "parking:fee": "no",
    "phone": "+351 800 450 111",
    "ref": "PVZ-00002",
    "socket:chademo": "1",
    "socket:chademo:current": "120",
    "socket:chademo:output": "30kW",
    "socket:chademo:voltage": "500",
    "socket:tesla_destination": "1",
    "socket:tesla_destination:output": "11kW",
    "socket:type2_combo": "1",
    "socket:type2_combo:current": "125",
    "socket:type2_combo:output": "30kW",
    "socket:type2_combo:voltage": "500",
    "website": "https://www.mobie.pt"
  }
},
{
  "type": "node",
  "id": 8283998952,
  "lat": 38.6959901,
  "lon": -8.9423098,
  "tags": {
    "access": "yes",
    "addr:city": "Montijo",
    "addr:country": "PT",
    "amenity": "charging_station",
    "authentication:membership_card": "yes",
    "authentication:none": "no",
    "capacity": "6",
    "email": "renewing.charging@mota-engil.pt",
    "fee": "yes",
    "motorcar": "yes",
    "name": "MTJ-00006/7/8/9",
    "network": "Mobi.E",
    "opening_hours": "24/7",
    "operator": "Mota Engil II",
    "parking:fee": "no",
    "phone": "+351 800 020 940",
    "ref": "MTJ-00006;MTJ-00007;MTJ-00008;MTJ-00009",
    "socket:chademo": "1",
    "socket:chademo:current": "60",
    "socket:chademo:output": "25kW",
    "socket:chademo:voltage": "500",
    "socket:type2": "4",
    "socket:type2:current": "32",
    "socket:type2:output": "22kW",
    "socket:type2:voltage": "400",
    "socket:type2_combo": "2",
    "socket:type2_combo:current": "60",
    "socket:type2_combo:output": "25kW",
    "socket:type2_combo:voltage": "920",
    "website": "https://www.mobie.pt"
  }
},
{
  "type": "node",
  "id": 9173300831,
  "lat": 39.7493388,
  "lon": -8.8030978,
  "tags": {
    "access": "yes",
    "addr:country": "PT",
    "amenity": "charging_station",
    "authentication:membership_card": "yes",
    "authentication:none": "no",
    "capacity": "9",
    "email": "apoio.cliente@kmlowcost.com",
    "fee": "yes",
    "motorcar": "yes",
    "name": "LRA-00037…45 - Edifício 2000",
    "network": "Mobi.E",
    "opening_hours": "24/7",
    "operator": "KLC",
    "parking:fee": "yes",
    "phone": "+351 800 296 929",
    "ref": "LRA-00037;LRA-00038;LRA-00039:LRA-00040;LRA-00041;LRA-00042;LRA-00043;LRA-00044;LRA-00045",
    "socket:type2": "6",
    "socket:type2:current": "32",
    "socket:type2:output": "22kW",
    "socket:type2:voltage": "400",
    "socket:type2_combo": "3",
    "socket:type2_combo:current": "60",
    "socket:type2_combo:output": "25kW",
    "socket:type2_combo:voltage": "920",
    "website": "https://www.mobie.pt"
  }
},
{
  "type": "node",
  "id": 9194542213,
  "lat": 37.0295546,
  "lon": -7.9443276,
  "tags": {
    "access": "yes",
    "addr:country": "PT",
    "amenity": "charging_station",
    "authentication:membership_card": "yes",
    "authentication:none": "no",
    "capacity": "4",
    "fee": "yes",
    "motorcar": "yes",
    "name": "FAR-00012/13/14/26 - Fórum Algarve",
    "network": "Mobi.E",
    "opening_hours": "Mo-Su 10:00-23:00",
    "operator": "Mota Engil II",
    "parking:fee": "no",
    "ref": "FAR-00012;FAR-00013;FAR-00014;FAR-00026",
    "socket:chademo": "2",
    "socket:chademo:current": "60",
    "socket:chademo:output": "25kW",
    "socket:chademo:voltage": "500",
    "socket:type2": "2",
    "socket:type2:current": "16",
    "socket:type2:output": "11kW",
    "socket:type2:voltage": "400",
    "socket:type2_combo": "2",
    "socket:type2_combo:current": "60",
    "socket:type2_combo:output": "25kW",
    "socket:type2_combo:voltage": "920",
    "website": "https://www.mobie.pt"
  }
}

  ]
}
