{
"type": "FeatureCollection",
"features": [
{
  "type": "Feature",
  "id": "node/7773747775",
  "properties": {
    "access": "yes",
    "addr:country": "PT",
    "amenity": "charging_station",
    "authentication:membership_card": "yes",
    "authentication:none": "no",
    "capacity": "2",
    "email": "mobilidade.electricacrc@galp.com",
    "fee": "yes",
    "motorcar": "yes",
    "name": "ACH-00003",
    "network": "Mobi.E",
    "opening_hours": "24/7",
    "operator": "Galp Geste",
    "parking:fee": "no",
    "phone": "+351 800 249 249",
    "ref": "ACH-00003",
    "socket:chademo": "1",
    "socket:chademo:current": "120",
    "socket:chademo:output": "20kW",
    "socket:chademo:voltage": "500",
    "socket:type2_cable": "1",
    "socket:type2_cable:current": "30",
    "socket:type2_cable:output": "20kW",
    "socket:type2_cable:voltage": "400",
    "socket:type2_combo": "1",
    "socket:type2_combo:current": "125",
    "socket:type2_combo:output": "20kW",
    "socket:type2_combo:voltage": "500",
    "website": "https://www.mobie.pt/",
    "id": "node/7773747775"
  },
  "geometry": {
    "type": "Point",
    "coordinates": [
      -8.9871383,
      38.7277199
    ]
  }
},
{
  "type": "Feature",
  "id": "node/8078341755",
  "properties": {
    "access": "yes",
    "addr:city": "Matosinhos",
    "addr:country": "PT",
    "addr:street": "Rua de Alfredo Cunha",
    "amenity": "charging_station",
    "authentication:membership_card": "yes",
    "authentication:none": "no",
    "capacity": "1",
    "email": "mobilidade.electricacrc@galp.com",
    "fee": "yes",
    "motorcar": "yes",
    "name": "MTS-00021 - Parque Casa Rotativa",
    "network": "Mobi.E",
    "opening_hours": "24/7",
    "operator": "Galp Power",
    "parking:fee": "no",
    "phone": "+351 800 249 249",
    "ref": "MTS-00021",
    "socket:chademo": "1",
    "socket:chademo:current": "120",
    "socket:chademo:output": "25kW",
    "socket:chademo:voltage": "500",
    "socket:type2_cable:voltage": "400",
    "socket:type2_combo": "1",
    "socket:type2_combo:current": "125",
    "socket:type2_combo:output": "25kW",
    "socket:type2_combo:voltage": "500",
    "website": "https://www.mobie.pt/",
    "id": "node/8078341755"
  },
  "geometry": {
    "type": "Point",
    "coordinates": [
      -8.6815327,
      41.1843063
    ]
  }
},
{
  "type": "Feature",
  "id": "node/8283998951",
  "properties": {
    "access": "yes",
    "addr:city": "Montijo",
    "addr:country": "PT",
    "amenity": "charging_station",
    "authentication:membership_card": "yes",
    "authentication:none": "no",
    "capacity": "2",
    "fee": "yes",
    "motorcar": "yes",
    "name": "MTJ-00009",
    "network": "Mobi.E",
    "opening_hours": "24/7",
    "operator": "Mota Engil II",
    "parking:fee": "no",
    "ref": "MTJ-00009",
    "socket:type2_combo": "2",
    "socket:type2_combo:output": "25kW",
    "socket:type2_combo:voltage": "500",
    "website": "https://www.mobie.pt/",
    "id": "node/8283998951"
  },
  "geometry": {
    "type": "Point",
    "coordinates": [
      -8.9422736,
      38.6959362
    ]
  }
}
]
}
