{
"type": "FeatureCollection",
"features": [
{
  "type": "Feature",
  "id": "node/8207701819",
  "properties": {
    "access": "yes",
    "addr:city": "Algés",
    "addr:country": "PT",
    "addr:street": "Praça 25 de Abril de 1974",
    "amenity": "charging_station",
    "authentication:membership_card": "yes",
    "authentication:none": "no",
    "capacity": "1",
    "email": "mobilidade.electricacrc@galp.com",
    "fee": "yes",
    "motorcar": "yes",
    "name": "OER-00044 - Estação de Algés",
    "network": "Mobi.E",
    "opening_hours": "24/7",
    "operator": "Galp Power",
    "parking:fee": "no",
    "phone": "+351 800 249 249",
    "ref": "OER-00044",
    "socket:chademo": "1",
    "socket:chademo:current": "120",
    "socket:chademo:output": "50kW",
    "socket:chademo:voltage": "500",
    "socket:type2_combo": "1",
    "socket:type2_combo:current": "350",
    "socket:type2_combo:output": "160kW",
    "socket:type2_combo:voltage": "920",
    "website": "https://www.mobie.pt/",
    "id": "node/8207701819"
  },
  "geometry": {
    "type": "Point",
    "coordinates": [
      -9.2303744,
      38.6988203
    ]
  }
},
{
  "type": "Feature",
  "id": "node/8207755912",
  "properties": {
    "access": "yes",
    "addr:city": "Algés",
    "addr:country": "PT",
    "addr:street": "Rua Parque Anjos",
    "amenity": "charging_station",
    "authentication:membership_card": "yes",
    "authentication:none": "no",
    "capacity": "1",
    "email": "suporte@mobiletric.com",
    "fee": "yes",
    "motorcar": "yes",
    "name": "OER-00032 - Junta de Freguesia da Algés",
    "network": "Mobi.E",
    "opening_hours": "24/7",
    "operator": "Mobiletric",
    "parking:fee": "no",
    "phone": "+351 800 210 204",
    "ref": "OER-00032",
    "socket:chademo": "1",
    "socket:chademo:current": "120",
    "socket:chademo:output": "50kW",
    "socket:chademo:voltage": "500",
    "socket:type2_combo": "1",
    "socket:type2_combo:current": "350",
    "socket:type2_combo:output": "160kW",
    "socket:type2_combo:voltage": "920",
    "website": "https://www.mobie.pt/",
    "id": "node/8207755912"
  },
  "geometry": {
    "type": "Point",
    "coordinates": [
      -9.2313762,
      38.7000019
    ]
  }
},
{
  "type": "Feature",
  "id": "node/8220272048",
  "properties": {
    "access": "yes",
    "addr:city": "Algés",
    "addr:country": "PT",
    "addr:street": "Praceta Manuel Martins",
    "amenity": "charging_station",
    "authentication:membership_card": "yes",
    "authentication:none": "no",
    "capacity": "1",
    "email": "mobilidade.electricacrc@galp.com",
    "fee": "yes",
    "motorcar": "yes",
    "name": "OER-00065 - Mercado de Algés",
    "network": "Mobi.E",
    "opening_hours": "24/7",
    "operator": "Galp Power",
    "parking:fee": "no",
    "phone": "+351 800 249 249",
    "ref": "OER-00065",
    "socket:chademo": "1",
    "socket:chademo:current": "120",
    "socket:chademo:output": "50kW",
    "socket:chademo:voltage": "500",
    "socket:type2_combo": "1",
    "socket:type2_combo:current": "350",
    "socket:type2_combo:output": "160kW",
    "socket:type2_combo:voltage": "920",
    "website": "https://www.mobie.pt/",
    "id": "node/8220272048"
  },
  "geometry": {
    "type": "Point",
    "coordinates": [
      -9.2280089,
      38.7007616
    ]
  }
},
{
  "type": "Feature",
  "id": "node/8221002951",
  "properties": {
    "access": "yes",
    "addr:city": "Linda-a-Velha",
    "addr:country": "PT",
    "addr:street": "Alameda António Sérgio",
    "amenity": "charging_station",
    "authentication:membership_card": "yes",
    "authentication:none": "no",
    "capacity": "1",
    "email": "suporte@mobiletric.com",
    "fee": "yes",
    "motorcar": "yes",
    "name": "OER-00038",
    "network": "Mobi.E",
    "opening_hours": "24/7",
    "operator": "Mobiletric",
    "parking:fee": "no",
    "phone": "+351 800 210 204",
    "ref": "OER-00038",
    "socket:chademo": "1",
    "socket:chademo:current": "120",
    "socket:chademo:output": "50kW",
    "socket:chademo:voltage": "500",
    "socket:type2_combo": "1",
    "socket:type2_combo:current": "350",
    "socket:type2_combo:output": "160kW",
    "socket:type2_combo:voltage": "920",
    "website": "https://www.mobie.pt/",
    "id": "node/8221002951"
  },
  "geometry": {
    "type": "Point",
    "coordinates": [
      -9.2331612,
      38.7145037
    ]
  }
},
{
  "type": "Feature",
  "id": "node/8223050757",
  "properties": {
    "access": "yes",
    "addr:city": "Oeiras",
    "addr:country": "PT",
    "addr:street": "Avenida Engenheiro Bonneville Franco",
    "amenity": "charging_station",
    "authentication:membership_card": "yes",
    "authentication:none": "no",
    "capacity": "1",
    "email": "suporte@mobiletric.com",
    "fee": "yes",
    "motorcar": "yes",
    "name": "OER-00037",
    "network": "Mobi.E",
    "opening_hours": "24/7",
    "operator": "Mobiletric",
    "parking:fee": "no",
    "phone": "+351 800 210 204",
    "ref": "OER-00037",
    "socket:chademo": "1",
    "socket:chademo:current": "120",
    "socket:chademo:output": "50kW",
    "socket:chademo:voltage": "500",
    "socket:type2_combo": "1",
    "socket:type2_combo:current": "350",
    "socket:type2_combo:output": "160kW",
    "socket:type2_combo:voltage": "920",
    "start_date": "2021-03-21",
    "website": "https://www.mobie.pt/",
    "id": "node/8223050757"
  },
  "geometry": {
    "type": "Point",
    "coordinates": [
      -9.3015558,
      38.6908438
    ]
  }
},
{
  "type": "Feature",
  "id": "node/8223093248",
  "properties": {
    "access": "yes",
    "addr:city": "Oeiras",
    "addr:country": "PT",
    "addr:street": "Avenida Doutor Francisco de Sá Carneiro",
    "amenity": "charging_station",
    "authentication:membership_card": "yes",
    "authentication:none": "no",
    "capacity": "1",
    "email": "mobilidade.electricacrc@galp.com",
    "fee": "yes",
    "motorcar": "yes",
    "name": "OER-00087 - SIMAS",
    "network": "Mobi.E",
    "opening_hours": "24/7",
    "operator": "Galp Power",
    "parking:fee": "no",
    "phone": "+351 800 249 249",
    "ref": "OER-00087",
    "socket:chademo": "1",
    "socket:chademo:current": "120",
    "socket:chademo:output": "50kW",
    "socket:chademo:voltage": "500",
    "socket:type2_combo": "1",
    "socket:type2_combo:current": "350",
    "socket:type2_combo:output": "160kW",
    "socket:type2_combo:voltage": "920",
    "website": "https://www.mobie.pt/",
    "id": "node/8223093248"
  },
  "geometry": {
    "type": "Point",
    "coordinates": [
      -9.3052123,
      38.6915613
    ]
  }
},
{
  "type": "Feature",
  "id": "node/8223126563",
  "properties": {
    "access": "yes",
    "addr:city": "Oeiras",
    "addr:country": "PT",
    "addr:street": "Rua da Quinta das Palmeiras",
    "amenity": "charging_station",
    "authentication:membership_card": "yes",
    "authentication:none": "no",
    "capacity": "1",
    "email": "suporte@mobiletric.com",
    "fee": "yes",
    "motorcar": "yes",
    "name": "OER-00057 - Palmeiras",
    "network": "Mobi.E",
    "opening_hours": "24/7",
    "operator": "Mobiletric",
    "parking:fee": "no",
    "phone": "+351 800 210 204",
    "ref": "OER-00057",
    "socket:chademo": "1",
    "socket:chademo:current": "120",
    "socket:chademo:output": "50kW",
    "socket:chademo:voltage": "500",
    "socket:type2_combo": "1",
    "socket:type2_combo:current": "350",
    "socket:type2_combo:output": "160kW",
    "socket:type2_combo:voltage": "920",
    "website": "https://www.mobie.pt/",
    "id": "node/8223126563"
  },
  "geometry": {
    "type": "Point",
    "coordinates": [
      -9.3272936,
      38.6920773
    ]
  }
},
{
  "type": "Feature",
  "id": "node/8223128074",
  "properties": {
    "access": "yes",
    "addr:city": "Oeiras",
    "addr:country": "PT",
    "addr:street": "Avenida Dom João I",
    "amenity": "charging_station",
    "authentication:membership_card": "yes",
    "authentication:none": "no",
    "capacity": "1",
    "email": "suporte@mobiletric.com",
    "fee": "yes",
    "motorcar": "yes",
    "name": "OER-00039 - Tribunal de Oeiras",
    "network": "Mobi.E",
    "opening_hours": "24/7",
    "operator": "Mobiletric",
    "parking:fee": "no",
    "phone": "+351 800 210 204",
    "ref": "OER-00039",
    "socket:chademo": "1",
    "socket:chademo:current": "120",
    "socket:chademo:output": "50kW",
    "socket:chademo:voltage": "500",
    "socket:type2_combo": "1",
    "socket:type2_combo:current": "350",
    "socket:type2_combo:output": "160kW",
    "socket:type2_combo:voltage": "920",
    "website": "https://www.mobie.pt/",
    "id": "node/8223128074"
  },
  "geometry": {
    "type": "Point",
    "coordinates": [
      -9.3163999,
      38.6838959
    ]
  }
},
{
  "type": "Feature",
  "id": "node/8223137485",
  "properties": {
    "access": "yes",
    "addr:city": "Oeiras",
    "addr:country": "PT",
    "addr:street": "Rua de Aljubarrota",
    "amenity": "charging_station",
    "authentication:membership_card": "yes",
    "authentication:none": "no",
    "capacity": "1",
    "email": "mobilidade.electricacrc@galp.com",
    "fee": "yes",
    "motorcar": "yes",
    "name": "OER-00082 - Alto da Barra",
    "network": "Mobi.E",
    "opening_hours": "24/7",
    "operator": "Galp Power",
    "parking:fee": "no",
    "phone": "+351 800 249 249",
    "ref": "OER-00082",
    "socket:chademo": "1",
    "socket:chademo:current": "120",
    "socket:chademo:output": "50kW",
    "socket:chademo:voltage": "500",
    "socket:type2_combo": "1",
    "socket:type2_combo:current": "350",
    "socket:type2_combo:output": "160kW",
    "socket:type2_combo:voltage": "920",
    "website": "https://www.mobie.pt/",
    "id": "node/8223137485"
  },
  "geometry": {
    "type": "Point",
    "coordinates": [
      -9.3201723,
      38.6803841
    ]
  }
},
{
  "type": "Feature",
  "id": "node/8224601894",
  "properties": {
    "access": "yes",
    "addr:city": "Torres Vedras",
    "addr:country": "PT",
    "amenity": "charging_station",
    "authentication:membership_card": "yes",
    "authentication:none": "no",
    "capacity": "1",
    "email": "suporte@mobiletric.com",
    "fee": "yes",
    "motorcar": "yes",
    "name": "TVD-00016",
    "network": "Mobi.E",
    "opening_hours": "24/7",
    "operator": "Mobiletric",
    "parking:fee": "no",
    "phone": "+351 800 210 204",
    "ref": "TVD-00016",
    "socket:chademo": "1",
    "socket:chademo:current": "120",
    "socket:chademo:output": "50kW",
    "socket:chademo:voltage": "500",
    "socket:type2_combo": "1",
    "socket:type2_combo:current": "350",
    "socket:type2_combo:output": "160kW",
    "socket:type2_combo:voltage": "920",
    "website": "https://www.mobie.pt/",
    "id": "node/8224601894"
  },
  "geometry": {
    "type": "Point",
    "coordinates": [
      -9.2578174,
      39.1020744
    ]
  }
},
{
  "type": "Feature",
  "id": "node/8486775919",
  "properties": {
    "access": "yes",
    "addr:city": "Porto",
    "addr:country": "PT",
    "addr:street": "Rua da Constituição",
    "amenity": "charging_station",
    "authentication:membership_card": "yes",
    "authentication:none": "no",
    "capacity": "1",
    "fee": "yes",
    "motorcar": "yes",
    "name": "PRT-00072",
    "network": "Mobi.E",
    "opening_hours": "24/7",
    "operator": "Repsol",
    "parking:fee": "no",
    "phone": "+351 800 226 624",
    "ref": "PRT-00072",
    "socket:type2_combo": "1",
    "socket:type2_combo:current": "200",
    "socket:type2_combo:output": "160kW",
    "socket:type2_combo:voltage": "1000",
    "start_date": "2021-03-21",
    "website": "https://www.mobie.pt/",
    "id": "node/8486775919"
  },
  "geometry": {
    "type": "Point",
    "coordinates": [
      -8.628158,
      41.165124
    ]
  }
},
{
  "type": "Feature",
  "id": "node/8618493483",
  "properties": {
    "access": "yes",
    "addr:country": "PT",
    "addr:street": "Área de Serviço de Santarém",
    "amenity": "charging_station",
    "authentication:membership_card": "yes",
    "authentication:none": "no",
    "capacity": "2",
    "email": "mobilidade-eletrica@edp.pt",
    "fee": "yes",
    "motorcar": "yes",
    "name": "STR-00019",
    "network": "Mobi.E",
    "opening_hours": "24/7",
    "operator": "EDP Comercial",
    "parking:fee": "no",
    "phone": "+351 800 222 222",
    "ref": "STR-00019",
    "socket:chademo": "1",
    "socket:chademo:current": "120",
    "socket:chademo:output": "50kW",
    "socket:chademo:voltage": "500",
    "socket:type2_combo": "1",
    "socket:type2_combo:current": "350",
    "socket:type2_combo:output": "160kW",
    "socket:type2_combo:voltage": "920",
    "website": "https://www.mobie.pt/",
    "id": "node/8618493483"
  },
  "geometry": {
    "type": "Point",
    "coordinates": [
      -8.639811,
      39.3925264
    ]
  }
},
{
  "type": "Feature",
  "id": "node/8678941145",
  "properties": {
    "access": "yes",
    "addr:city": "Castelo Branco",
    "addr:country": "PT",
    "amenity": "charging_station",
    "authentication:membership_card": "yes",
    "authentication:none": "no",
    "capacity": "1",
    "fee": "yes",
    "motorcar": "yes",
    "name": "CTB-00016",
    "network": "Mobi.E",
    "opening_hours": "24/7",
    "operator": "Iberdrola",
    "parking:fee": "no",
    "ref": "CTB-00016",
    "socket:chademo": "1",
    "socket:chademo:current": "120",
    "socket:chademo:output": "50kW",
    "socket:chademo:voltage": "500",
    "socket:type2_combo": "1",
    "socket:type2_combo:current": "350",
    "socket:type2_combo:output": "160kW",
    "socket:type2_combo:voltage": "920",
    "website": "https://www.mobie.pt/",
    "id": "node/8678941145"
  },
  "geometry": {
    "type": "Point",
    "coordinates": [
      -7.4907992,
      39.8197157
    ]
  }
}
]
}
