{
"type": "FeatureCollection",
"features": [
{
  "type": "Feature",
  "id": "node/8207021262",
  "properties": {
    "access": "yes",
    "addr:country": "PT",
    "amenity": "charging_station",
    "authentication:membership_card": "yes",
    "authentication:none": "no",
    "capacity": "2",
    "fee": "yes",
    "motorcar": "yes",
    "name": "ADV-00002/3 - Ionity A2 S>N",
    "network": "Mobi.E",
    "opening_hours": "24/7",
    "operator": "Ionity",
    "parking:fee": "no",
    "ref": "ADV-00002;ADV-00003",
    "socket:type2_combo": "2",
    "socket:type2_combo:current": "500",
    "socket:type2_combo:output": "350kW",
    "socket:type2_combo:voltage": "920",
    "website": "https://www.mobie.pt/",
    "id": "node/8207021262"
  },
  "geometry": {
    "type": "Point",
    "coordinates": [
      -8.1829235,
      37.5363296
    ]
  }
},
{
  "type": "Feature",
  "id": "node/8207021263",
  "properties": {
    "access": "yes",
    "addr:country": "PT",
    "amenity": "charging_station",
    "authentication:membership_card": "yes",
    "authentication:none": "no",
    "capacity": "2",
    "fee": "yes",
    "motorcar": "yes",
    "name": "ADV-00004/5 - Ionity A2 N>S",
    "network": "Mobi.E",
    "opening_hours": "24/7",
    "operator": "Ionity",
    "parking:fee": "no",
    "ref": "ADV-00004;ADV-00005",
    "socket:type2_combo": "2",
    "socket:type2_combo:current": "500",
    "socket:type2_combo:output": "350kW",
    "socket:type2_combo:voltage": "920",
    "website": "https://www.mobie.pt/",
    "id": "node/8207021263"
  },
  "geometry": {
    "type": "Point",
    "coordinates": [
      -8.1848212,
      37.5357969
    ]
  }
},
{
  "type": "Feature",
  "id": "node/8232073282",
  "properties": {
    "access": "yes",
    "addr:country": "PT",
    "amenity": "charging_station",
    "authentication:app": "yes",
    "authentication:membership_card": "yes",
    "authentication:none": "no",
    "capacity": "2",
    "fee": "yes",
    "motorcar": "yes",
    "name": "BCL-00008/9 - Ionity A3 N>S",
    "network": "Mobi.E",
    "opening_hours": "24/7",
    "operator": "Ionity",
    "parking:fee": "no",
    "ref": "BCL-00008;BCL-00009",
    "socket:chademo": "2",
    "socket:chademo:current": "200",
    "socket:chademo:output": "100kW",
    "socket:chademo:voltage": "500",
    "socket:type2_combo": "2",
    "socket:type2_combo:current": "500",
    "socket:type2_combo:output": "350kW",
    "socket:type2_combo:voltage": "920",
    "website": "https://www.mobie.pt/",
    "id": "node/8232073282"
  },
  "geometry": {
    "type": "Point",
    "coordinates": [
      -8.5510066,
      41.6054688
    ]
  }
},
{
  "type": "Feature",
  "id": "node/8308860880",
  "properties": {
    "access": "yes",
    "addr:country": "PT",
    "amenity": "charging_station",
    "authentication:membership_card": "yes",
    "authentication:none": "no",
    "capacity": "2",
    "fee": "yes",
    "motorcar": "yes",
    "name": "ETZ-00008/9 - Ionity A6 E>O",
    "network": "Mobi.E",
    "opening_hours": "24/7",
    "operator": "Ionity",
    "parking:fee": "no",
    "ref": "ETZ-00008;ETZ-00009",
    "socket:chademo": "2",
    "socket:chademo:current": "200",
    "socket:chademo:output": "100kW",
    "socket:chademo:voltage": "500",
    "socket:type2_combo": "2",
    "socket:type2_combo:current": "500",
    "socket:type2_combo:output": "350kW",
    "socket:type2_combo:voltage": "920",
    "website": "https://www.mobie.pt/",
    "id": "node/8308860880"
  },
  "geometry": {
    "type": "Point",
    "coordinates": [
      -7.6610421,
      38.8004954
    ]
  }
},
{
  "type": "Feature",
  "id": "node/8308860881",
  "properties": {
    "access": "yes",
    "addr:country": "PT",
    "amenity": "charging_station",
    "authentication:membership_card": "yes",
    "authentication:none": "no",
    "capacity": "2",
    "fee": "yes",
    "motorcar": "yes",
    "name": "ETZ-00006/7 - Ionity A6 O>E",
    "network": "Mobi.E",
    "opening_hours": "24/7",
    "operator": "Ionity",
    "parking:fee": "no",
    "ref": "ETZ-00006;ETZ-00007",
    "socket:chademo": "2",
    "socket:chademo:current": "200",
    "socket:chademo:output": "100kW",
    "socket:chademo:voltage": "500",
    "socket:type2_combo": "2",
    "socket:type2_combo:current": "500",
    "socket:type2_combo:output": "350kW",
    "socket:type2_combo:voltage": "920",
    "website": "https://www.mobie.pt/",
    "id": "node/8308860881"
  },
  "geometry": {
    "type": "Point",
    "coordinates": [
      -7.6600188,
      38.7994304
    ]
  }
}
]
}
