{
"type": "FeatureCollection",
"features": [
{
  "type": "Feature",
  "id": "node/7773747775",
  "properties": {
    "access": "yes",
    "addr:country": "PT",
    "amenity": "charging_station",
    "authentication:membership_card": "yes",
    "authentication:none": "no",
    "capacity": "2",
    "email": "mobilidade.electricacrc@galp.com",
    "fee": "yes",
    "motorcar": "yes",
    "name": "ACH-00003",
    "network": "Mobi.E",
    "opening_hours": "24/7",
    "operator": "Galp Geste",
    "parking:fee": "no",
    "phone": "+351 800 249 249",
    "ref": "ACH-00003",
    "socket:chademo": "1",
    "socket:chademo:current": "120",
    "socket:chademo:output": "20kW",
    "socket:chademo:voltage": "500",
    "socket:type2_cable": "1",
    "socket:type2_cable:current": "30",
    "socket:type2_cable:output": "20kW",
    "socket:type2_cable:voltage": "400",
    "socket:type2_combo": "1",
    "socket:type2_combo:current": "125",
    "socket:type2_combo:output": "20kW",
    "socket:type2_combo:voltage": "500",
    "website": "https://www.mobie.pt",
    "id": "node/7773747775"
  },
  "geometry": {
    "type": "Point",
    "coordinates": [
      -8.9871383,
      38.7277199
    ]
  }
},
{
  "type": "Feature",
  "id": "node/8078341755",
  "properties": {
    "access": "yes",
    "addr:city": "Matosinhos",
    "addr:country": "PT",
    "addr:street": "Rua de Alfredo Cunha",
    "amenity": "charging_station",
    "authentication:membership_card": "yes",
    "authentication:none": "no",
    "capacity": "1",
    "email": "mobilidade.electricacrc@galp.com",
    "fee": "yes",
    "motorcar": "yes",
    "name": "MTS-00021 - Parque Casa Rotativa",
    "network": "Mobi.E",
    "opening_hours": "24/7",
    "operator": "Galp Power",
    "parking:fee": "no",
    "phone": "+351 800 249 249",
    "ref": "MTS-00021",
    "socket:chademo": "1",
    "socket:chademo:current": "120",
    "socket:chademo:output": "25kW",
    "socket:chademo:voltage": "500",
    "socket:type2_cable:voltage": "400",
    "socket:type2_combo": "1",
    "socket:type2_combo:current": "125",
    "socket:type2_combo:output": "25kW",
    "socket:type2_combo:voltage": "500",
    "website": "https://www.mobie.pt",
    "id": "node/8078341755"
  },
  "geometry": {
    "type": "Point",
    "coordinates": [
      -8.6815327,
      41.1843063
    ]
  }
},
{
  "type": "Feature",
  "id": "node/8231889334",
  "properties": {
    "access": "yes",
    "addr:city": "Póvoa de Varzim",
    "addr:country": "PT",
    "addr:street": "Avenida 25 de Abril",
    "amenity": "charging_station",
    "authentication:membership_card": "yes",
    "authentication:none": "no",
    "capacity": "1",
    "email": "electric@prioenergy.com",
    "fee": "yes",
    "motorcar": "yes",
    "name": "PVZ-00002",
    "network": "Mobi.E",
    "opening_hours": "24/7",
    "operator": "Prio.E",
    "parking:fee": "no",
    "phone": "+351 800 450 111",
    "ref": "PVZ-00002",
    "socket:chademo": "1",
    "socket:chademo:current": "120",
    "socket:chademo:output": "30kW",
    "socket:chademo:voltage": "500",
    "socket:tesla_destination": "1",
    "socket:tesla_destination:output": "11kW",
    "socket:type2_combo": "1",
    "socket:type2_combo:current": "125",
    "socket:type2_combo:output": "30kW",
    "socket:type2_combo:voltage": "500",
    "website": "https://www.mobie.pt",
    "id": "node/8231889334"
  },
  "geometry": {
    "type": "Point",
    "coordinates": [
      -8.7546042,
      41.392755
    ]
  }
},
{
  "type": "Feature",
  "id": "node/8270361501",
  "properties": {
    "access": "yes",
    "addr:country": "PT",
    "amenity": "charging_station",
    "capacity": "1",
    "fee": "no",
    "motorcar": "yes",
    "name": "Nissan Auto Elgê",
    "network": "Nissan",
    "opening_hours": "24/7",
    "operator": "Nissan",
    "parking:fee": "no",
    "socket:chademo": "1",
    "socket:chademo:current": "110",
    "socket:chademo:output": "44kW",
    "socket:chademo:voltage": "500",
    "socket:type2": "1",
    "socket:type2:current": "32",
    "socket:type2:output": "22kW",
    "socket:type2:voltage": "400",
    "id": "node/8270361501"
  },
  "geometry": {
    "type": "Point",
    "coordinates": [
      -25.6558509,
      37.7515965
    ]
  }
},
{
  "type": "Feature",
  "id": "node/8283998952",
  "properties": {
    "access": "yes",
    "addr:city": "Montijo",
    "addr:country": "PT",
    "amenity": "charging_station",
    "authentication:membership_card": "yes",
    "authentication:none": "no",
    "capacity": "6",
    "email": "renewing.charging@mota-engil.pt",
    "fee": "yes",
    "motorcar": "yes",
    "name": "MTJ-00006/7/8/9",
    "network": "Mobi.E",
    "opening_hours": "24/7",
    "operator": "Mota Engil II",
    "parking:fee": "no",
    "phone": "+351 800 020 940",
    "ref": "MTJ-00006;MTJ-00007;MTJ-00008;MTJ-00009",
    "socket:chademo": "1",
    "socket:chademo:current": "60",
    "socket:chademo:output": "25kW",
    "socket:chademo:voltage": "500",
    "socket:type2": "4",
    "socket:type2:current": "32",
    "socket:type2:output": "22kW",
    "socket:type2:voltage": "400",
    "socket:type2_combo": "2",
    "socket:type2_combo:current": "60",
    "socket:type2_combo:output": "25kW",
    "socket:type2_combo:voltage": "920",
    "website": "https://www.mobie.pt",
    "id": "node/8283998952"
  },
  "geometry": {
    "type": "Point",
    "coordinates": [
      -8.9423098,
      38.6959901
    ]
  }
},
{
  "type": "Feature",
  "id": "node/9194542213",
  "properties": {
    "access": "yes",
    "addr:country": "PT",
    "amenity": "charging_station",
    "authentication:membership_card": "yes",
    "authentication:none": "no",
    "capacity": "4",
    "fee": "yes",
    "motorcar": "yes",
    "name": "FAR-00012/13/14/26 - Fórum Algarve",
    "network": "Mobi.E",
    "opening_hours": "Mo-Su 10:00-23:00",
    "operator": "Mota Engil II",
    "parking:fee": "no",
    "ref": "FAR-00012;FAR-00013;FAR-00014;FAR-00026",
    "socket:chademo": "2",
    "socket:chademo:current": "60",
    "socket:chademo:output": "25kW",
    "socket:chademo:voltage": "500",
    "socket:type2": "2",
    "socket:type2:current": "16",
    "socket:type2:output": "11kW",
    "socket:type2:voltage": "400",
    "socket:type2_combo": "2",
    "socket:type2_combo:current": "60",
    "socket:type2_combo:output": "25kW",
    "socket:type2_combo:voltage": "920",
    "website": "https://www.mobie.pt",
    "id": "node/9194542213"
  },
  "geometry": {
    "type": "Point",
    "coordinates": [
      -7.9443276,
      37.0295546
    ]
  }
}
]
}
