{
  "version": 0.6,
  "generator": "Overpass API 0.7.56.9 76e5016d",
  "osm3s": {
    "copyright": "The data included in this document is from www.openstreetmap.org. The data is made available under ODbL."
  },
  "elements": [

{
  "type": "node",
  "id": 3697279496,
  "lat": 38.6963396,
  "lon": -9.4202929,
  "tags": {
    "access": "yes",
    "addr:city": "Cascais",
    "addr:housenumber": "2",
    "addr:postcode": "2750",
    "addr:street": "Rua Major Augusto Escrivanis",
    "authentication:membership_card": "yes",
    "capacity": "2",
    "construction:amenity": "charging_station",
    "name": "CSC-00001",
    "network": "Mobi.E",
    "operator": "Mobi.E",
    "ref": "CSC-00001",
    "socket:type2": "2",
    "socket:type2:current": "32",
    "socket:type2:output": "22kW",
    "socket:type2:voltage": "230",
    "website": "https://www.mobie.pt/"
  }
},
{
  "type": "node",
  "id": 4995720153,
  "lat": 38.5406616,
  "lon": -28.6240554,
  "tags": {
    "access": "yes",
    "addr:country": "PT",
    "capacity": "2",
    "construction:amenity": "charging_station",
    "name": "Largo do Bispo",
    "network": "none",
    "opening_hours": "24/7",
    "operator": "unknown",
    "parking:fee": "no",
    "socket:type2": "2"
  }
},
{
  "type": "node",
  "id": 6635524353,
  "lat": 40.6610315,
  "lon": -7.9029511,
  "tags": {
    "access": "yes",
    "addr:country": "PT",
    "authentication:membership_card": "yes",
    "authentication:none": "no",
    "capacity": "2",
    "construction:amenity": "charging_station",
    "fee": "yes",
    "motorcar": "yes",
    "name": "VIS-00053",
    "network": "Mobi.E",
    "opening_hours": "24/7",
    "operator": "EDP Comercial",
    "parking:fee": "no",
    "ref": "VIS-00053",
    "socket:type2": "2",
    "socket:type2:current": "16",
    "socket:type2:output": "3.7kW",
    "socket:type2:voltage": "230",
    "website": "https://www.mobie.pt/"
  }
},
{
  "type": "node",
  "id": 7070428801,
  "lat": 37.0763132,
  "lon": -8.0951241,
  "tags": {
    "access": "yes",
    "addr:city": "Quarteira",
    "addr:country": "PT",
    "addr:postcode": "8125-406",
    "addr:street": "Av. de Ceuta",
    "authentication:membership_card": "yes",
    "authentication:none": "no",
    "capacity": "2",
    "construction:amenity": "charging_station",
    "fee": "yes",
    "motorcar": "yes",
    "name": "LLE-00028",
    "network": "Mobi.E",
    "opening_hours": "24/7",
    "operator": "EDP Comercial",
    "parking:fee": "no",
    "ref": "LLE-00028",
    "socket:chademo": "1",
    "socket:chademo:current": "120",
    "socket:chademo:output": "50kW",
    "socket:chademo:voltage": "500",
    "socket:type2_cable": "1",
    "socket:type2_cable:current": "63",
    "socket:type2_cable:output": "43kW",
    "socket:type2_cable:voltage": "400",
    "socket:type2_combo": "1",
    "socket:type2_combo:current": "125",
    "socket:type2_combo:output": "50kW",
    "socket:type2_combo:voltage": "500",
    "website": "https://www.mobie.pt/"
  }
},
{
  "type": "node",
  "id": 8011154800,
  "lat": 38.7560651,
  "lon": -9.2044763,
  "tags": {
    "access": "yes",
    "addr:city": "Lisboa",
    "addr:country": "PT",
    "addr:street": "Calçada do Tojal",
    "authentication:membership_card": "yes",
    "authentication:none": "no",
    "capacity": "2",
    "construction:amenity": "charging_station",
    "fee": "yes",
    "motorcar": "yes",
    "name": "LSB-00090",
    "network": "Mobi.E",
    "opening_hours": "24/7",
    "operator": "Mobiletric",
    "parking:fee": "no",
    "ref": "LSB-00090",
    "socket:chademo": "1",
    "socket:chademo:current": "120",
    "socket:chademo:output": "50kW",
    "socket:chademo:voltage": "500",
    "socket:type2_cable": "1",
    "socket:type2_cable:current": "63",
    "socket:type2_cable:output": "43kW",
    "socket:type2_cable:voltage": "400",
    "socket:type2_combo": "1",
    "socket:type2_combo:current": "125",
    "socket:type2_combo:output": "50kW",
    "socket:type2_combo:voltage": "500",
    "website": "https://www.mobie.pt/"
  }
},
{
  "type": "node",
  "id": 8078271553,
  "lat": 40.5440248,
  "lon": -7.2163197,
  "tags": {
    "access": "yes",
    "addr:country": "PT",
    "authentication:membership_card": "yes",
    "authentication:none": "no",
    "capacity": "2",
    "construction:amenity": "charging_station",
    "fee": "yes",
    "motorcar": "yes",
    "name": "GRD-00008",
    "network": "Mobi.E",
    "opening_hours": "24/7",
    "operator": "Galp Geste",
    "parking:fee": "no",
    "ref": "GRD-00008",
    "socket:chademo": "1",
    "socket:chademo:current": "120",
    "socket:chademo:output": "50kW",
    "socket:chademo:voltage": "500",
    "socket:type2_cable": "1",
    "socket:type2_cable:current": "63",
    "socket:type2_cable:output": "43kW",
    "socket:type2_cable:voltage": "400",
    "socket:type2_combo": "1",
    "socket:type2_combo:current": "125",
    "socket:type2_combo:output": "50kW",
    "socket:type2_combo:voltage": "500",
    "website": "https://www.mobie.pt/"
  }
},
{
  "type": "node",
  "id": 8112609046,
  "lat": 40.6004436,
  "lon": -7.7525376,
  "tags": {
    "access": "yes",
    "addr:country": "PT",
    "authentication:membership_card": "yes",
    "authentication:none": "no",
    "capacity": "2",
    "construction:amenity": "charging_station",
    "email": "apoio.cliente@kmlowcost.com",
    "fee": "yes",
    "motorcar": "yes",
    "name": "MGL-00004",
    "network": "Mobi.E",
    "opening_hours": "24/7",
    "operator": "KLC",
    "parking:fee": "no",
    "phone": "+351 800 296 929",
    "ref": "MGL-00004",
    "socket:type2": "2",
    "socket:type2:current": "32",
    "socket:type2:output": "22kW",
    "socket:type2:voltage": "400",
    "website": "https://www.mobie.pt/"
  }
},
{
  "type": "node",
  "id": 8113074611,
  "lat": 41.4537879,
  "lon": -8.1676731,
  "tags": {
    "access": "yes",
    "addr:country": "PT",
    "authentication:membership_card": "yes",
    "authentication:none": "no",
    "capacity": "2",
    "construction:amenity": "charging_station",
    "email": "mobilidade.electricacrc@galp.com",
    "fee": "yes",
    "motorcar": "yes",
    "name": "FAF-00002",
    "network": "Mobi.E",
    "opening_hours": "24/7",
    "operator": "Galp Power",
    "parking:fee": "no",
    "phone": "+351 800 249 249",
    "ref": "FAF-90002",
    "socket:type2": "2",
    "socket:type2:current": "32",
    "socket:type2:output": "22kW",
    "socket:type2:voltage": "400",
    "website": "https://www.mobie.pt/"
  }
},
{
  "type": "node",
  "id": 8199838578,
  "lat": 37.1183458,
  "lon": -7.6632690,
  "tags": {
    "access": "yes",
    "addr:city": "Tavira",
    "addr:country": "PT",
    "authentication:membership_card": "yes",
    "authentication:none": "no",
    "capacity": "2",
    "construction:amenity": "charging_station",
    "fee": "yes",
    "motorcar": "yes",
    "name": "TVR-00012 - Galp",
    "network": "Mobi.E",
    "opening_hours": "24/7",
    "operator": "Galp Geste",
    "parking:fee": "no",
    "ref": "TVR-00012",
    "socket:chademo": "1",
    "socket:chademo:current": "120",
    "socket:chademo:output": "50kW",
    "socket:chademo:voltage": "500",
    "socket:type2_cable": "1",
    "socket:type2_cable:current": "63",
    "socket:type2_cable:output": "43kW",
    "socket:type2_cable:voltage": "400",
    "socket:type2_combo": "1",
    "socket:type2_combo:current": "125",
    "socket:type2_combo:output": "50kW",
    "socket:type2_combo:voltage": "500",
    "website": "https://www.mobie.pt/"
  }
},
{
  "type": "node",
  "id": 8200130058,
  "lat": 37.1242844,
  "lon": -8.3350718,
  "tags": {
    "access": "yes",
    "addr:city": "Pêra",
    "addr:country": "PT",
    "addr:street": "EN 125",
    "authentication:membership_card": "yes",
    "authentication:none": "no",
    "capacity": "2",
    "construction:amenity": "charging_station",
    "fee": "yes",
    "motorcar": "yes",
    "name": "SLV-XXXXX",
    "network": "Mobi.E",
    "opening_hours": "24/7",
    "operator": "Galp Geste",
    "parking:fee": "no",
    "ref": "SLV-XXXXX",
    "socket:chademo": "1",
    "socket:chademo:current": "120",
    "socket:chademo:output": "50kW",
    "socket:chademo:voltage": "500",
    "socket:type2_cable": "1",
    "socket:type2_cable:current": "63",
    "socket:type2_cable:output": "43kW",
    "socket:type2_cable:voltage": "400",
    "socket:type2_combo": "1",
    "socket:type2_combo:current": "125",
    "socket:type2_combo:output": "50kW",
    "socket:type2_combo:voltage": "500",
    "website": "https://www.mobie.pt/"
  }
},
{
  "type": "node",
  "id": 8206970204,
  "lat": 37.1305664,
  "lon": -8.5452968,
  "tags": {
    "access": "yes",
    "addr:city": "Portimão",
    "addr:country": "PT",
    "addr:street": "Avenida São Lourenço da Barrosa (V6)",
    "authentication:membership_card": "yes",
    "authentication:none": "no",
    "capacity": "2",
    "construction:amenity": "charging_station",
    "fee": "yes",
    "motorcar": "yes",
    "name": "PTM-XXXXX",
    "network": "Mobi.E",
    "opening_hours": "24/7",
    "operator": "Galp Geste",
    "parking:fee": "no",
    "ref": "PTM-XXXXX",
    "socket:chademo": "1",
    "socket:chademo:current": "120",
    "socket:chademo:output": "50kW",
    "socket:chademo:voltage": "500",
    "socket:type2_cable": "1",
    "socket:type2_cable:current": "63",
    "socket:type2_cable:output": "43kW",
    "socket:type2_cable:voltage": "400",
    "socket:type2_combo": "1",
    "socket:type2_combo:current": "125",
    "socket:type2_combo:output": "50kW",
    "socket:type2_combo:voltage": "500",
    "website": "https://www.mobie.pt/"
  }
},
{
  "type": "node",
  "id": 8206970205,
  "lat": 37.1371189,
  "lon": -8.4642333,
  "tags": {
    "access": "yes",
    "addr:city": "Lagoa",
    "addr:country": "PT",
    "authentication:membership_card": "yes",
    "authentication:none": "no",
    "capacity": "2",
    "construction:amenity": "charging_station",
    "email": "geral.pt@helexia.eu",
    "fee": "yes",
    "motorcar": "yes",
    "name": "LGA-00008 - Auchan",
    "network": "Mobi.E",
    "opening_hours": "24/7",
    "operator": "Helexia II",
    "parking:fee": "no",
    "phone": "+351 800 100 303",
    "ref": "LGA-00008",
    "socket:chademo": "1",
    "socket:chademo:current": "120",
    "socket:chademo:output": "50kW",
    "socket:chademo:voltage": "500",
    "socket:type2_cable": "1",
    "socket:type2_cable:current": "63",
    "socket:type2_cable:output": "43kW",
    "socket:type2_cable:voltage": "400",
    "socket:type2_combo": "1",
    "socket:type2_combo:current": "125",
    "socket:type2_combo:output": "50kW",
    "socket:type2_combo:voltage": "500",
    "website": "https://www.mobie.pt/"
  }
},
{
  "type": "node",
  "id": 8207151870,
  "lat": 38.8422583,
  "lon": -7.5875483,
  "tags": {
    "access": "yes",
    "addr:city": "Estremoz",
    "addr:country": "PT",
    "addr:street": "Rua de Santo André",
    "authentication:membership_card": "yes",
    "authentication:none": "no",
    "capacity": "2",
    "construction:amenity": "charging_station",
    "fee": "yes",
    "motorcar": "yes",
    "name": "ETZ-00002",
    "network": "Mobi.E",
    "opening_hours": "24/7",
    "operator": "Mobi.E",
    "parking:fee": "no",
    "ref": "ETZ-00002",
    "socket:chademo": "1",
    "socket:chademo:current": "120",
    "socket:chademo:output": "50kW",
    "socket:chademo:voltage": "500",
    "socket:type2_cable": "1",
    "socket:type2_cable:current": "63",
    "socket:type2_cable:output": "43kW",
    "socket:type2_cable:voltage": "400",
    "socket:type2_combo": "1",
    "socket:type2_combo:current": "125",
    "socket:type2_combo:output": "50kW",
    "socket:type2_combo:voltage": "500",
    "website": "https://www.mobie.pt/"
  }
},
{
  "type": "node",
  "id": 8207177857,
  "lat": 38.6313095,
  "lon": -9.1185524,
  "tags": {
    "access": "yes",
    "addr:city": "Amora",
    "addr:country": "PT",
    "authentication:membership_card": "yes",
    "authentication:none": "no",
    "capacity": "1",
    "construction:amenity": "charging_station",
    "fee": "yes",
    "motorcar": "yes",
    "name": "SXL-00003",
    "network": "Mobi.E",
    "opening_hours": "24/7",
    "operator": "Prio.E",
    "parking:fee": "no",
    "ref": "SXL-00003",
    "socket:chademo": "1",
    "socket:chademo:current": "120",
    "socket:chademo:output": "50kW",
    "socket:chademo:voltage": "500",
    "socket:type2_combo": "1",
    "socket:type2_combo:current": "125",
    "socket:type2_combo:output": "50kW",
    "socket:type2_combo:voltage": "500",
    "website": "https://www.mobie.pt/"
  }
},
{
  "type": "node",
  "id": 8207182589,
  "lat": 38.6304043,
  "lon": -9.1767101,
  "tags": {
    "access": "yes",
    "addr:city": "Almada",
    "addr:country": "PT",
    "addr:street": "Estrada Quinta da Carcereira",
    "authentication:membership_card": "yes",
    "authentication:none": "no",
    "capacity": "2",
    "construction:amenity": "charging_station",
    "fee": "yes",
    "motorcar": "yes",
    "name": "ALM-XXXXX",
    "network": "Mobi.E",
    "opening_hours": "24/7",
    "operator": "Galp Geste",
    "parking:fee": "no",
    "ref": "ALM-XXXXX",
    "socket:chademo": "1",
    "socket:chademo:current": "120",
    "socket:chademo:output": "50kW",
    "socket:chademo:voltage": "500",
    "socket:type2_cable": "1",
    "socket:type2_cable:current": "63",
    "socket:type2_cable:output": "43kW",
    "socket:type2_cable:voltage": "400",
    "socket:type2_combo": "1",
    "socket:type2_combo:current": "125",
    "socket:type2_combo:output": "50kW",
    "socket:type2_combo:voltage": "500",
    "website": "https://www.mobie.pt/"
  }
},
{
  "type": "node",
  "id": 8207192101,
  "lat": 38.5857424,
  "lon": -8.9300233,
  "tags": {
    "access": "yes",
    "addr:city": "Palmela",
    "addr:country": "PT",
    "authentication:membership_card": "yes",
    "authentication:none": "no",
    "capacity": "2",
    "construction:amenity": "charging_station",
    "fee": "yes",
    "motorcar": "yes",
    "name": "PLM-00003",
    "network": "Mobi.E",
    "opening_hours": "24/7",
    "operator": "Galp Geste",
    "parking:fee": "no",
    "ref": "PLM-00003",
    "socket:chademo": "1",
    "socket:chademo:current": "120",
    "socket:chademo:output": "50kW",
    "socket:chademo:voltage": "500",
    "socket:type2_cable": "1",
    "socket:type2_cable:current": "63",
    "socket:type2_cable:output": "43kW",
    "socket:type2_cable:voltage": "400",
    "socket:type2_combo": "1",
    "socket:type2_combo:current": "125",
    "socket:type2_combo:output": "50kW",
    "socket:type2_combo:voltage": "500",
    "website": "https://www.mobie.pt/"
  }
},
{
  "type": "node",
  "id": 8207252507,
  "lat": 38.5628437,
  "lon": -9.0743744,
  "tags": {
    "access": "yes",
    "addr:city": "Fernão Ferro",
    "addr:country": "PT",
    "addr:street": "Avenida 10 de Junho",
    "authentication:membership_card": "yes",
    "authentication:none": "no",
    "capacity": "2",
    "construction:amenity": "charging_station",
    "fee": "yes",
    "motorcar": "yes",
    "name": "SXL-XXXXX - Intermarché Fernão Ferro",
    "network": "Mobi.E",
    "opening_hours": "24/7",
    "operator": "Mobiletric",
    "parking:fee": "no",
    "ref": "SXL-XXXXX;STB-00016",
    "socket:chademo": "1",
    "socket:chademo:current": "120",
    "socket:chademo:output": "50kW",
    "socket:chademo:voltage": "500",
    "socket:type2_cable": "1",
    "socket:type2_cable:current": "63",
    "socket:type2_cable:output": "43kW",
    "socket:type2_cable:voltage": "400",
    "socket:type2_combo": "1",
    "socket:type2_combo:current": "125",
    "socket:type2_combo:output": "50kW",
    "socket:type2_combo:voltage": "500",
    "website": "https://www.mobie.pt/"
  }
},
{
  "type": "node",
  "id": 8207453605,
  "lat": 38.7989485,
  "lon": -9.1971472,
  "tags": {
    "access": "yes",
    "addr:city": "Odivelas",
    "addr:country": "PT",
    "addr:street": "Avenida das Acácias",
    "authentication:membership_card": "yes",
    "authentication:none": "no",
    "capacity": "1",
    "construction:amenity": "charging_station",
    "fee": "yes",
    "motorcar": "yes",
    "name": "ODV-00004",
    "network": "Mobi.E",
    "opening_hours": "24/7",
    "operator": "Prio.E",
    "parking:fee": "no",
    "ref": "ODV-00004",
    "socket:chademo": "1",
    "socket:chademo:current": "120",
    "socket:chademo:output": "50kW",
    "socket:chademo:voltage": "500",
    "socket:type2_combo": "1",
    "socket:type2_combo:current": "125",
    "socket:type2_combo:output": "50kW",
    "socket:type2_combo:voltage": "500",
    "website": "https://www.mobie.pt/"
  }
},
{
  "type": "node",
  "id": 8207481318,
  "lat": 38.7550789,
  "lon": -9.2171752,
  "tags": {
    "access": "yes",
    "addr:city": "Amadora",
    "addr:country": "PT",
    "addr:street": "Rua Elias Garcia",
    "authentication:membership_card": "yes",
    "authentication:none": "no",
    "capacity": "2",
    "construction:amenity": "charging_station",
    "fee": "yes",
    "motorcar": "yes",
    "name": "LSB-00184",
    "network": "Mobi.E",
    "opening_hours": "24/7",
    "operator": "KLC",
    "parking:fee": "no",
    "ref": "LSB-00184",
    "socket:chademo": "1",
    "socket:chademo:current": "120",
    "socket:chademo:output": "50kW",
    "socket:chademo:voltage": "500",
    "socket:type2_cable": "1",
    "socket:type2_cable:current": "63",
    "socket:type2_cable:output": "43kW",
    "socket:type2_cable:voltage": "400",
    "socket:type2_combo": "1",
    "socket:type2_combo:current": "125",
    "socket:type2_combo:output": "50kW",
    "socket:type2_combo:voltage": "500",
    "website": "https://www.mobie.pt/"
  }
},
{
  "type": "node",
  "id": 8207710325,
  "lat": 38.6937564,
  "lon": -9.2176782,
  "tags": {
    "access": "yes",
    "addr:city": "Lisboa",
    "addr:country": "PT",
    "addr:street": "Avenida da Índia",
    "authentication:membership_card": "yes",
    "authentication:none": "no",
    "capacity": "2",
    "construction:amenity": "charging_station",
    "fee": "yes",
    "motorcar": "yes",
    "name": "LSB-00310",
    "network": "Mobi.E",
    "opening_hours": "24/7",
    "operator": "Galp Geste",
    "parking:fee": "no",
    "ref": "LSB-00310",
    "socket:chademo": "1",
    "socket:chademo:current": "120",
    "socket:chademo:output": "50kW",
    "socket:chademo:voltage": "500",
    "socket:type2_cable": "1",
    "socket:type2_cable:current": "63",
    "socket:type2_cable:output": "43kW",
    "socket:type2_cable:voltage": "400",
    "socket:type2_combo": "1",
    "socket:type2_combo:current": "125",
    "socket:type2_combo:output": "50kW",
    "socket:type2_combo:voltage": "500",
    "website": "https://www.mobie.pt/"
  }
},
{
  "type": "node",
  "id": 8220947976,
  "lat": 38.7139502,
  "lon": -9.2252782,
  "tags": {
    "access": "yes",
    "addr:city": "Algés",
    "addr:country": "PT",
    "addr:street": "Alameda Fernão Lopes",
    "authentication:membership_card": "yes",
    "authentication:none": "no",
    "capacity": "2",
    "construction:amenity": "charging_station",
    "fee": "yes",
    "motorcar": "yes",
    "name": "OER-00062",
    "network": "Mobi.E",
    "opening_hours": "24/7",
    "operator": "Mobiletric",
    "parking:fee": "no",
    "ref": "OER-00062",
    "socket:chademo": "1",
    "socket:chademo:current": "120",
    "socket:chademo:output": "50kW",
    "socket:chademo:voltage": "500",
    "socket:type2_cable": "1",
    "socket:type2_cable:current": "63",
    "socket:type2_cable:output": "43kW",
    "socket:type2_cable:voltage": "400",
    "socket:type2_combo": "1",
    "socket:type2_combo:current": "125",
    "socket:type2_combo:output": "50kW",
    "socket:type2_combo:voltage": "500",
    "website": "https://www.mobie.pt/"
  }
},
{
  "type": "node",
  "id": 8220947977,
  "lat": 38.7116993,
  "lon": -9.2255075,
  "tags": {
    "access": "yes",
    "addr:city": "Algés",
    "addr:country": "PT",
    "addr:street": "Avenida General Norton de Matos",
    "authentication:membership_card": "yes",
    "authentication:none": "no",
    "capacity": "1",
    "construction:amenity": "charging_station",
    "fee": "yes",
    "motorcar": "yes",
    "name": "OER-XXXXX - Parque de Miraflores",
    "network": "Mobi.E",
    "opening_hours": "24/7",
    "operator": "Galp Power",
    "parking:fee": "no",
    "ref": "OER-XXXXX",
    "socket:chademo": "1",
    "socket:chademo:current": "120",
    "socket:chademo:output": "50kW",
    "socket:chademo:voltage": "500",
    "socket:type2_combo": "1",
    "socket:type2_combo:current": "350",
    "socket:type2_combo:output": "160kW",
    "socket:type2_combo:voltage": "920",
    "website": "https://www.mobie.pt/"
  }
},
{
  "type": "node",
  "id": 8221001002,
  "lat": 38.7162735,
  "lon": -9.2404728,
  "tags": {
    "access": "yes",
    "addr:city": "Linda-a-Velha",
    "addr:country": "PT",
    "addr:street": "Avenida 25 de Abril de 1974",
    "authentication:membership_card": "yes",
    "authentication:none": "no",
    "capacity": "2",
    "construction:amenity": "charging_station",
    "email": "mobilidade.electricacrc@galp.com",
    "fee": "yes",
    "motorcar": "yes",
    "name": "OER-XXXXX",
    "network": "Mobi.E",
    "opening_hours": "24/7",
    "operator": "Galp Geste",
    "parking:fee": "no",
    "phone": "+351 800 249 249",
    "ref": "OER-XXXXX",
    "socket:chademo": "1",
    "socket:chademo:current": "120",
    "socket:chademo:output": "50kW",
    "socket:chademo:voltage": "500",
    "socket:type2_cable": "1",
    "socket:type2_cable:current": "63",
    "socket:type2_cable:output": "43kW",
    "socket:type2_cable:voltage": "400",
    "socket:type2_combo": "1",
    "socket:type2_combo:current": "125",
    "socket:type2_combo:output": "50kW",
    "socket:type2_combo:voltage": "500",
    "website": "https://www.mobie.pt/"
  }
},
{
  "type": "node",
  "id": 8221024155,
  "lat": 38.7157924,
  "lon": -9.2403030,
  "tags": {
    "access": "yes",
    "addr:city": "Linda-a-Velha",
    "addr:country": "PT",
    "addr:street": "Avenida 25 de Abril de 1974",
    "authentication:membership_card": "yes",
    "authentication:none": "no",
    "capacity": "1",
    "construction:amenity": "charging_station",
    "fee": "yes",
    "motorcar": "yes",
    "name": "OER-00033",
    "network": "Mobi.E",
    "opening_hours": "24/7",
    "operator": "Mobiletric",
    "parking:fee": "no",
    "ref": "OER-00033",
    "socket:chademo": "1",
    "socket:chademo:current": "120",
    "socket:chademo:output": "50kW",
    "socket:chademo:voltage": "500",
    "socket:type2_combo": "1",
    "socket:type2_combo:current": "350",
    "socket:type2_combo:output": "160kW",
    "socket:type2_combo:voltage": "920",
    "website": "https://www.mobie.pt/"
  }
},
{
  "type": "node",
  "id": 8221042528,
  "lat": 38.7125123,
  "lon": -9.2425439,
  "tags": {
    "access": "yes",
    "addr:city": "Linda-a-Velha",
    "addr:country": "PT",
    "addr:street": "Largo do Mercado",
    "authentication:membership_card": "yes",
    "authentication:none": "no",
    "capacity": "2",
    "construction:amenity": "charging_station",
    "fee": "yes",
    "motorcar": "yes",
    "name": "OER-00045 - Mercado de Linda-a-Velha",
    "network": "Mobi.E",
    "opening_hours": "24/7",
    "operator": "Mobiletric",
    "parking:fee": "no",
    "ref": "OER-00045",
    "socket:chademo": "1",
    "socket:chademo:current": "120",
    "socket:chademo:output": "50kW",
    "socket:chademo:voltage": "500",
    "socket:type2_cable": "1",
    "socket:type2_cable:current": "63",
    "socket:type2_cable:output": "43kW",
    "socket:type2_cable:voltage": "400",
    "socket:type2_combo": "1",
    "socket:type2_combo:current": "125",
    "socket:type2_combo:output": "50kW",
    "socket:type2_combo:voltage": "500",
    "website": "https://www.mobie.pt/"
  }
},
{
  "type": "node",
  "id": 8222759971,
  "lat": 38.7016321,
  "lon": -9.2756906,
  "tags": {
    "access": "yes",
    "addr:city": "Oeiras",
    "addr:country": "PT",
    "addr:street": "Rua Doutor Manuel Rodrigues",
    "authentication:membership_card": "yes",
    "authentication:none": "no",
    "capacity": "2",
    "construction:amenity": "charging_station",
    "fee": "yes",
    "motorcar": "yes",
    "name": "OER-XXXXX",
    "network": "Mobi.E",
    "opening_hours": "24/7",
    "operator": "Galp Power",
    "parking:fee": "no",
    "ref": "OER-XXXXX",
    "socket:chademo": "1",
    "socket:chademo:current": "120",
    "socket:chademo:output": "50kW",
    "socket:chademo:voltage": "500",
    "socket:type2_cable": "1",
    "socket:type2_cable:current": "63",
    "socket:type2_cable:output": "43kW",
    "socket:type2_cable:voltage": "400",
    "socket:type2_combo": "1",
    "socket:type2_combo:current": "125",
    "socket:type2_combo:output": "50kW",
    "socket:type2_combo:voltage": "500",
    "website": "https://www.mobie.pt/"
  }
},
{
  "type": "node",
  "id": 8222759972,
  "lat": 38.7193331,
  "lon": -9.2622998,
  "tags": {
    "access": "yes",
    "addr:city": "Queijas",
    "addr:country": "PT",
    "addr:street": "Rua João XXI",
    "authentication:membership_card": "yes",
    "authentication:none": "no",
    "capacity": "1",
    "construction:amenity": "charging_station",
    "fee": "yes",
    "motorcar": "yes",
    "name": "OER-XXXXX - Mercado de Queijas",
    "network": "Mobi.E",
    "opening_hours": "24/7",
    "operator": "Galp Power",
    "parking:fee": "no",
    "ref": "OER-XXXXX",
    "socket:chademo": "1",
    "socket:chademo:current": "120",
    "socket:chademo:output": "50kW",
    "socket:chademo:voltage": "500",
    "socket:type2_combo": "1",
    "socket:type2_combo:current": "350",
    "socket:type2_combo:output": "160kW",
    "socket:type2_combo:voltage": "920",
    "website": "https://www.mobie.pt/"
  }
},
{
  "type": "node",
  "id": 8222763507,
  "lat": 38.7144562,
  "lon": -9.3096517,
  "tags": {
    "access": "yes",
    "addr:city": "Porto Salvo",
    "addr:country": "PT",
    "authentication:membership_card": "yes",
    "authentication:none": "no",
    "capacity": "2",
    "construction:amenity": "charging_station",
    "fee": "yes",
    "motorcar": "yes",
    "name": "OER-XXXXX - Lagoas Park",
    "network": "Mobi.E",
    "opening_hours": "24/7",
    "operator": "unknown",
    "parking:fee": "no",
    "ref": "OER-XXXXX",
    "socket:chademo": "1",
    "socket:chademo:current": "120",
    "socket:chademo:output": "50kW",
    "socket:chademo:voltage": "500",
    "socket:type2_cable": "1",
    "socket:type2_cable:current": "63",
    "socket:type2_cable:output": "43kW",
    "socket:type2_cable:voltage": "400",
    "socket:type2_combo": "1",
    "socket:type2_combo:current": "125",
    "socket:type2_combo:output": "50kW",
    "socket:type2_combo:voltage": "500",
    "website": "https://www.mobie.pt/"
  }
},
{
  "type": "node",
  "id": 8222780285,
  "lat": 38.7316172,
  "lon": -9.2781894,
  "tags": {
    "access": "yes",
    "addr:city": "Barcarena",
    "addr:country": "PT",
    "addr:street": "Largo 5 de Outubro",
    "authentication:membership_card": "yes",
    "authentication:none": "no",
    "capacity": "2",
    "construction:amenity": "charging_station",
    "fee": "yes",
    "motorcar": "yes",
    "name": "OER-XXXXX - Junta de Freguesia de Barcarena",
    "network": "Mobi.E",
    "opening_hours": "24/7",
    "operator": "Mobiletric",
    "parking:fee": "no",
    "ref": "OER-XXXXX",
    "socket:chademo": "1",
    "socket:chademo:current": "120",
    "socket:chademo:output": "50kW",
    "socket:chademo:voltage": "500",
    "socket:type2_cable": "1",
    "socket:type2_cable:current": "63",
    "socket:type2_cable:output": "43kW",
    "socket:type2_cable:voltage": "400",
    "socket:type2_combo": "1",
    "socket:type2_combo:current": "125",
    "socket:type2_combo:output": "50kW",
    "socket:type2_combo:voltage": "500",
    "website": "https://www.mobie.pt/"
  }
},
{
  "type": "node",
  "id": 8222805987,
  "lat": 38.7413266,
  "lon": -9.3057491,
  "tags": {
    "access": "yes",
    "addr:city": "Porto Salvo",
    "addr:country": "PT",
    "addr:street": "Avenida Professor Doutor Cavaco Silva",
    "authentication:membership_card": "yes",
    "authentication:none": "no",
    "capacity": "2",
    "construction:amenity": "charging_station",
    "fee": "yes",
    "motorcar": "yes",
    "name": "OER-00058",
    "network": "Mobi.E",
    "opening_hours": "24/7",
    "operator": "Mobiletric",
    "parking:fee": "no",
    "ref": "OER-00058",
    "socket:chademo": "1",
    "socket:chademo:current": "120",
    "socket:chademo:output": "50kW",
    "socket:chademo:voltage": "500",
    "socket:type2_cable": "1",
    "socket:type2_cable:current": "63",
    "socket:type2_cable:output": "43kW",
    "socket:type2_cable:voltage": "400",
    "socket:type2_combo": "1",
    "socket:type2_combo:current": "125",
    "socket:type2_combo:output": "50kW",
    "socket:type2_combo:voltage": "500",
    "website": "https://www.mobie.pt/"
  }
},
{
  "type": "node",
  "id": 8222811020,
  "lat": 38.7388118,
  "lon": -9.3041341,
  "tags": {
    "access": "yes",
    "addr:city": "Oeiras",
    "addr:country": "PT",
    "addr:street": "Praça Central do Tagus Park",
    "authentication:membership_card": "yes",
    "authentication:none": "no",
    "capacity": "2",
    "construction:amenity": "charging_station",
    "fee": "yes",
    "motorcar": "yes",
    "name": "OER-00017",
    "network": "Mobi.E",
    "opening_hours": "24/7",
    "operator": "KLC",
    "parking:fee": "no",
    "ref": "OER-00017",
    "socket:chademo": "1",
    "socket:chademo:current": "120",
    "socket:chademo:output": "50kW",
    "socket:chademo:voltage": "500",
    "socket:type2_cable": "1",
    "socket:type2_cable:current": "63",
    "socket:type2_cable:output": "43kW",
    "socket:type2_cable:voltage": "400",
    "socket:type2_combo": "1",
    "socket:type2_combo:current": "125",
    "socket:type2_combo:output": "50kW",
    "socket:type2_combo:voltage": "500",
    "website": "https://www.mobie.pt/"
  }
},
{
  "type": "node",
  "id": 8222828643,
  "lat": 38.7398862,
  "lon": -9.3031098,
  "tags": {
    "access": "yes",
    "addr:city": "Oeiras",
    "addr:country": "PT",
    "authentication:membership_card": "yes",
    "authentication:none": "no",
    "capacity": "2",
    "construction:amenity": "charging_station",
    "fee": "yes",
    "motorcar": "yes",
    "name": "OER-00064",
    "network": "Mobi.E",
    "opening_hours": "24/7",
    "operator": "Galp Power",
    "parking:fee": "no",
    "ref": "OER-00064",
    "socket:chademo": "1",
    "socket:chademo:current": "120",
    "socket:chademo:output": "50kW",
    "socket:chademo:voltage": "500",
    "socket:type2_cable": "1",
    "socket:type2_cable:current": "63",
    "socket:type2_cable:output": "43kW",
    "socket:type2_cable:voltage": "400",
    "socket:type2_combo": "1",
    "socket:type2_combo:current": "125",
    "socket:type2_combo:output": "50kW",
    "socket:type2_combo:voltage": "500",
    "website": "https://www.mobie.pt/"
  }
},
{
  "type": "node",
  "id": 8222828681,
  "lat": 38.7219642,
  "lon": -9.3030247,
  "tags": {
    "access": "yes",
    "addr:city": "Porto Salvo",
    "addr:country": "PT",
    "addr:street": "Rua Carlos Carneiro",
    "authentication:membership_card": "yes",
    "authentication:none": "no",
    "capacity": "2",
    "construction:amenity": "charging_station",
    "fee": "yes",
    "motorcar": "yes",
    "name": "OER-XXXXX - Junta de Freguesia de Porto Salvo",
    "network": "Mobi.E",
    "opening_hours": "24/7",
    "operator": "unknown",
    "parking:fee": "no",
    "ref": "OER-XXXXX",
    "socket:chademo": "1",
    "socket:chademo:current": "120",
    "socket:chademo:output": "50kW",
    "socket:chademo:voltage": "500",
    "socket:type2_cable": "1",
    "socket:type2_cable:current": "63",
    "socket:type2_cable:output": "43kW",
    "socket:type2_cable:voltage": "400",
    "socket:type2_combo": "1",
    "socket:type2_combo:current": "125",
    "socket:type2_combo:output": "50kW",
    "socket:type2_combo:voltage": "500",
    "website": "https://www.mobie.pt/"
  }
},
{
  "type": "node",
  "id": 8222834849,
  "lat": 38.7775724,
  "lon": -9.3481739,
  "tags": {
    "access": "yes",
    "addr:city": "Mem Martins",
    "addr:country": "PT",
    "authentication:membership_card": "yes",
    "authentication:none": "no",
    "capacity": "2",
    "construction:amenity": "charging_station",
    "fee": "yes",
    "motorcar": "yes",
    "name": "SNT-00036 - Auchan Sintra",
    "network": "Mobi.E",
    "opening_hours": "24/7",
    "operator": "Helexia II",
    "parking:fee": "no",
    "ref": "SNT-00036",
    "socket:chademo": "1",
    "socket:chademo:current": "120",
    "socket:chademo:output": "50kW",
    "socket:chademo:voltage": "500",
    "socket:type2_cable": "1",
    "socket:type2_cable:current": "63",
    "socket:type2_cable:output": "43kW",
    "socket:type2_cable:voltage": "400",
    "socket:type2_combo": "1",
    "socket:type2_combo:current": "125",
    "socket:type2_combo:output": "50kW",
    "socket:type2_combo:voltage": "500",
    "website": "https://www.mobie.pt/"
  }
},
{
  "type": "node",
  "id": 8222847552,
  "lat": 38.7196890,
  "lon": -9.4414312,
  "tags": {
    "access": "yes",
    "addr:city": "Malveira da Serra",
    "addr:country": "PT",
    "addr:street": "Birre",
    "authentication:membership_card": "yes",
    "authentication:none": "no",
    "capacity": "2",
    "construction:amenity": "charging_station",
    "fee": "yes",
    "motorcar": "yes",
    "name": "CSC-XXXXX - Galp Estrada da Malveira da Serra",
    "network": "Mobi.E",
    "opening_hours": "24/7",
    "operator": "Galp Geste",
    "parking:fee": "no",
    "ref": "CSC-XXXXX",
    "socket:chademo": "1",
    "socket:chademo:current": "120",
    "socket:chademo:output": "50kW",
    "socket:chademo:voltage": "500",
    "socket:type2_cable": "1",
    "socket:type2_cable:current": "63",
    "socket:type2_cable:output": "43kW",
    "socket:type2_cable:voltage": "400",
    "socket:type2_combo": "1",
    "socket:type2_combo:current": "125",
    "socket:type2_combo:output": "50kW",
    "socket:type2_combo:voltage": "500",
    "website": "https://www.mobie.pt/"
  }
},
{
  "type": "node",
  "id": 8222924827,
  "lat": 38.7018159,
  "lon": -9.2939088,
  "tags": {
    "access": "yes",
    "addr:city": "Oeiras",
    "addr:country": "PT",
    "addr:street": "Rua José Pedro da Silva",
    "authentication:membership_card": "yes",
    "authentication:none": "no",
    "capacity": "1",
    "construction:amenity": "charging_station",
    "fee": "yes",
    "motorcar": "yes",
    "name": "OER-XXXXX",
    "network": "Mobi.E",
    "opening_hours": "24/7",
    "operator": "unknown",
    "parking:fee": "no",
    "ref": "OER-XXXXX",
    "socket:chademo": "1",
    "socket:chademo:current": "120",
    "socket:chademo:output": "50kW",
    "socket:chademo:voltage": "500",
    "socket:type2_combo": "1",
    "socket:type2_combo:current": "350",
    "socket:type2_combo:output": "160kW",
    "socket:type2_combo:voltage": "920",
    "website": "https://www.mobie.pt/"
  }
},
{
  "type": "node",
  "id": 8222940114,
  "lat": 38.7118683,
  "lon": -9.2976354,
  "tags": {
    "access": "yes",
    "addr:city": "Paço de Arcos",
    "addr:country": "PT",
    "authentication:membership_card": "yes",
    "authentication:none": "no",
    "capacity": "2",
    "construction:amenity": "charging_station",
    "fee": "yes",
    "motorcar": "yes",
    "name": "OER-XXXXX - Quinta da Fonte Nascente",
    "network": "Mobi.E",
    "opening_hours": "24/7",
    "operator": "unknown",
    "parking:fee": "no",
    "ref": "OER-XXXXX",
    "socket:chademo": "1",
    "socket:chademo:current": "120",
    "socket:chademo:output": "50kW",
    "socket:chademo:voltage": "500",
    "socket:type2_cable": "1",
    "socket:type2_cable:current": "63",
    "socket:type2_cable:output": "43kW",
    "socket:type2_cable:voltage": "400",
    "socket:type2_combo": "1",
    "socket:type2_combo:current": "125",
    "socket:type2_combo:output": "50kW",
    "socket:type2_combo:voltage": "500",
    "website": "https://www.mobie.pt/"
  }
},
{
  "type": "node",
  "id": 8222975139,
  "lat": 38.6967840,
  "lon": -9.2933672,
  "tags": {
    "access": "yes",
    "addr:city": "Paço de Arcos",
    "addr:country": "PT",
    "addr:street": "Rua Luciano Cordeiro",
    "authentication:membership_card": "yes",
    "authentication:none": "no",
    "capacity": "2",
    "construction:amenity": "charging_station",
    "fee": "yes",
    "motorcar": "yes",
    "name": "OER-XXXXX - Estação Paço de Arcos",
    "network": "Mobi.E",
    "opening_hours": "24/7",
    "operator": "unknown",
    "parking:fee": "no",
    "ref": "OER-XXXXX",
    "socket:chademo": "1",
    "socket:chademo:current": "120",
    "socket:chademo:output": "50kW",
    "socket:chademo:voltage": "500",
    "socket:type2_cable": "1",
    "socket:type2_cable:current": "63",
    "socket:type2_cable:output": "43kW",
    "socket:type2_cable:voltage": "400",
    "socket:type2_combo": "1",
    "socket:type2_combo:current": "125",
    "socket:type2_combo:output": "50kW",
    "socket:type2_combo:voltage": "500",
    "website": "https://www.mobie.pt/"
  }
},
{
  "type": "node",
  "id": 8223005911,
  "lat": 38.7007208,
  "lon": -9.3051247,
  "tags": {
    "access": "yes",
    "addr:city": "Oeiras",
    "addr:country": "PT",
    "addr:street": "Rua do Coro de Santo Amaro de Oeiras",
    "authentication:membership_card": "yes",
    "authentication:none": "no",
    "capacity": "2",
    "construction:amenity": "charging_station",
    "fee": "yes",
    "motorcar": "yes",
    "name": "OER-00068 - Parque dos Poetas",
    "network": "Mobi.E",
    "opening_hours": "24/7",
    "operator": "Galp Power",
    "parking:fee": "no",
    "ref": "OER-00068",
    "socket:chademo": "1",
    "socket:chademo:current": "120",
    "socket:chademo:output": "50kW",
    "socket:chademo:voltage": "500",
    "socket:type2_cable": "1",
    "socket:type2_cable:current": "63",
    "socket:type2_cable:output": "43kW",
    "socket:type2_cable:voltage": "400",
    "socket:type2_combo": "1",
    "socket:type2_combo:current": "125",
    "socket:type2_combo:output": "50kW",
    "socket:type2_combo:voltage": "500",
    "website": "https://www.mobie.pt/"
  }
},
{
  "type": "node",
  "id": 8223008113,
  "lat": 38.7023055,
  "lon": -9.3063580,
  "tags": {
    "access": "yes",
    "addr:city": "Oeiras",
    "addr:country": "PT",
    "addr:street": "Rua Doutor José da Cunha",
    "authentication:membership_card": "yes",
    "authentication:none": "no",
    "capacity": "1",
    "construction:amenity": "charging_station",
    "fee": "yes",
    "motorcar": "yes",
    "name": "OER-XXXXX - Forum Oeiras",
    "network": "Mobi.E",
    "opening_hours": "24/7",
    "operator": "Galp Power",
    "parking:fee": "no",
    "ref": "OER-XXXXX",
    "socket:chademo": "1",
    "socket:chademo:current": "120",
    "socket:chademo:output": "50kW",
    "socket:chademo:voltage": "500",
    "socket:type2_combo": "1",
    "socket:type2_combo:current": "350",
    "socket:type2_combo:output": "160kW",
    "socket:type2_combo:voltage": "920",
    "website": "https://www.mobie.pt/"
  }
},
{
  "type": "node",
  "id": 8223093248,
  "lat": 38.6915613,
  "lon": -9.3052123,
  "tags": {
    "access": "yes",
    "addr:city": "Oeiras",
    "addr:country": "PT",
    "addr:street": "Avenida Doutor Francisco de Sá Carneiro",
    "authentication:membership_card": "yes",
    "authentication:none": "no",
    "capacity": "1",
    "construction:amenity": "charging_station",
    "fee": "yes",
    "motorcar": "yes",
    "name": "OER-XXXXX - SIMAS",
    "network": "Mobi.E",
    "opening_hours": "24/7",
    "operator": "Galp Power",
    "parking:fee": "no",
    "ref": "OER-XXXXX",
    "socket:chademo": "1",
    "socket:chademo:current": "120",
    "socket:chademo:output": "50kW",
    "socket:chademo:voltage": "500",
    "socket:type2_combo": "1",
    "socket:type2_combo:current": "350",
    "socket:type2_combo:output": "160kW",
    "socket:type2_combo:voltage": "920",
    "website": "https://www.mobie.pt/"
  }
},
{
  "type": "node",
  "id": 8223097866,
  "lat": 38.6954239,
  "lon": -9.3024964,
  "tags": {
    "access": "yes",
    "addr:city": "Oeiras",
    "addr:country": "PT",
    "addr:street": "Praceta de Manica",
    "authentication:membership_card": "yes",
    "authentication:none": "no",
    "capacity": "2",
    "construction:amenity": "charging_station",
    "fee": "yes",
    "motorcar": "yes",
    "name": "OER-XXXXX",
    "network": "Mobi.E",
    "opening_hours": "24/7",
    "operator": "unknown",
    "parking:fee": "no",
    "ref": "OER-XXXXX",
    "socket:chademo": "1",
    "socket:chademo:current": "120",
    "socket:chademo:output": "50kW",
    "socket:chademo:voltage": "500",
    "socket:type2_cable": "1",
    "socket:type2_cable:current": "63",
    "socket:type2_cable:output": "43kW",
    "socket:type2_cable:voltage": "400",
    "socket:type2_combo": "1",
    "socket:type2_combo:current": "125",
    "socket:type2_combo:output": "50kW",
    "socket:type2_combo:voltage": "500",
    "website": "https://www.mobie.pt/"
  }
},
{
  "type": "node",
  "id": 8223130947,
  "lat": 38.6766952,
  "lon": -9.3233752,
  "tags": {
    "access": "yes",
    "addr:city": "Oeiras",
    "addr:country": "PT",
    "authentication:membership_card": "yes",
    "authentication:none": "no",
    "capacity": "2",
    "construction:amenity": "charging_station",
    "fee": "yes",
    "motorcar": "yes",
    "name": "OER-XXXXX - Praia da Torre",
    "network": "Mobi.E",
    "opening_hours": "24/7",
    "operator": "Galp Power",
    "parking:fee": "no",
    "ref": "OER-XXXXX",
    "socket:chademo": "1",
    "socket:chademo:current": "120",
    "socket:chademo:output": "50kW",
    "socket:chademo:voltage": "500",
    "socket:type2_cable": "1",
    "socket:type2_cable:current": "63",
    "socket:type2_cable:output": "43kW",
    "socket:type2_cable:voltage": "400",
    "socket:type2_combo": "1",
    "socket:type2_combo:current": "125",
    "socket:type2_combo:output": "50kW",
    "socket:type2_combo:voltage": "500",
    "website": "https://www.mobie.pt/"
  }
},
{
  "type": "node",
  "id": 8223137485,
  "lat": 38.6803841,
  "lon": -9.3201723,
  "tags": {
    "access": "yes",
    "addr:city": "Oeiras",
    "addr:country": "PT",
    "addr:street": "Rua de Aljubarrota",
    "authentication:membership_card": "yes",
    "authentication:none": "no",
    "capacity": "1",
    "construction:amenity": "charging_station",
    "fee": "yes",
    "motorcar": "yes",
    "name": "OER-XXXXX - Alto da Barra",
    "network": "Mobi.E",
    "opening_hours": "24/7",
    "operator": "Galp Power",
    "parking:fee": "no",
    "ref": "OER-XXXXX",
    "socket:chademo": "1",
    "socket:chademo:current": "120",
    "socket:chademo:output": "50kW",
    "socket:chademo:voltage": "500",
    "socket:type2_combo": "1",
    "socket:type2_combo:current": "350",
    "socket:type2_combo:output": "160kW",
    "socket:type2_combo:voltage": "920",
    "website": "https://www.mobie.pt/"
  }
},
{
  "type": "node",
  "id": 8223157567,
  "lat": 38.6774969,
  "lon": -9.3187420,
  "tags": {
    "access": "yes",
    "addr:city": "Oeiras",
    "addr:country": "PT",
    "authentication:membership_card": "yes",
    "authentication:none": "no",
    "capacity": "2",
    "construction:amenity": "charging_station",
    "fee": "yes",
    "motorcar": "yes",
    "name": "OER-XXXXX - Marina de Oeiras",
    "network": "Mobi.E",
    "opening_hours": "24/7",
    "operator": "Galp Power",
    "parking:fee": "no",
    "ref": "OER-XXXXX",
    "socket:chademo": "1",
    "socket:chademo:current": "120",
    "socket:chademo:output": "50kW",
    "socket:chademo:voltage": "500",
    "socket:type2_cable": "1",
    "socket:type2_cable:current": "63",
    "socket:type2_cable:output": "43kW",
    "socket:type2_cable:voltage": "400",
    "socket:type2_combo": "1",
    "socket:type2_combo:current": "125",
    "socket:type2_combo:output": "50kW",
    "socket:type2_combo:voltage": "500",
    "website": "https://www.mobie.pt/"
  }
},
{
  "type": "node",
  "id": 8224481338,
  "lat": 38.8604523,
  "lon": -9.1135722,
  "tags": {
    "access": "yes",
    "addr:city": "Lisboa",
    "addr:country": "PT",
    "addr:street": "Rua Primeiro de Maio",
    "authentication:membership_card": "yes",
    "authentication:none": "no",
    "capacity": "1",
    "construction:amenity": "charging_station",
    "fee": "yes",
    "motorcar": "yes",
    "name": "VFX-XXXXX",
    "network": "Mobi.E",
    "opening_hours": "24/7",
    "operator": "Prio.E",
    "parking:fee": "no",
    "ref": "VFX-XXXXX",
    "socket:chademo": "1",
    "socket:chademo:current": "120",
    "socket:chademo:output": "50kW",
    "socket:chademo:voltage": "500",
    "socket:type2_combo": "1",
    "socket:type2_combo:current": "125",
    "socket:type2_combo:output": "50kW",
    "socket:type2_combo:voltage": "500",
    "website": "https://www.mobie.pt/"
  }
},
{
  "type": "node",
  "id": 8224744810,
  "lat": 39.7388996,
  "lon": -8.8150343,
  "tags": {
    "access": "yes",
    "addr:city": "Leiria",
    "addr:country": "PT",
    "addr:street": "Avenida da Comunidade Europeia",
    "authentication:membership_card": "yes",
    "authentication:none": "no",
    "capacity": "2",
    "construction:amenity": "charging_station",
    "fee": "yes",
    "motorcar": "yes",
    "name": "LRA-00016",
    "network": "Mobi.E",
    "opening_hours": "24/7",
    "operator": "Galp Geste",
    "parking:fee": "no",
    "ref": "LRA-00016",
    "socket:chademo": "1",
    "socket:chademo:current": "120",
    "socket:chademo:output": "50kW",
    "socket:chademo:voltage": "500",
    "socket:type2_cable": "1",
    "socket:type2_cable:current": "63",
    "socket:type2_cable:output": "43kW",
    "socket:type2_cable:voltage": "400",
    "socket:type2_combo": "1",
    "socket:type2_combo:current": "125",
    "socket:type2_combo:output": "50kW",
    "socket:type2_combo:voltage": "500",
    "website": "https://www.mobie.pt/"
  }
},
{
  "type": "node",
  "id": 8224851604,
  "lat": 40.1736136,
  "lon": -8.6816454,
  "tags": {
    "access": "yes",
    "addr:city": "Montemor-o-Velho",
    "addr:country": "PT",
    "addr:street": "Rua Mendanha Raposo",
    "authentication:membership_card": "yes",
    "authentication:none": "no",
    "capacity": "2",
    "construction:amenity": "charging_station",
    "fee": "yes",
    "motorcar": "yes",
    "name": "MMV-XXXXX",
    "network": "Mobi.E",
    "opening_hours": "24/7",
    "operator": "EV Power",
    "parking:fee": "no",
    "ref": "MMV-XXXXX",
    "socket:chademo": "1",
    "socket:chademo:current": "120",
    "socket:chademo:output": "50kW",
    "socket:chademo:voltage": "500",
    "socket:type2_cable": "1",
    "socket:type2_cable:current": "63",
    "socket:type2_cable:output": "43kW",
    "socket:type2_cable:voltage": "400",
    "socket:type2_combo": "1",
    "socket:type2_combo:current": "125",
    "socket:type2_combo:output": "50kW",
    "socket:type2_combo:voltage": "500",
    "website": "https://www.mobie.pt/"
  }
},
{
  "type": "node",
  "id": 8224954914,
  "lat": 40.2220956,
  "lon": -8.4306818,
  "tags": {
    "access": "yes",
    "addr:city": "Coimbra",
    "addr:country": "PT",
    "addr:street": "Circular Externa",
    "authentication:membership_card": "yes",
    "authentication:none": "no",
    "capacity": "2",
    "construction:amenity": "charging_station",
    "fee": "yes",
    "motorcar": "yes",
    "name": "CBR-XXXXX",
    "network": "Mobi.E",
    "opening_hours": "24/7",
    "operator": "Galp Geste",
    "parking:fee": "no",
    "ref": "CBR-XXXXX",
    "socket:chademo": "1",
    "socket:chademo:current": "120",
    "socket:chademo:output": "50kW",
    "socket:chademo:voltage": "500",
    "socket:type2_cable": "1",
    "socket:type2_cable:current": "63",
    "socket:type2_cable:output": "43kW",
    "socket:type2_cable:voltage": "400",
    "socket:type2_combo": "1",
    "socket:type2_combo:current": "125",
    "socket:type2_combo:output": "50kW",
    "socket:type2_combo:voltage": "500",
    "website": "https://www.mobie.pt/"
  }
},
{
  "type": "node",
  "id": 8224976509,
  "lat": 40.1954194,
  "lon": -8.4086877,
  "tags": {
    "access": "yes",
    "addr:city": "Coimbra",
    "addr:country": "PT",
    "addr:street": "Avenida Mendes Silva",
    "authentication:membership_card": "yes",
    "authentication:none": "no",
    "capacity": "2",
    "construction:amenity": "charging_station",
    "fee": "yes",
    "motorcar": "yes",
    "name": "CBR-XXXXX",
    "network": "Mobi.E",
    "opening_hours": "24/7",
    "operator": "Galp Geste",
    "parking:fee": "no",
    "ref": "CBR-XXXXX",
    "socket:chademo": "1",
    "socket:chademo:current": "120",
    "socket:chademo:output": "50kW",
    "socket:chademo:voltage": "500",
    "socket:type2_cable": "1",
    "socket:type2_cable:current": "63",
    "socket:type2_cable:output": "43kW",
    "socket:type2_cable:voltage": "400",
    "socket:type2_combo": "1",
    "socket:type2_combo:current": "125",
    "socket:type2_combo:output": "50kW",
    "socket:type2_combo:voltage": "500",
    "website": "https://www.mobie.pt/"
  }
},
{
  "type": "node",
  "id": 8224981780,
  "lat": 40.2545546,
  "lon": -8.4306370,
  "tags": {
    "access": "yes",
    "addr:city": "Coimbra",
    "addr:country": "PT",
    "addr:street": "Estrada da Ribeira de Eiras",
    "authentication:membership_card": "yes",
    "authentication:none": "no",
    "capacity": "2",
    "construction:amenity": "charging_station",
    "fee": "yes",
    "motorcar": "yes",
    "name": "CBR-00011 - Auchan",
    "network": "Mobi.E",
    "opening_hours": "24/7",
    "operator": "Helexia II",
    "parking:fee": "no",
    "ref": "CBR-00011",
    "socket:chademo": "1",
    "socket:chademo:current": "120",
    "socket:chademo:output": "50kW",
    "socket:chademo:voltage": "500",
    "socket:type2_cable": "1",
    "socket:type2_cable:current": "63",
    "socket:type2_cable:output": "43kW",
    "socket:type2_cable:voltage": "400",
    "socket:type2_combo": "1",
    "socket:type2_combo:current": "125",
    "socket:type2_combo:output": "50kW",
    "socket:type2_combo:voltage": "500",
    "website": "https://www.mobie.pt/"
  }
},
{
  "type": "node",
  "id": 8225142688,
  "lat": 39.8157287,
  "lon": -7.5202891,
  "tags": {
    "access": "yes",
    "addr:city": "Castelo Branco",
    "addr:country": "PT",
    "authentication:membership_card": "yes",
    "authentication:none": "no",
    "capacity": "2",
    "construction:amenity": "charging_station",
    "fee": "yes",
    "motorcar": "yes",
    "name": "CTB-00011 - Auchan",
    "network": "Mobi.E",
    "opening_hours": "24/7",
    "operator": "Helexia II",
    "parking:fee": "no",
    "ref": "CTB-00011",
    "socket:chademo": "1",
    "socket:chademo:current": "120",
    "socket:chademo:output": "50kW",
    "socket:chademo:voltage": "500",
    "socket:type2_cable": "1",
    "socket:type2_cable:current": "63",
    "socket:type2_cable:output": "43kW",
    "socket:type2_cable:voltage": "400",
    "socket:type2_combo": "1",
    "socket:type2_combo:current": "125",
    "socket:type2_combo:output": "50kW",
    "socket:type2_combo:voltage": "500",
    "website": "https://www.mobie.pt/"
  }
},
{
  "type": "node",
  "id": 8225142689,
  "lat": 40.6299074,
  "lon": -7.3580423,
  "tags": {
    "access": "yes",
    "addr:city": "Celorico da Beira",
    "addr:country": "PT",
    "authentication:membership_card": "yes",
    "authentication:none": "no",
    "capacity": "2",
    "construction:amenity": "charging_station",
    "fee": "yes",
    "motorcar": "yes",
    "name": "CLB-00002",
    "network": "Mobi.E",
    "opening_hours": "24/7",
    "operator": "Galp Geste",
    "parking:fee": "no",
    "ref": "CLB-00002",
    "socket:chademo": "1",
    "socket:chademo:current": "120",
    "socket:chademo:output": "50kW",
    "socket:chademo:voltage": "500",
    "socket:type2_cable": "1",
    "socket:type2_cable:current": "63",
    "socket:type2_cable:output": "43kW",
    "socket:type2_cable:voltage": "400",
    "socket:type2_combo": "1",
    "socket:type2_combo:current": "125",
    "socket:type2_combo:output": "50kW",
    "socket:type2_combo:voltage": "500",
    "website": "https://www.mobie.pt/"
  }
},
{
  "type": "node",
  "id": 8225142690,
  "lat": 40.6295471,
  "lon": -7.3569104,
  "tags": {
    "access": "yes",
    "addr:city": "Celorico da Beira",
    "addr:country": "PT",
    "authentication:membership_card": "yes",
    "authentication:none": "no",
    "capacity": "2",
    "construction:amenity": "charging_station",
    "fee": "yes",
    "motorcar": "yes",
    "name": "CLB-00001",
    "network": "Mobi.E",
    "opening_hours": "24/7",
    "operator": "Galp Geste",
    "parking:fee": "no",
    "ref": "CLB-00001",
    "socket:chademo": "1",
    "socket:chademo:current": "120",
    "socket:chademo:output": "50kW",
    "socket:chademo:voltage": "500",
    "socket:type2_cable": "1",
    "socket:type2_cable:current": "63",
    "socket:type2_cable:output": "43kW",
    "socket:type2_cable:voltage": "400",
    "socket:type2_combo": "1",
    "socket:type2_combo:current": "125",
    "socket:type2_combo:output": "50kW",
    "socket:type2_combo:voltage": "500",
    "website": "https://www.mobie.pt/"
  }
},
{
  "type": "node",
  "id": 8225229963,
  "lat": 40.6366633,
  "lon": -7.9084504,
  "tags": {
    "access": "yes",
    "addr:city": "Viseu",
    "addr:country": "PT",
    "authentication:membership_card": "yes",
    "authentication:none": "no",
    "capacity": "2",
    "construction:amenity": "charging_station",
    "fee": "yes",
    "motorcar": "yes",
    "name": "VIS-XXXXX",
    "network": "Mobi.E",
    "opening_hours": "24/7",
    "operator": "unknown",
    "parking:fee": "no",
    "ref": "VIS-XXXXX",
    "socket:chademo": "1",
    "socket:chademo:current": "120",
    "socket:chademo:output": "50kW",
    "socket:chademo:voltage": "500",
    "socket:type2_cable": "1",
    "socket:type2_cable:current": "63",
    "socket:type2_cable:output": "43kW",
    "socket:type2_cable:voltage": "400",
    "socket:type2_combo": "1",
    "socket:type2_combo:current": "125",
    "socket:type2_combo:output": "50kW",
    "socket:type2_combo:voltage": "500",
    "website": "https://www.mobie.pt/"
  }
},
{
  "type": "node",
  "id": 8225244922,
  "lat": 40.6056996,
  "lon": -8.6627989,
  "tags": {
    "access": "yes",
    "addr:city": "Ílhavo",
    "addr:country": "PT",
    "addr:street": "Rua Vasco da Gama",
    "authentication:membership_card": "yes",
    "authentication:none": "no",
    "capacity": "2",
    "construction:amenity": "charging_station",
    "fee": "yes",
    "motorcar": "yes",
    "name": "ILH-XXXXX",
    "network": "Mobi.E",
    "opening_hours": "24/7",
    "operator": "EDP Comercial",
    "parking:fee": "no",
    "ref": "ILH-XXXXX",
    "socket:chademo": "1",
    "socket:chademo:current": "120",
    "socket:chademo:output": "50kW",
    "socket:chademo:voltage": "500",
    "socket:type2_cable": "1",
    "socket:type2_cable:current": "63",
    "socket:type2_cable:output": "43kW",
    "socket:type2_cable:voltage": "400",
    "socket:type2_combo": "1",
    "socket:type2_combo:current": "125",
    "socket:type2_combo:output": "50kW",
    "socket:type2_combo:voltage": "500",
    "website": "https://www.mobie.pt/"
  }
},
{
  "type": "node",
  "id": 8225295433,
  "lat": 40.6649576,
  "lon": -8.6109370,
  "tags": {
    "access": "yes",
    "addr:city": "Cacia",
    "addr:country": "PT",
    "addr:street": "Avenida da Europa",
    "authentication:membership_card": "yes",
    "authentication:none": "no",
    "capacity": "2",
    "construction:amenity": "charging_station",
    "fee": "yes",
    "motorcar": "yes",
    "name": "AVR-00014",
    "network": "Mobi.E",
    "opening_hours": "24/7",
    "operator": "Galp Geste",
    "parking:fee": "no",
    "ref": "AVR-00014",
    "socket:chademo": "1",
    "socket:chademo:current": "120",
    "socket:chademo:output": "50kW",
    "socket:chademo:voltage": "500",
    "socket:type2_cable": "1",
    "socket:type2_cable:current": "63",
    "socket:type2_cable:output": "43kW",
    "socket:type2_cable:voltage": "400",
    "socket:type2_combo": "1",
    "socket:type2_combo:current": "125",
    "socket:type2_combo:output": "50kW",
    "socket:type2_combo:voltage": "500",
    "website": "https://www.mobie.pt/"
  }
},
{
  "type": "node",
  "id": 8225421717,
  "lat": 40.9233476,
  "lon": -8.5688398,
  "tags": {
    "access": "yes",
    "addr:city": "Santa Maria da Feira",
    "addr:country": "PT",
    "addr:street": "Rua da Estrada Nacional",
    "authentication:membership_card": "yes",
    "authentication:none": "no",
    "capacity": "2",
    "construction:amenity": "charging_station",
    "fee": "yes",
    "motorcar": "yes",
    "name": "VFR-XXXXX",
    "network": "Mobi.E",
    "opening_hours": "24/7",
    "operator": "Galp Geste",
    "parking:fee": "no",
    "ref": "VFR-XXXXX",
    "socket:chademo": "1",
    "socket:chademo:current": "120",
    "socket:chademo:output": "50kW",
    "socket:chademo:voltage": "500",
    "socket:type2_cable": "1",
    "socket:type2_cable:current": "63",
    "socket:type2_cable:output": "43kW",
    "socket:type2_cable:voltage": "400",
    "socket:type2_combo": "1",
    "socket:type2_combo:current": "125",
    "socket:type2_combo:output": "50kW",
    "socket:type2_combo:voltage": "500",
    "website": "https://www.mobie.pt/"
  }
},
{
  "type": "node",
  "id": 8227799063,
  "lat": 41.1472290,
  "lon": -8.5311694,
  "tags": {
    "access": "yes",
    "addr:city": "São Cosme",
    "addr:country": "PT",
    "addr:street": "Avenida General Humberto Delgado",
    "authentication:membership_card": "yes",
    "authentication:none": "no",
    "capacity": "2",
    "construction:amenity": "charging_station",
    "fee": "yes",
    "motorcar": "yes",
    "name": "GDM-XXXXX",
    "network": "Mobi.E",
    "opening_hours": "24/7",
    "operator": "Galp Geste",
    "parking:fee": "no",
    "ref": "GDM-XXXXX",
    "socket:chademo": "1",
    "socket:chademo:current": "120",
    "socket:chademo:output": "50kW",
    "socket:chademo:voltage": "500",
    "socket:type2_cable": "1",
    "socket:type2_cable:current": "63",
    "socket:type2_cable:output": "43kW",
    "socket:type2_cable:voltage": "400",
    "socket:type2_combo": "1",
    "socket:type2_combo:current": "125",
    "socket:type2_combo:output": "50kW",
    "socket:type2_combo:voltage": "500",
    "website": "https://www.mobie.pt/"
  }
},
{
  "type": "node",
  "id": 8228833519,
  "lat": 41.1630538,
  "lon": -8.6235484,
  "tags": {
    "access": "yes",
    "addr:city": "Porto",
    "addr:country": "PT",
    "addr:street": "Rua 9 de Julho",
    "authentication:membership_card": "yes",
    "authentication:none": "no",
    "capacity": "2",
    "construction:amenity": "charging_station",
    "fee": "yes",
    "motorcar": "yes",
    "name": "PRT-00036/37",
    "network": "Mobi.E",
    "opening_hours": "24/7",
    "operator": "Mobiletric",
    "parking:fee": "no",
    "ref": "PRT-00036;PRT-00037",
    "socket:chademo": "2",
    "socket:chademo:current": "120",
    "socket:chademo:output": "50kW",
    "socket:chademo:voltage": "500",
    "socket:type2_combo": "2",
    "socket:type2_combo:current": "125",
    "socket:type2_combo:output": "50kW",
    "socket:type2_combo:voltage": "500",
    "website": "https://www.mobie.pt/"
  }
},
{
  "type": "node",
  "id": 8228854413,
  "lat": 41.1720597,
  "lon": -8.6783461,
  "tags": {
    "access": "yes",
    "addr:city": "Matosinhos",
    "addr:country": "PT",
    "addr:street": "Estrada Exterior da Circunvalação",
    "authentication:membership_card": "yes",
    "authentication:none": "no",
    "capacity": "2",
    "construction:amenity": "charging_station",
    "fee": "yes",
    "motorcar": "yes",
    "name": "MTS-00031",
    "network": "Mobi.E",
    "opening_hours": "24/7",
    "operator": "Galp Geste",
    "parking:fee": "no",
    "ref": "MTS-00031",
    "socket:chademo": "1",
    "socket:chademo:current": "120",
    "socket:chademo:output": "50kW",
    "socket:chademo:voltage": "500",
    "socket:type2_cable": "1",
    "socket:type2_cable:current": "63",
    "socket:type2_cable:output": "43kW",
    "socket:type2_cable:voltage": "400",
    "socket:type2_combo": "1",
    "socket:type2_combo:current": "125",
    "socket:type2_combo:output": "50kW",
    "socket:type2_combo:voltage": "500",
    "website": "https://www.mobie.pt/"
  }
},
{
  "type": "node",
  "id": 8231825991,
  "lat": 41.2553151,
  "lon": -8.6544491,
  "tags": {
    "access": "yes",
    "addr:city": "Maia",
    "addr:country": "PT",
    "addr:street": "Rua Conselheiro Luís Magalhães",
    "authentication:membership_card": "yes",
    "authentication:none": "no",
    "capacity": "2",
    "construction:amenity": "charging_station",
    "fee": "yes",
    "motorcar": "yes",
    "name": "MAI-XXXXX",
    "network": "Mobi.E",
    "opening_hours": "24/7",
    "operator": "Galp Geste",
    "parking:fee": "no",
    "ref": "MAI-XXXXX",
    "socket:chademo": "1",
    "socket:chademo:current": "120",
    "socket:chademo:output": "50kW",
    "socket:chademo:voltage": "500",
    "socket:type2_cable": "1",
    "socket:type2_cable:current": "63",
    "socket:type2_cable:output": "43kW",
    "socket:type2_cable:voltage": "400",
    "socket:type2_combo": "1",
    "socket:type2_combo:current": "125",
    "socket:type2_combo:output": "50kW",
    "socket:type2_combo:voltage": "500",
    "website": "https://www.mobie.pt/"
  }
},
{
  "type": "node",
  "id": 8231827474,
  "lat": 41.2201582,
  "lon": -8.6875170,
  "tags": {
    "access": "yes",
    "addr:city": "Perafita",
    "addr:country": "PT",
    "addr:street": "Avenida Mário Brito",
    "authentication:membership_card": "yes",
    "authentication:none": "no",
    "capacity": "2",
    "construction:amenity": "charging_station",
    "fee": "yes",
    "motorcar": "yes",
    "name": "MTS-00032",
    "network": "Mobi.E",
    "opening_hours": "24/7",
    "operator": "Galp Geste",
    "parking:fee": "no",
    "ref": "MTS-00032",
    "socket:chademo": "1",
    "socket:chademo:current": "120",
    "socket:chademo:output": "50kW",
    "socket:chademo:voltage": "500",
    "socket:type2_cable": "1",
    "socket:type2_cable:current": "63",
    "socket:type2_cable:output": "43kW",
    "socket:type2_cable:voltage": "400",
    "socket:type2_combo": "1",
    "socket:type2_combo:current": "125",
    "socket:type2_combo:output": "50kW",
    "socket:type2_combo:voltage": "500",
    "website": "https://www.mobie.pt/"
  }
},
{
  "type": "node",
  "id": 8231863152,
  "lat": 41.2644186,
  "lon": -8.5646313,
  "tags": {
    "access": "yes",
    "addr:city": "Trofa",
    "addr:country": "PT",
    "authentication:membership_card": "yes",
    "authentication:none": "no",
    "capacity": "2",
    "construction:amenity": "charging_station",
    "fee": "yes",
    "motorcar": "yes",
    "name": "TRF-00002",
    "network": "Mobi.E",
    "opening_hours": "24/7",
    "operator": "Galp Geste",
    "parking:fee": "no",
    "ref": "TRF-00002",
    "socket:chademo": "1",
    "socket:chademo:current": "120",
    "socket:chademo:output": "50kW",
    "socket:chademo:voltage": "500",
    "socket:type2_cable": "1",
    "socket:type2_cable:current": "63",
    "socket:type2_cable:output": "43kW",
    "socket:type2_cable:voltage": "400",
    "socket:type2_combo": "1",
    "socket:type2_combo:current": "125",
    "socket:type2_combo:output": "50kW",
    "socket:type2_combo:voltage": "500",
    "website": "https://www.mobie.pt/"
  }
},
{
  "type": "node",
  "id": 8231935093,
  "lat": 41.4514238,
  "lon": -8.3013149,
  "tags": {
    "access": "yes",
    "addr:city": "Guimarães",
    "addr:country": "PT",
    "addr:street": "Circular Urbana de Guimarães",
    "authentication:membership_card": "yes",
    "authentication:none": "no",
    "capacity": "2",
    "construction:amenity": "charging_station",
    "fee": "yes",
    "motorcar": "yes",
    "name": "GMR-00017",
    "network": "Mobi.E",
    "opening_hours": "24/7",
    "operator": "Galp Geste",
    "parking:fee": "no",
    "ref": "GMR-00017",
    "socket:chademo": "1",
    "socket:chademo:current": "120",
    "socket:chademo:output": "50kW",
    "socket:chademo:voltage": "500",
    "socket:type2_cable": "1",
    "socket:type2_cable:current": "63",
    "socket:type2_cable:output": "43kW",
    "socket:type2_cable:voltage": "400",
    "socket:type2_combo": "1",
    "socket:type2_combo:current": "125",
    "socket:type2_combo:output": "50kW",
    "socket:type2_combo:voltage": "500",
    "website": "https://www.mobie.pt/"
  }
},
{
  "type": "node",
  "id": 8231973083,
  "lat": 41.5520095,
  "lon": -8.4091249,
  "tags": {
    "access": "yes",
    "addr:city": "Braga",
    "addr:country": "PT",
    "addr:street": "Avenida João Paulo II",
    "authentication:membership_card": "yes",
    "authentication:none": "no",
    "capacity": "2",
    "construction:amenity": "charging_station",
    "fee": "yes",
    "motorcar": "yes",
    "name": "BRG-00027",
    "network": "Mobi.E",
    "opening_hours": "24/7",
    "operator": "Galp Geste",
    "parking:fee": "no",
    "ref": "BRG-00027",
    "socket:chademo": "1",
    "socket:chademo:current": "120",
    "socket:chademo:output": "50kW",
    "socket:chademo:voltage": "500",
    "socket:type2_cable": "1",
    "socket:type2_cable:current": "63",
    "socket:type2_cable:output": "43kW",
    "socket:type2_cable:voltage": "400",
    "socket:type2_combo": "1",
    "socket:type2_combo:current": "125",
    "socket:type2_combo:output": "50kW",
    "socket:type2_combo:voltage": "500",
    "website": "https://www.mobie.pt/"
  }
},
{
  "type": "node",
  "id": 8232073281,
  "lat": 41.6056885,
  "lon": -8.5509038,
  "tags": {
    "access": "yes",
    "addr:city": "Barcelos",
    "addr:country": "PT",
    "addr:street": "A 3",
    "authentication:membership_card": "yes",
    "authentication:none": "no",
    "capacity": "2",
    "construction:amenity": "charging_station",
    "fee": "yes",
    "motorcar": "yes",
    "name": "BCL-00001",
    "network": "Mobi.E",
    "opening_hours": "24/7",
    "operator": "Propel-Cepsa",
    "parking:fee": "no",
    "ref": "BCL-00001",
    "socket:chademo": "1",
    "socket:chademo:current": "120",
    "socket:chademo:output": "50kW",
    "socket:chademo:voltage": "500",
    "socket:type2_cable": "1",
    "socket:type2_cable:current": "63",
    "socket:type2_cable:output": "43kW",
    "socket:type2_cable:voltage": "400",
    "socket:type2_combo": "1",
    "socket:type2_combo:current": "125",
    "socket:type2_combo:output": "50kW",
    "socket:type2_combo:voltage": "500",
    "website": "https://www.mobie.pt/"
  }
},
{
  "type": "node",
  "id": 8232073283,
  "lat": 41.6041356,
  "lon": -8.5495895,
  "tags": {
    "access": "yes",
    "addr:country": "PT",
    "authentication:app": "yes",
    "authentication:membership_card": "yes",
    "authentication:none": "no",
    "capacity": "2",
    "construction:amenity": "charging_station",
    "fee": "yes",
    "motorcar": "yes",
    "name": "BCL-00010/11 - Ionity A3 S>N",
    "network": "Mobi.E",
    "opening_hours": "24/7",
    "operator": "Ionity",
    "parking:fee": "no",
    "ref": "BCL-00010;BCL-00011",
    "socket:type2_combo": "2",
    "socket:type2_combo:current": "500",
    "socket:type2_combo:output": "350kW",
    "socket:type2_combo:voltage": "920",
    "website": "https://www.mobie.pt/"
  }
},
{
  "type": "node",
  "id": 8232073284,
  "lat": 41.6039972,
  "lon": -8.5498604,
  "tags": {
    "access": "yes",
    "addr:city": "Barcelos",
    "addr:country": "PT",
    "addr:street": "A 3",
    "authentication:membership_card": "yes",
    "authentication:none": "no",
    "capacity": "2",
    "construction:amenity": "charging_station",
    "fee": "yes",
    "motorcar": "yes",
    "name": "BCL-00002",
    "network": "Mobi.E",
    "opening_hours": "24/7",
    "operator": "Propel-Cepsa",
    "parking:fee": "no",
    "ref": "BCL-00002",
    "socket:chademo": "1",
    "socket:chademo:current": "120",
    "socket:chademo:output": "50kW",
    "socket:chademo:voltage": "500",
    "socket:type2_cable": "1",
    "socket:type2_cable:current": "63",
    "socket:type2_cable:output": "43kW",
    "socket:type2_cable:voltage": "400",
    "socket:type2_combo": "1",
    "socket:type2_combo:current": "125",
    "socket:type2_combo:output": "50kW",
    "socket:type2_combo:voltage": "500",
    "website": "https://www.mobie.pt/"
  }
},
{
  "type": "node",
  "id": 8232149106,
  "lat": 41.6832710,
  "lon": -8.8093856,
  "tags": {
    "access": "yes",
    "addr:city": "Viana do Castelo",
    "addr:country": "PT",
    "addr:street": "Avenida Primeiro de Maio",
    "authentication:membership_card": "yes",
    "authentication:none": "no",
    "capacity": "2",
    "construction:amenity": "charging_station",
    "fee": "yes",
    "motorcar": "yes",
    "name": "VCT-00016",
    "network": "Mobi.E",
    "opening_hours": "24/7",
    "operator": "EDP Comercial",
    "parking:fee": "no",
    "ref": "VCT-00016",
    "socket:chademo": "1",
    "socket:chademo:current": "120",
    "socket:chademo:output": "50kW",
    "socket:chademo:voltage": "500",
    "socket:type2_cable": "1",
    "socket:type2_cable:current": "63",
    "socket:type2_cable:output": "43kW",
    "socket:type2_cable:voltage": "400",
    "socket:type2_combo": "1",
    "socket:type2_combo:current": "125",
    "socket:type2_combo:output": "50kW",
    "socket:type2_combo:voltage": "500",
    "website": "https://www.mobie.pt/"
  }
},
{
  "type": "node",
  "id": 8232504885,
  "lat": 38.7013196,
  "lon": -8.9599729,
  "tags": {
    "access": "yes",
    "addr:city": "Montijo",
    "addr:country": "PT",
    "authentication:membership_card": "yes",
    "authentication:none": "no",
    "capacity": "4",
    "construction:amenity": "charging_station",
    "fee": "yes",
    "motorcar": "yes",
    "name": "MTJ-00010/11 - E.Leclerc",
    "network": "Mobi.E",
    "opening_hours": "24/7",
    "operator": "Powerdot",
    "parking:fee": "no",
    "ref": "MTJ-00010;MTJ-00011",
    "socket:chademo": "2",
    "socket:chademo:current": "120",
    "socket:chademo:output": "50kW",
    "socket:chademo:voltage": "500",
    "socket:type2_cable": "2",
    "socket:type2_cable:current": "63",
    "socket:type2_cable:output": "43kW",
    "socket:type2_cable:voltage": "400",
    "socket:type2_combo": "2",
    "socket:type2_combo:current": "125",
    "socket:type2_combo:output": "50kW",
    "socket:type2_combo:voltage": "500",
    "website": "https://www.mobie.pt/"
  }
},
{
  "type": "node",
  "id": 8232546962,
  "lat": 38.6357807,
  "lon": -8.8990867,
  "tags": {
    "access": "yes",
    "addr:city": "Pinhal Novo",
    "addr:country": "PT",
    "authentication:membership_card": "yes",
    "authentication:none": "no",
    "capacity": "2",
    "construction:amenity": "charging_station",
    "fee": "yes",
    "motorcar": "yes",
    "name": "PLM-00006 - Intermarché",
    "network": "Mobi.E",
    "opening_hours": "24/7",
    "operator": "Powerdot",
    "parking:fee": "no",
    "ref": "PLM-00006",
    "socket:chademo": "1",
    "socket:chademo:current": "120",
    "socket:chademo:output": "50kW",
    "socket:chademo:voltage": "500",
    "socket:type2_cable": "1",
    "socket:type2_cable:current": "63",
    "socket:type2_cable:output": "43kW",
    "socket:type2_cable:voltage": "400",
    "socket:type2_combo": "1",
    "socket:type2_combo:current": "125",
    "socket:type2_combo:output": "50kW",
    "socket:type2_combo:voltage": "500",
    "website": "https://www.mobie.pt/"
  }
},
{
  "type": "node",
  "id": 8234878471,
  "lat": 38.7173290,
  "lon": -9.2380656,
  "tags": {
    "access": "yes",
    "addr:city": "Linda-a-Velha",
    "addr:country": "PT",
    "addr:street": "Rua Alexandre Herculano",
    "authentication:membership_card": "yes",
    "authentication:none": "no",
    "capacity": "2",
    "construction:amenity": "charging_station",
    "fee": "yes",
    "motorcar": "yes",
    "name": "OER-XXXXX - Central Park",
    "network": "Mobi.E",
    "opening_hours": "24/7",
    "operator": "Galp Power",
    "parking:fee": "no",
    "ref": "OER-XXXXX",
    "socket:chademo": "1",
    "socket:chademo:current": "120",
    "socket:chademo:output": "50kW",
    "socket:chademo:voltage": "500",
    "socket:type2_cable": "1",
    "socket:type2_cable:current": "63",
    "socket:type2_cable:output": "43kW",
    "socket:type2_cable:voltage": "400",
    "socket:type2_combo": "1",
    "socket:type2_combo:current": "125",
    "socket:type2_combo:output": "50kW",
    "socket:type2_combo:voltage": "500",
    "website": "https://www.mobie.pt/"
  }
},
{
  "type": "node",
  "id": 8234886183,
  "lat": 38.6879803,
  "lon": -9.3176508,
  "tags": {
    "access": "yes",
    "addr:city": "Oeiras",
    "addr:country": "PT",
    "addr:street": "Avenida Infante Dom Henrique",
    "authentication:membership_card": "yes",
    "authentication:none": "no",
    "capacity": "2",
    "construction:amenity": "charging_station",
    "fee": "yes",
    "motorcar": "yes",
    "name": "OER-XXXXX",
    "network": "Mobi.E",
    "opening_hours": "24/7",
    "operator": "Galp Power",
    "parking:fee": "no",
    "ref": "OER-XXXXX",
    "socket:chademo": "1",
    "socket:chademo:current": "120",
    "socket:chademo:output": "50kW",
    "socket:chademo:voltage": "500",
    "socket:type2_cable": "1",
    "socket:type2_cable:current": "63",
    "socket:type2_cable:output": "43kW",
    "socket:type2_cable:voltage": "400",
    "socket:type2_combo": "1",
    "socket:type2_combo:current": "125",
    "socket:type2_combo:output": "50kW",
    "socket:type2_combo:voltage": "500",
    "website": "https://www.mobie.pt/"
  }
},
{
  "type": "node",
  "id": 8234917575,
  "lat": 38.7612993,
  "lon": -9.2794561,
  "tags": {
    "access": "yes",
    "addr:city": "Belas",
    "addr:country": "PT",
    "addr:street": "Avenida José Régio",
    "authentication:membership_card": "yes",
    "authentication:none": "no",
    "capacity": "2",
    "construction:amenity": "charging_station",
    "fee": "yes",
    "motorcar": "yes",
    "name": "SNT-XXXXX",
    "network": "Mobi.E",
    "opening_hours": "24/7",
    "operator": "Galp Power",
    "parking:fee": "no",
    "ref": "SNT-XXXXX",
    "socket:chademo": "1",
    "socket:chademo:current": "120",
    "socket:chademo:output": "50kW",
    "socket:chademo:voltage": "500",
    "socket:type2_cable": "1",
    "socket:type2_cable:current": "63",
    "socket:type2_cable:output": "43kW",
    "socket:type2_cable:voltage": "400",
    "socket:type2_combo": "1",
    "socket:type2_combo:current": "125",
    "socket:type2_combo:output": "50kW",
    "socket:type2_combo:voltage": "500",
    "website": "https://www.mobie.pt/"
  }
},
{
  "type": "node",
  "id": 8234919855,
  "lat": 39.4747858,
  "lon": -8.4866300,
  "tags": {
    "access": "yes",
    "addr:city": "Entroncamento",
    "addr:country": "PT",
    "authentication:membership_card": "yes",
    "authentication:none": "no",
    "capacity": "2",
    "construction:amenity": "charging_station",
    "fee": "yes",
    "motorcar": "yes",
    "name": "ENT-00004 - E.Leclerc",
    "network": "Mobi.E",
    "opening_hours": "24/7",
    "operator": "Powerdot",
    "parking:fee": "no",
    "ref": "ENT-00004",
    "socket:chademo": "1",
    "socket:chademo:current": "120",
    "socket:chademo:output": "50kW",
    "socket:chademo:voltage": "500",
    "socket:type2_cable": "1",
    "socket:type2_cable:current": "63",
    "socket:type2_cable:output": "43kW",
    "socket:type2_cable:voltage": "400",
    "socket:type2_combo": "1",
    "socket:type2_combo:current": "125",
    "socket:type2_combo:output": "50kW",
    "socket:type2_combo:voltage": "500",
    "website": "https://www.mobie.pt/"
  }
},
{
  "type": "node",
  "id": 8234959780,
  "lat": 40.5438566,
  "lon": -7.2155942,
  "tags": {
    "access": "yes",
    "addr:country": "PT",
    "addr:street": "A 23",
    "authentication:membership_card": "yes",
    "authentication:none": "no",
    "capacity": "2",
    "construction:amenity": "charging_station",
    "fee": "yes",
    "motorcar": "yes",
    "name": "GRD-00007",
    "network": "Mobi.E",
    "opening_hours": "24/7",
    "operator": "Galp Geste",
    "parking:fee": "no",
    "ref": "GRD-00007",
    "socket:chademo": "1",
    "socket:chademo:current": "120",
    "socket:chademo:output": "50kW",
    "socket:chademo:voltage": "500",
    "socket:type2_cable": "1",
    "socket:type2_cable:current": "63",
    "socket:type2_cable:output": "43kW",
    "socket:type2_cable:voltage": "400",
    "socket:type2_combo": "1",
    "socket:type2_combo:current": "125",
    "socket:type2_combo:output": "50kW",
    "socket:type2_combo:voltage": "500",
    "website": "https://www.mobie.pt/"
  }
},
{
  "type": "node",
  "id": 8235014430,
  "lat": 40.7608966,
  "lon": -8.0610225,
  "tags": {
    "access": "yes",
    "addr:city": "São Pedro do Sul",
    "addr:country": "PT",
    "authentication:membership_card": "yes",
    "authentication:none": "no",
    "capacity": "2",
    "construction:amenity": "charging_station",
    "fee": "yes",
    "motorcar": "yes",
    "name": "SPS-00002 - LIDL",
    "network": "Mobi.E",
    "opening_hours": "24/7",
    "operator": "KLC",
    "parking:fee": "no",
    "ref": "SPS-00002",
    "socket:chademo": "1",
    "socket:chademo:current": "120",
    "socket:chademo:output": "50kW",
    "socket:chademo:voltage": "500",
    "socket:type2_cable": "1",
    "socket:type2_cable:current": "63",
    "socket:type2_cable:output": "43kW",
    "socket:type2_cable:voltage": "400",
    "socket:type2_combo": "1",
    "socket:type2_combo:current": "125",
    "socket:type2_combo:output": "50kW",
    "socket:type2_combo:voltage": "500",
    "website": "https://www.mobie.pt/"
  }
},
{
  "type": "node",
  "id": 8235032223,
  "lat": 40.7601459,
  "lon": -8.5714066,
  "tags": {
    "access": "yes",
    "addr:city": "Estarreja",
    "addr:country": "PT",
    "authentication:membership_card": "yes",
    "authentication:none": "no",
    "capacity": "2",
    "construction:amenity": "charging_station",
    "fee": "yes",
    "motorcar": "yes",
    "name": "ETR-00006 - Intermarché",
    "network": "Mobi.E",
    "opening_hours": "24/7",
    "operator": "Powerdot",
    "parking:fee": "no",
    "ref": "ETR-00006",
    "socket:chademo": "1",
    "socket:chademo:current": "120",
    "socket:chademo:output": "50kW",
    "socket:chademo:voltage": "500",
    "socket:type2_cable": "1",
    "socket:type2_cable:current": "63",
    "socket:type2_cable:output": "43kW",
    "socket:type2_cable:voltage": "400",
    "socket:type2_combo": "1",
    "socket:type2_combo:current": "125",
    "socket:type2_combo:output": "50kW",
    "socket:type2_combo:voltage": "500",
    "website": "https://www.mobie.pt/"
  }
},
{
  "type": "node",
  "id": 8255594126,
  "lat": 40.3584732,
  "lon": -6.9688860,
  "tags": {
    "access": "yes",
    "addr:country": "PT",
    "capacity": "2",
    "construction:amenity": "charging_station",
    "name": "Centro de Negócios Transfronteiriço",
    "network": "none",
    "operator": "Centro de Negócios Transfronteiriço",
    "socket:type2": "2",
    "socket:type2:current": "32",
    "socket:type2:output": "22kW",
    "socket:type2:voltage": "400"
  }
},
{
  "type": "node",
  "id": 8269969086,
  "lat": 37.1376623,
  "lon": -8.0175881,
  "tags": {
    "access": "yes",
    "addr:country": "PT",
    "authentication:membership_card": "yes",
    "authentication:none": "no",
    "capacity": "2",
    "construction:amenity": "charging_station",
    "fee": "yes",
    "motorcar": "yes",
    "name": "LLE-00023",
    "network": "Mobi.E",
    "opening_hours": "24/7",
    "operator": "Powerdot",
    "parking:fee": "no",
    "ref": "LLE-00023",
    "socket:type2": "2",
    "socket:type2:current": "32",
    "socket:type2:output": "22kW",
    "socket:type2:voltage": "400",
    "website": "https://www.mobie.pt/"
  }
},
{
  "type": "node",
  "id": 8270303689,
  "lat": 32.6468540,
  "lon": -16.9226944,
  "tags": {
    "access": "yes",
    "addr:country": "PT",
    "authentication:membership_card": "yes",
    "authentication:none": "no",
    "capacity": "2",
    "construction:amenity": "charging_station",
    "fee": "yes",
    "location": "underground",
    "motorcar": "yes",
    "name": "FUN-00020 - Parque SABA",
    "network": "Mobi.E",
    "opening_hours": "24/7",
    "operator": "EDP Comercial",
    "parking:fee": "no",
    "ref": "FUN-00020",
    "socket:type2": "2",
    "socket:type2:current": "32",
    "socket:type2:output": "22kW",
    "socket:type2:voltage": "400",
    "website": "https://www.mobie.pt/"
  }
},
{
  "type": "node",
  "id": 8279648612,
  "lat": 38.6624293,
  "lon": -9.1633084,
  "tags": {
    "access": "yes",
    "addr:country": "PT",
    "authentication:membership_card": "yes",
    "authentication:none": "no",
    "capacity": "2",
    "construction:amenity": "charging_station",
    "fee": "yes",
    "motorcar": "yes",
    "name": "ALM-00039 - McDonalds",
    "network": "Mobi.E",
    "opening_hours": "24/7",
    "operator": "EDP Comercial",
    "parking:fee": "no",
    "ref": "ALM-00039",
    "socket:type2": "2",
    "socket:type2:current": "32",
    "socket:type2:output": "22kW",
    "socket:type2:voltage": "400",
    "website": "https://www.mobie.pt/"
  }
},
{
  "type": "node",
  "id": 8280527327,
  "lat": 38.6772570,
  "lon": -8.4552374,
  "tags": {
    "access": "yes",
    "addr:country": "PT",
    "authentication:membership_card": "yes",
    "authentication:none": "no",
    "capacity": "2",
    "construction:amenity": "charging_station",
    "fee": "yes",
    "motorcar": "yes",
    "name": "VND-00001",
    "network": "Mobi.E",
    "opening_hours": "24/7",
    "operator": "Galp Power",
    "parking:fee": "no",
    "ref": "VND-00001",
    "socket:type2": "2",
    "socket:type2:current": "32",
    "socket:type2:output": "22kW",
    "socket:type2:voltage": "400",
    "website": "https://www.mobie.pt/"
  }
},
{
  "type": "node",
  "id": 8286317371,
  "lat": 40.5722778,
  "lon": -8.4430368,
  "tags": {
    "access": "yes",
    "addr:country": "PT",
    "authentication:membership_card": "yes",
    "authentication:none": "no",
    "capacity": "2",
    "construction:amenity": "charging_station",
    "fee": "yes",
    "motorcar": "yes",
    "name": "AGD-00004",
    "network": "Mobi.E",
    "opening_hours": "24/7",
    "operator": "Galp Power",
    "parking:fee": "no",
    "ref": "AGD-00004",
    "socket:type2": "2",
    "socket:type2:current": "32",
    "socket:type2:output": "22kW",
    "socket:type2:voltage": "400",
    "website": "https://www.mobie.pt/"
  }
},
{
  "type": "node",
  "id": 8286363089,
  "lat": 40.6504095,
  "lon": -8.6147833,
  "tags": {
    "access": "yes",
    "addr:country": "PT",
    "authentication:membership_card": "yes",
    "authentication:none": "no",
    "capacity": "2",
    "construction:amenity": "charging_station",
    "fee": "yes",
    "motorcar": "yes",
    "name": "AVR-00011",
    "network": "Mobi.E",
    "opening_hours": "24/7",
    "operator": "Powerdot",
    "parking:fee": "no",
    "ref": "AVR-00011",
    "socket:type2": "2",
    "socket:type2:current": "32",
    "socket:type2:output": "22kW",
    "socket:type2:voltage": "400",
    "website": "https://www.mobie.pt/"
  }
},
{
  "type": "node",
  "id": 8286412765,
  "lat": 40.6630482,
  "lon": -8.6121601,
  "tags": {
    "access": "yes",
    "addr:city": "Aveiro",
    "addr:country": "PT",
    "authentication:membership_card": "yes",
    "authentication:none": "no",
    "capacity": "2",
    "construction:amenity": "charging_station",
    "fee": "yes",
    "motorcar": "yes",
    "name": "AVR-00013 - Lidl",
    "network": "Mobi.E",
    "opening_hours": "24/7",
    "operator": "KLC",
    "parking:fee": "no",
    "ref": "AVR-00013",
    "socket:chademo": "1",
    "socket:chademo:current": "120",
    "socket:chademo:output": "50kW",
    "socket:chademo:voltage": "500",
    "socket:type2_cable": "1",
    "socket:type2_cable:current": "63",
    "socket:type2_cable:output": "43kW",
    "socket:type2_cable:voltage": "400",
    "socket:type2_combo": "1",
    "socket:type2_combo:current": "125",
    "socket:type2_combo:output": "50kW",
    "socket:type2_combo:voltage": "500",
    "website": "https://www.mobie.pt/"
  }
},
{
  "type": "node",
  "id": 8287579559,
  "lat": 40.9577399,
  "lon": -7.2613446,
  "tags": {
    "access": "yes",
    "addr:country": "PT",
    "authentication:membership_card": "yes",
    "authentication:none": "no",
    "capacity": "2",
    "construction:amenity": "charging_station",
    "fee": "yes",
    "motorcar": "yes",
    "name": "MED-00002 - Intermarché",
    "network": "Mobi.E",
    "opening_hours": "24/7",
    "operator": "EDP Comercial",
    "parking:fee": "no",
    "ref": "MED-00002",
    "socket:type2": "2",
    "socket:type2:current": "32",
    "socket:type2:output": "22kW",
    "socket:type2:voltage": "400",
    "website": "https://www.mobie.pt/"
  }
},
{
  "type": "node",
  "id": 8289259774,
  "lat": 38.2116845,
  "lon": -7.8020817,
  "tags": {
    "access": "yes",
    "addr:country": "PT",
    "amenity": "charging_station",
    "authentication:membership_card": "yes",
    "authentication:none": "no",
    "capacity": "2",
    "construction:amenity": "charging_station",
    "fee": "yes",
    "motorcar": "yes",
    "name": "VDG-00001",
    "network": "Mobi.E",
    "opening_hours": "24/7",
    "operator": "Powerdot",
    "parking:fee": "no",
    "ref": "VDG-90001",
    "socket:type2": "2",
    "socket:type2:current": "32",
    "socket:type2:output": "22kW",
    "socket:type2:voltage": "400",
    "website": "https://www.mobie.pt/"
  }
},
{
  "type": "node",
  "id": 8289278913,
  "lat": 38.7023813,
  "lon": -7.4056153,
  "tags": {
    "access": "yes",
    "addr:country": "PT",
    "authentication:membership_card": "yes",
    "authentication:none": "no",
    "capacity": "2",
    "construction:amenity": "charging_station",
    "fee": "yes",
    "motorcar": "yes",
    "name": "ADL-00001",
    "network": "Mobi.E",
    "opening_hours": "24/7",
    "operator": "EDP Comercial",
    "parking:fee": "no",
    "ref": "ADL-00001",
    "socket:type2": "2",
    "socket:type2:current": "32",
    "socket:type2:output": "22kW",
    "socket:type2:voltage": "400",
    "website": "https://www.mobie.pt/"
  }
},
{
  "type": "node",
  "id": 8289337270,
  "lat": 38.6570002,
  "lon": -9.0674999,
  "tags": {
    "access": "yes",
    "addr:country": "PT",
    "authentication:membership_card": "yes",
    "authentication:none": "no",
    "capacity": "2",
    "construction:amenity": "charging_station",
    "fee": "yes",
    "motorcar": "yes",
    "name": "BRR-00001",
    "network": "Mobi.E",
    "opening_hours": "24/7",
    "operator": "EDP Comercial",
    "parking:fee": "no",
    "ref": "BRR-00001",
    "socket:type2": "2",
    "socket:type2:current": "32",
    "socket:type2:output": "22kW",
    "socket:type2:voltage": "400",
    "website": "https://www.mobie.pt/"
  }
},
{
  "type": "node",
  "id": 8289337323,
  "lat": 38.6363872,
  "lon": -9.1024156,
  "tags": {
    "access": "yes",
    "addr:country": "PT",
    "authentication:membership_card": "yes",
    "authentication:none": "no",
    "capacity": "2",
    "construction:amenity": "charging_station",
    "fee": "yes",
    "motorcar": "yes",
    "name": "SXL-00001",
    "network": "Mobi.E",
    "opening_hours": "24/7",
    "operator": "Powerdot",
    "parking:fee": "no",
    "ref": "SXL-00001",
    "socket:type2": "2",
    "socket:type2:current": "32",
    "socket:type2:output": "22kW",
    "socket:type2:voltage": "400",
    "website": "https://www.mobie.pt/"
  }
},
{
  "type": "node",
  "id": 8289959235,
  "lat": 39.4159178,
  "lon": -7.4559174,
  "tags": {
    "access": "yes",
    "addr:country": "PT",
    "authentication:membership_card": "yes",
    "authentication:none": "no",
    "capacity": "2",
    "construction:amenity": "charging_station",
    "fee": "yes",
    "motorcar": "yes",
    "name": "CVD-00002",
    "network": "Mobi.E",
    "opening_hours": "24/7",
    "operator": "EV Power",
    "parking:fee": "no",
    "ref": "CVD-00002",
    "socket:type2": "2",
    "socket:type2:current": "16",
    "socket:type2:output": "11kW",
    "socket:type2:voltage": "400",
    "website": "https://www.mobie.pt/"
  }
},
{
  "type": "node",
  "id": 8294833213,
  "lat": 38.7257985,
  "lon": -9.2418321,
  "tags": {
    "access": "yes",
    "addr:country": "PT",
    "authentication:membership_card": "yes",
    "authentication:none": "no",
    "capacity": "1",
    "construction:amenity": "charging_station",
    "fee": "yes",
    "motorcar": "yes",
    "name": "OER-XXXXX",
    "network": "Mobi.E",
    "opening_hours": "24/7",
    "operator": "unknown",
    "parking:fee": "no",
    "ref": "OER-XXXXX",
    "socket:type2": "1",
    "socket:type2:current": "32",
    "socket:type2:output": "22kW",
    "socket:type2:voltage": "400",
    "website": "https://www.mobie.pt/"
  }
},
{
  "type": "node",
  "id": 8298190295,
  "lat": 38.7600810,
  "lon": -9.1824433,
  "tags": {
    "access": "yes",
    "addr:country": "PT",
    "authentication:membership_card": "yes",
    "authentication:none": "no",
    "capacity": "2",
    "construction:amenity": "charging_station",
    "fee": "yes",
    "motorcar": "yes",
    "name": "LSB-00026",
    "network": "Mobi.E",
    "opening_hours": "24/7",
    "operator": "KLC",
    "parking:fee": "no",
    "ref": "LSB-90026",
    "socket:type2": "2",
    "socket:type2:current": "32",
    "socket:type2:output": "22kW",
    "socket:type2:voltage": "400",
    "website": "https://www.mobie.pt/"
  }
},
{
  "type": "node",
  "id": 8301187795,
  "lat": 38.7212550,
  "lon": -9.1610406,
  "tags": {
    "access": "customers",
    "addr:country": "PT",
    "authentication:membership_card": "yes",
    "authentication:none": "no",
    "capacity": "1",
    "construction:amenity": "charging_station",
    "fee": "yes",
    "motorcar": "yes",
    "name": "LSB-00220",
    "network": "Mobi.E",
    "opening_hours": "24/7",
    "operator": "Powerdot",
    "parking:fee": "no",
    "ref": "LSB-00220",
    "socket:type2": "1",
    "socket:type2:current": "32",
    "socket:type2:output": "7.4kW",
    "socket:type2:voltage": "230",
    "website": "https://www.mobie.pt/"
  }
},
{
  "type": "node",
  "id": 8308898266,
  "lat": 38.6551907,
  "lon": -8.9951232,
  "tags": {
    "access": "yes",
    "addr:country": "PT",
    "authentication:membership_card": "yes",
    "authentication:none": "no",
    "capacity": "2",
    "construction:amenity": "charging_station",
    "email": "ajuda@powerdot.pt",
    "fee": "yes",
    "motorcar": "yes",
    "name": "MTA-00001",
    "network": "Mobi.E",
    "opening_hours": "24/7",
    "operator": "Powerdot",
    "parking:fee": "no",
    "phone": "+351 800 180 292",
    "ref": "MTA-90001",
    "socket:type2": "2",
    "socket:type2:current": "32",
    "socket:type2:output": "22kW",
    "socket:type2:voltage": "400",
    "website": "https://www.mobie.pt/"
  }
},
{
  "type": "node",
  "id": 8308930719,
  "lat": 38.7440383,
  "lon": -9.2671663,
  "tags": {
    "access": "yes",
    "addr:country": "PT",
    "authentication:membership_card": "yes",
    "authentication:none": "no",
    "capacity": "1",
    "construction:amenity": "charging_station",
    "fee": "yes",
    "name": "OER-XXXXX",
    "network": "unknown",
    "opening_hours": "24/7",
    "operator": "unknown",
    "parking:fee": "no",
    "ref": "OER-XXXXX",
    "socket:type2": "1",
    "socket:type2:current": "32",
    "socket:type2:output": "22kW",
    "socket:type2:voltage": "400"
  }
},
{
  "type": "node",
  "id": 8308938783,
  "lat": 38.7138037,
  "lon": -9.2260480,
  "tags": {
    "access": "yes",
    "addr:country": "PT",
    "authentication:membership_card": "yes",
    "authentication:none": "no",
    "capacity": "1",
    "construction:amenity": "charging_station",
    "fee": "yes",
    "name": "OER-XXXXX",
    "network": "unknown",
    "opening_hours": "24/7",
    "operator": "unknown",
    "parking:fee": "no",
    "ref": "OER-XXXXX",
    "socket:type2": "1",
    "socket:type2:current": "32",
    "socket:type2:output": "22kW",
    "socket:type2:voltage": "400"
  }
},
{
  "type": "node",
  "id": 8308978354,
  "lat": 38.7595168,
  "lon": -9.1585348,
  "tags": {
    "access": "yes",
    "addr:country": "PT",
    "authentication:membership_card": "yes",
    "authentication:none": "no",
    "capacity": "4",
    "construction:amenity": "charging_station",
    "fee": "yes",
    "location": "underground",
    "motorcar": "yes",
    "name": "LSB-XXXXX - Parque Estacionamento SABA Campo Grande",
    "network": "Mobi.E",
    "opening_hours": "24/7",
    "operator": "EDP Comercial",
    "parking:fee": "yes",
    "ref": "LSB-XXXXX",
    "socket:type2": "4",
    "socket:type2:current": "32",
    "socket:type2:output": "7.4kW",
    "socket:type2:voltage": "230",
    "website": "https://www.mobie.pt/"
  }
},
{
  "type": "node",
  "id": 8309422368,
  "lat": 40.6461826,
  "lon": -8.7318634,
  "tags": {
    "access": "yes",
    "addr:country": "PT",
    "authentication:membership_card": "yes",
    "authentication:none": "no",
    "capacity": "10",
    "construction:amenity": "charging_station",
    "fee": "yes",
    "motorcar": "yes",
    "name": "ILH-XXXXX",
    "network": "Mobi.E",
    "opening_hours": "24/7",
    "operator": "unknown",
    "parking:fee": "no",
    "ref": "ILH-XXXXX",
    "socket:type2": "10",
    "socket:type2:current": "32",
    "socket:type2:output": "22kW",
    "socket:type2:voltage": "400",
    "website": "https://www.mobie.pt/"
  }
},
{
  "type": "node",
  "id": 8309430654,
  "lat": 40.1700729,
  "lon": -7.4936564,
  "tags": {
    "access": "yes",
    "addr:country": "PT",
    "authentication:membership_card": "yes",
    "authentication:none": "no",
    "capacity": "2",
    "construction:amenity": "charging_station",
    "fee": "yes",
    "motorcar": "yes",
    "name": "FND-00006",
    "network": "Mobi.E",
    "opening_hours": "24/7",
    "operator": "EV Power",
    "parking:fee": "no",
    "ref": "FND-00006",
    "socket:type2": "2",
    "socket:type2:current": "32",
    "socket:type2:output": "22kW",
    "socket:type2:voltage": "400",
    "website": "https://www.mobie.pt/"
  }
},
{
  "type": "node",
  "id": 8309438034,
  "lat": 40.6066934,
  "lon": -7.7614640,
  "tags": {
    "access": "yes",
    "addr:country": "PT",
    "authentication:membership_card": "yes",
    "authentication:none": "no",
    "capacity": "2",
    "construction:amenity": "charging_station",
    "fee": "yes",
    "motorcar": "yes",
    "name": "MGL-00003",
    "network": "Mobi.E",
    "opening_hours": "24/7",
    "operator": "EDP Comercial",
    "parking:fee": "no",
    "ref": "MGL-00003",
    "socket:type2": "2",
    "socket:type2:current": "32",
    "socket:type2:output": "22kW",
    "socket:type2:voltage": "400",
    "website": "https://www.mobie.pt/"
  }
},
{
  "type": "node",
  "id": 8309449243,
  "lat": 40.6135288,
  "lon": -8.7495842,
  "tags": {
    "access": "yes",
    "addr:country": "PT",
    "authentication:membership_card": "yes",
    "authentication:none": "no",
    "capacity": "2",
    "construction:amenity": "charging_station",
    "fee": "yes",
    "motorcar": "yes",
    "name": "ILH-00001",
    "network": "Mobi.E",
    "opening_hours": "24/7",
    "operator": "EDP Comercial",
    "parking:fee": "no",
    "ref": "ILH-00001",
    "socket:type2": "2",
    "socket:type2:current": "32",
    "socket:type2:output": "22kW",
    "socket:type2:voltage": "400",
    "website": "https://www.mobie.pt/"
  }
},
{
  "type": "node",
  "id": 8309476991,
  "lat": 41.1589744,
  "lon": -8.6302616,
  "tags": {
    "access": "yes",
    "addr:country": "PT",
    "authentication:membership_card": "yes",
    "authentication:none": "no",
    "capacity": "6",
    "construction:amenity": "charging_station",
    "fee": "yes",
    "location": "underground",
    "motorcar": "yes",
    "name": "PRT-00040/41/42 - Parque Estacionamento SABA Casa da Música",
    "network": "Mobi.E",
    "opening_hours": "24/7",
    "operator": "EDP Comercial",
    "parking:fee": "yes",
    "ref": "PRT-00040;PRT-00041;PRT-00042",
    "socket:type2": "6",
    "socket:type2:current": "32",
    "socket:type2:output": "22kW",
    "socket:type2:voltage": "400",
    "website": "https://www.mobie.pt/"
  }
},
{
  "type": "node",
  "id": 8309480651,
  "lat": 41.0422458,
  "lon": -8.6322203,
  "tags": {
    "access": "yes",
    "addr:country": "PT",
    "authentication:membership_card": "yes",
    "authentication:none": "no",
    "capacity": "2",
    "construction:amenity": "charging_station",
    "fee": "yes",
    "motorcar": "yes",
    "name": "VNG-XXXXX - Intermarché",
    "network": "Mobi.E",
    "opening_hours": "24/7",
    "operator": "unknown",
    "parking:fee": "no",
    "ref": "VNG-XXXXX",
    "socket:type2": "2",
    "socket:type2:current": "32",
    "socket:type2:output": "22kW",
    "socket:type2:voltage": "400",
    "website": "https://www.mobie.pt/"
  }
},
{
  "type": "node",
  "id": 8309485516,
  "lat": 41.1452355,
  "lon": -8.6116300,
  "tags": {
    "access": "yes",
    "addr:country": "PT",
    "authentication:membership_card": "yes",
    "authentication:none": "no",
    "capacity": "4",
    "construction:amenity": "charging_station",
    "fee": "yes",
    "location": "underground",
    "motorcar": "yes",
    "name": "PRT-00038/39 - Parque Estacionamento SABA Cardosas",
    "network": "Mobi.E",
    "opening_hours": "24/7",
    "operator": "EDP Comercial",
    "parking:fee": "yes",
    "ref": "PRT-00038;PRT-00039",
    "socket:type2": "4",
    "socket:type2:current": "32",
    "socket:type2:output": "22kW",
    "socket:type2:voltage": "400",
    "website": "https://www.mobie.pt/"
  }
},
{
  "type": "node",
  "id": 8309495122,
  "lat": 41.1739818,
  "lon": -7.0498202,
  "tags": {
    "access": "yes",
    "addr:country": "PT",
    "authentication:membership_card": "yes",
    "authentication:none": "no",
    "capacity": "2",
    "construction:amenity": "charging_station",
    "fee": "yes",
    "motorcar": "yes",
    "name": "TMC-XXXXX",
    "network": "Mobi.E",
    "opening_hours": "24/7",
    "operator": "unknown",
    "parking:fee": "no",
    "ref": "TMC-XXXXX",
    "socket:type2": "2",
    "socket:type2:current": "32",
    "socket:type2:output": "22kW",
    "socket:type2:voltage": "400",
    "website": "https://www.mobie.pt/"
  }
},
{
  "type": "node",
  "id": 8309551644,
  "lat": 41.2675506,
  "lon": -8.0735417,
  "tags": {
    "access": "yes",
    "addr:country": "PT",
    "authentication:membership_card": "yes",
    "authentication:none": "no",
    "capacity": "2",
    "construction:amenity": "charging_station",
    "fee": "yes",
    "motorcar": "yes",
    "name": "AMT-00002",
    "network": "Mobi.E",
    "opening_hours": "24/7",
    "operator": "KLC",
    "parking:fee": "no",
    "ref": "AMT-00002",
    "socket:type2": "2",
    "socket:type2:current": "32",
    "socket:type2:output": "22kW",
    "socket:type2:voltage": "400",
    "website": "https://www.mobie.pt/"
  }
},
{
  "type": "node",
  "id": 8309572509,
  "lat": 41.3499197,
  "lon": -8.7476680,
  "tags": {
    "access": "yes",
    "addr:country": "PT",
    "authentication:membership_card": "yes",
    "authentication:none": "no",
    "capacity": "2",
    "construction:amenity": "charging_station",
    "fee": "yes",
    "motorcar": "yes",
    "name": "VCD-00004",
    "network": "Mobi.E",
    "opening_hours": "24/7",
    "operator": "EDP Comercial",
    "parking:fee": "no",
    "ref": "VCD-00004",
    "socket:type2": "2",
    "socket:type2:current": "32",
    "socket:type2:output": "22kW",
    "socket:type2:voltage": "400",
    "website": "https://www.mobie.pt/"
  }
},
{
  "type": "node",
  "id": 8322482750,
  "lat": 41.1945167,
  "lon": -8.2970729,
  "tags": {
    "access": "yes",
    "addr:city": "Penafiel",
    "addr:country": "PT",
    "authentication:membership_card": "yes",
    "authentication:none": "no",
    "capacity": "2",
    "construction:amenity": "charging_station",
    "fee": "yes",
    "motorcar": "yes",
    "name": "PNF-00009",
    "network": "Mobi.E",
    "opening_hours": "24/7",
    "operator": "Galp Power",
    "parking:fee": "no",
    "ref": "PNF-00009",
    "socket:chademo": "1",
    "socket:chademo:current": "120",
    "socket:chademo:output": "50kW",
    "socket:chademo:voltage": "500",
    "socket:type2_cable": "1",
    "socket:type2_cable:current": "63",
    "socket:type2_cable:output": "43kW",
    "socket:type2_cable:voltage": "400",
    "socket:type2_combo": "1",
    "socket:type2_combo:current": "125",
    "socket:type2_combo:output": "50kW",
    "socket:type2_combo:voltage": "500",
    "website": "https://www.mobie.pt/"
  }
},
{
  "type": "node",
  "id": 8350172525,
  "lat": 37.1371073,
  "lon": -8.4641951,
  "tags": {
    "access": "yes",
    "addr:country": "PT",
    "authentication:membership_card": "yes",
    "authentication:none": "no",
    "capacity": "4",
    "construction:amenity": "charging_station",
    "email": "geral.pt@helexia.eu",
    "fee": "yes",
    "motorcar": "yes",
    "name": "LGA-00009/10 - Auchan",
    "network": "Mobi.E",
    "opening_hours": "24/7",
    "operator": "Helexia II",
    "parking:fee": "no",
    "phone": "+351 800 100 303",
    "ref": "LGA-00009;LGA-00010",
    "socket:type2": "4",
    "socket:type2:current": "32",
    "socket:type2:output": "22kW",
    "socket:type2:voltage": "400",
    "website": "https://www.mobie.pt/"
  }
},
{
  "type": "node",
  "id": 8362478493,
  "lat": 33.0572787,
  "lon": -16.3388700,
  "tags": {
    "access": "yes",
    "addr:country": "PT",
    "authentication:membership_card": "yes",
    "authentication:none": "no",
    "capacity": "2",
    "construction:amenity": "charging_station",
    "fee": "yes",
    "motorcar": "yes",
    "name": "PST-XXXXX",
    "network": "Mobi.E",
    "opening_hours": "24/7",
    "operator": "Mobi.E",
    "parking:fee": "no",
    "ref": "PST-XXXXX",
    "socket:type2": "2",
    "socket:type2:current": "32",
    "socket:type2:output": "7.4kW",
    "socket:type2:voltage": "230",
    "website": "https://www.mobie.pt/"
  }
},
{
  "type": "node",
  "id": 8362478494,
  "lat": 38.7494553,
  "lon": -9.1786037,
  "tags": {
    "access": "customers",
    "addr:country": "PT",
    "authentication:membership_card": "yes",
    "authentication:none": "no",
    "capacity": "2",
    "construction:amenity": "charging_station",
    "fee": "yes",
    "motorcar": "yes",
    "name": "LSB-00309",
    "network": "Mobi.E",
    "opening_hours": "24/7",
    "operator": "Mobiletric",
    "parking:fee": "yes",
    "ref": "LSB-00309",
    "socket:type2": "2",
    "socket:type2:current": "32",
    "socket:type2:output": "22kW",
    "socket:type2:voltage": "400",
    "website": "https://www.mobie.pt/"
  }
},
{
  "type": "node",
  "id": 8362548820,
  "lat": 41.1572099,
  "lon": -8.6260137,
  "tags": {
    "access": "customers",
    "addr:country": "PT",
    "authentication:membership_card": "yes",
    "authentication:none": "no",
    "capacity": "2",
    "construction:amenity": "charging_station",
    "fee": "yes",
    "motorcar": "yes",
    "name": "PRT-00062",
    "network": "Mobi.E",
    "opening_hours": "24/7",
    "operator": "Mobiletric",
    "parking:fee": "yes",
    "ref": "PRT-00062",
    "socket:type2": "2",
    "socket:type2:current": "32",
    "socket:type2:output": "22kW",
    "socket:type2:voltage": "400",
    "website": "https://www.mobie.pt/"
  }
},
{
  "type": "node",
  "id": 8379189409,
  "lat": 37.0745274,
  "lon": -8.1233422,
  "tags": {
    "access": "yes",
    "addr:country": "PT",
    "authentication:membership_card": "yes",
    "authentication:none": "no",
    "capacity": "2",
    "construction:amenity": "charging_station",
    "fee": "yes",
    "motorcar": "yes",
    "name": "LLE-XXXXX",
    "network": "Mobi.E",
    "opening_hours": "24/7",
    "operator": "EV Power",
    "parking:fee": "no",
    "ref": "LLE-XXXXX",
    "socket:type2": "2",
    "socket:type2:current": "32",
    "socket:type2:output": "22kW",
    "socket:type2:voltage": "400",
    "website": "https://www.mobie.pt/"
  }
},
{
  "type": "node",
  "id": 8379226900,
  "lat": 38.8923021,
  "lon": -9.0446596,
  "tags": {
    "access": "yes",
    "addr:city": "Alverca do Ribatejo",
    "addr:country": "PT",
    "authentication:membership_card": "yes",
    "authentication:none": "no",
    "capacity": "2",
    "construction:amenity": "charging_station",
    "fee": "yes",
    "motorcar": "yes",
    "name": "VFX-XXXXX",
    "network": "Mobi.E",
    "opening_hours": "24/7",
    "operator": "Galp Power",
    "parking:fee": "no",
    "ref": "VFX-XXXXX",
    "socket:chademo": "1",
    "socket:chademo:current": "120",
    "socket:chademo:output": "50kW",
    "socket:chademo:voltage": "500",
    "socket:type2_cable": "1",
    "socket:type2_cable:current": "63",
    "socket:type2_cable:output": "43kW",
    "socket:type2_cable:voltage": "400",
    "socket:type2_combo": "1",
    "socket:type2_combo:current": "125",
    "socket:type2_combo:output": "50kW",
    "socket:type2_combo:voltage": "500",
    "website": "https://www.mobie.pt/"
  }
},
{
  "type": "node",
  "id": 8379232286,
  "lat": 40.5260329,
  "lon": -8.0835289,
  "tags": {
    "access": "yes",
    "addr:city": "Tondela",
    "addr:country": "PT",
    "authentication:membership_card": "yes",
    "authentication:none": "no",
    "capacity": "2",
    "construction:amenity": "charging_station",
    "fee": "yes",
    "motorcar": "yes",
    "name": "TND-00005 - Bricomarché",
    "network": "Mobi.E",
    "opening_hours": "24/7",
    "operator": "Mobiletric",
    "parking:fee": "no",
    "ref": "TND-00005",
    "socket:chademo": "1",
    "socket:chademo:current": "120",
    "socket:chademo:output": "50kW",
    "socket:chademo:voltage": "500",
    "socket:type2_cable": "1",
    "socket:type2_cable:current": "63",
    "socket:type2_cable:output": "43kW",
    "socket:type2_cable:voltage": "400",
    "socket:type2_combo": "1",
    "socket:type2_combo:current": "125",
    "socket:type2_combo:output": "50kW",
    "socket:type2_combo:voltage": "500",
    "website": "https://www.mobie.pt/"
  }
},
{
  "type": "node",
  "id": 8379501971,
  "lat": 40.2546017,
  "lon": -8.4306336,
  "tags": {
    "access": "yes",
    "addr:country": "PT",
    "authentication:membership_card": "yes",
    "authentication:none": "no",
    "capacity": "2",
    "construction:amenity": "charging_station",
    "fee": "yes",
    "motorcar": "yes",
    "name": "CBR-00012/13 - Auchan",
    "network": "Mobi.E",
    "opening_hours": "24/7",
    "operator": "Helexia II",
    "parking:fee": "no",
    "ref": "CBR-00012;CBR-00013",
    "socket:type2": "2",
    "socket:type2:current": "32",
    "socket:type2:output": "22kW",
    "socket:type2:voltage": "400",
    "website": "https://www.mobie.pt/"
  }
},
{
  "type": "node",
  "id": 8380381402,
  "lat": 41.2202289,
  "lon": -8.6879338,
  "tags": {
    "access": "yes",
    "addr:city": "Perafita",
    "addr:country": "PT",
    "addr:street": "Avenida Mário Brito",
    "authentication:membership_card": "yes",
    "authentication:none": "no",
    "capacity": "2",
    "construction:amenity": "charging_station",
    "fee": "yes",
    "motorcar": "yes",
    "name": "MTS-XXXXX",
    "network": "Mobi.E",
    "opening_hours": "24/7",
    "operator": "unknown",
    "parking:fee": "no",
    "ref": "MTS-XXXXX",
    "socket:chademo": "1",
    "socket:chademo:current": "120",
    "socket:chademo:output": "50kW",
    "socket:chademo:voltage": "500",
    "socket:type2_cable": "1",
    "socket:type2_cable:current": "63",
    "socket:type2_cable:output": "43kW",
    "socket:type2_cable:voltage": "400",
    "socket:type2_combo": "1",
    "socket:type2_combo:current": "125",
    "socket:type2_combo:output": "50kW",
    "socket:type2_combo:voltage": "500",
    "website": "https://www.mobie.pt/"
  }
},
{
  "type": "node",
  "id": 8385337985,
  "lat": 38.7775649,
  "lon": -9.3482736,
  "tags": {
    "access": "yes",
    "addr:country": "PT",
    "authentication:membership_card": "yes",
    "authentication:none": "no",
    "capacity": "4",
    "construction:amenity": "charging_station",
    "fee": "yes",
    "motorcar": "yes",
    "name": "SNT-00037/38 - Auchan Sintra",
    "network": "Mobi.E",
    "opening_hours": "24/7",
    "operator": "Helexia II",
    "parking:fee": "no",
    "ref": "SNT-00037;SNT-00038",
    "socket:type2": "4",
    "socket:type2:current": "32",
    "socket:type2:output": "22kW",
    "socket:type2:voltage": "400",
    "website": "https://www.mobie.pt/"
  }
},
{
  "type": "node",
  "id": 8385399036,
  "lat": 39.7127805,
  "lon": -8.7115788,
  "tags": {
    "access": "yes",
    "addr:country": "PT",
    "authentication:membership_card": "yes",
    "authentication:none": "no",
    "capacity": "2",
    "construction:amenity": "charging_station",
    "fee": "yes",
    "motorcar": "yes",
    "name": "LRA-00028/29 - Ionity A1 Leiria N>S",
    "network": "Mobi.E",
    "opening_hours": "24/7",
    "operator": "Ionity",
    "parking:fee": "no",
    "ref": "LRA-00028;LRA-00029",
    "socket:type2_combo": "2",
    "socket:type2_combo:current": "500",
    "socket:type2_combo:output": "350kW",
    "socket:type2_combo:voltage": "920",
    "website": "https://www.mobie.pt/"
  }
},
{
  "type": "node",
  "id": 8385399037,
  "lat": 39.7128445,
  "lon": -8.7095243,
  "tags": {
    "access": "yes",
    "addr:country": "PT",
    "authentication:membership_card": "yes",
    "authentication:none": "no",
    "capacity": "2",
    "construction:amenity": "charging_station",
    "fee": "yes",
    "motorcar": "yes",
    "name": "LRA-00030/31 - Ionity A1 Leiria S>N",
    "network": "Mobi.E",
    "opening_hours": "24/7",
    "operator": "Ionity",
    "parking:fee": "no",
    "ref": "LRA-00030;LRA-00031",
    "socket:type2_combo": "2",
    "socket:type2_combo:current": "500",
    "socket:type2_combo:output": "350kW",
    "socket:type2_combo:voltage": "920",
    "website": "https://www.mobie.pt/"
  }
},
{
  "type": "node",
  "id": 8385455670,
  "lat": 38.7447161,
  "lon": -9.3041217,
  "tags": {
    "access": "yes",
    "addr:city": "Porto Salvo",
    "addr:country": "PT",
    "authentication:membership_card": "yes",
    "authentication:none": "no",
    "capacity": "1",
    "construction:amenity": "charging_station",
    "fee": "yes",
    "motorcar": "yes",
    "name": "OER-00088 - Tagus Park",
    "network": "Mobi.E",
    "opening_hours": "24/7",
    "operator": "Mobiletric",
    "parking:fee": "no",
    "ref": "OER-00088",
    "socket:chademo": "1",
    "socket:chademo:current": "120",
    "socket:chademo:output": "50kW",
    "socket:chademo:voltage": "500",
    "socket:type2_combo": "1",
    "socket:type2_combo:current": "350",
    "socket:type2_combo:output": "160kW",
    "socket:type2_combo:voltage": "920",
    "website": "https://www.mobie.pt/"
  }
},
{
  "type": "node",
  "id": 8385464249,
  "lat": 38.7263169,
  "lon": -9.2430559,
  "tags": {
    "access": "yes",
    "addr:city": "Carnaxide",
    "addr:country": "PT",
    "authentication:membership_card": "yes",
    "authentication:none": "no",
    "capacity": "1",
    "construction:amenity": "charging_station",
    "fee": "yes",
    "motorcar": "yes",
    "name": "OER-00089 - Centro Cívico de Carnaxide",
    "network": "Mobi.E",
    "opening_hours": "24/7",
    "operator": "Mobiletric",
    "parking:fee": "no",
    "ref": "OER-00089",
    "socket:chademo": "1",
    "socket:chademo:current": "120",
    "socket:chademo:output": "50kW",
    "socket:chademo:voltage": "500",
    "socket:type2_combo": "1",
    "socket:type2_combo:current": "350",
    "socket:type2_combo:output": "160kW",
    "socket:type2_combo:voltage": "920",
    "website": "https://www.mobie.pt/"
  }
},
{
  "type": "node",
  "id": 8387684711,
  "lat": 37.9651309,
  "lon": -8.8585532,
  "tags": {
    "access": "yes",
    "addr:city": "Sines",
    "addr:country": "PT",
    "authentication:membership_card": "yes",
    "authentication:none": "no",
    "capacity": "1",
    "construction:amenity": "charging_station",
    "fee": "yes",
    "motorcar": "yes",
    "name": "SNS-00003",
    "network": "Mobi.E",
    "opening_hours": "24/7",
    "operator": "Mobiletric",
    "parking:fee": "no",
    "ref": "SNS-00003",
    "socket:chademo": "1",
    "socket:chademo:current": "120",
    "socket:chademo:output": "50kW",
    "socket:chademo:voltage": "500",
    "socket:type2_combo": "1",
    "socket:type2_combo:current": "125",
    "socket:type2_combo:output": "50kW",
    "socket:type2_combo:voltage": "500",
    "website": "https://www.mobie.pt/"
  }
},
{
  "type": "node",
  "id": 8397159085,
  "lat": 38.7710909,
  "lon": -9.1283083,
  "tags": {
    "access": "yes",
    "addr:country": "PT",
    "authentication:membership_card": "yes",
    "authentication:none": "no",
    "capacity": "4",
    "construction:amenity": "charging_station",
    "fee": "yes",
    "motorcar": "yes",
    "name": "LSB-00341/342 - Aeroporto Parque P2",
    "network": "Mobi.E",
    "opening_hours": "24/7",
    "operator": "Galp Power",
    "parking:fee": "no",
    "ref": "LSB-00341;LSB-00342",
    "socket:type2": "4",
    "socket:type2:current": "32",
    "socket:type2:output": "22kW",
    "socket:type2:voltage": "400",
    "website": "https://www.mobie.pt/"
  }
},
{
  "type": "node",
  "id": 8397160646,
  "lat": 38.6358289,
  "lon": -8.8990934,
  "tags": {
    "access": "yes",
    "addr:country": "PT",
    "authentication:membership_card": "yes",
    "authentication:none": "no",
    "capacity": "2",
    "construction:amenity": "charging_station",
    "fee": "yes",
    "motorcar": "yes",
    "name": "PLM-00007 - Intermarché",
    "network": "Mobi.E",
    "opening_hours": "24/7",
    "operator": "Mobiletric",
    "parking:fee": "no",
    "ref": "PLM-00007",
    "socket:type2": "2",
    "socket:type2:current": "32",
    "socket:type2:output": "22kW",
    "socket:type2:voltage": "400",
    "website": "https://www.mobie.pt/"
  }
},
{
  "type": "node",
  "id": 8397185634,
  "lat": 39.5190138,
  "lon": -8.6882021,
  "tags": {
    "access": "yes",
    "addr:country": "PT",
    "authentication:membership_card": "yes",
    "authentication:none": "no",
    "capacity": "2",
    "construction:amenity": "charging_station",
    "fee": "yes",
    "motorcar": "yes",
    "name": "ACN-00003 - Intermarché",
    "network": "Mobi.E",
    "opening_hours": "24/7",
    "operator": "Mobiletric",
    "parking:fee": "no",
    "ref": "ACN-00003",
    "socket:type2": "2",
    "socket:type2:current": "32",
    "socket:type2:output": "22kW",
    "socket:type2:voltage": "400",
    "website": "https://www.mobie.pt/"
  }
},
{
  "type": "node",
  "id": 8397323490,
  "lat": 40.5778264,
  "lon": -8.4463915,
  "tags": {
    "access": "yes",
    "addr:country": "PT",
    "authentication:membership_card": "yes",
    "authentication:none": "no",
    "capacity": "2",
    "construction:amenity": "charging_station",
    "fee": "yes",
    "motorcar": "yes",
    "name": "AGD-00003",
    "network": "Mobi.E",
    "opening_hours": "24/7",
    "operator": "sunenergy",
    "parking:fee": "no",
    "ref": "AGD-00003",
    "socket:type2": "2",
    "socket:type2:current": "32",
    "socket:type2:output": "22kW",
    "socket:type2:voltage": "400",
    "website": "https://www.mobie.pt/"
  }
},
{
  "type": "node",
  "id": 8399410969,
  "lat": 40.4207894,
  "lon": -7.7043477,
  "tags": {
    "access": "yes",
    "addr:country": "PT",
    "authentication:membership_card": "yes",
    "authentication:none": "no",
    "capacity": "2",
    "construction:amenity": "charging_station",
    "fee": "yes",
    "motorcar": "yes",
    "name": "SEI-00001",
    "network": "Mobi.E",
    "opening_hours": "24/7",
    "operator": "Powerdot",
    "parking:fee": "no",
    "ref": "SEI-00001",
    "socket:type2": "2",
    "socket:type2:current": "32",
    "socket:type2:output": "22kW",
    "socket:type2:voltage": "400",
    "website": "https://www.mobie.pt/"
  }
},
{
  "type": "node",
  "id": 8403134574,
  "lat": 39.8156967,
  "lon": -7.5203133,
  "tags": {
    "access": "yes",
    "addr:country": "PT",
    "authentication:membership_card": "yes",
    "authentication:none": "no",
    "capacity": "4",
    "construction:amenity": "charging_station",
    "fee": "yes",
    "motorcar": "yes",
    "name": "CTB-00012/13 - Auchan",
    "network": "Mobi.E",
    "opening_hours": "24/7",
    "operator": "Helexia II",
    "parking:fee": "no",
    "ref": "CTB-00012;CTB-00013",
    "socket:type2": "4",
    "socket:type2:current": "32",
    "socket:type2:output": "22kW",
    "socket:type2:voltage": "400",
    "website": "https://www.mobie.pt/"
  }
},
{
  "type": "node",
  "id": 8408172093,
  "lat": 41.3434760,
  "lon": -8.5569530,
  "tags": {
    "access": "yes",
    "addr:city": "Trofa",
    "addr:country": "PT",
    "addr:street": "Rua Dom Pedro V",
    "authentication:membership_card": "yes",
    "authentication:none": "no",
    "capacity": "2",
    "construction:amenity": "charging_station",
    "fee": "yes",
    "motorcar": "yes",
    "name": "TRF-XXXXX",
    "network": "Mobi.E",
    "opening_hours": "24/7",
    "operator": "Galp Geste",
    "parking:fee": "no",
    "ref": "TRF-XXXXX",
    "socket:chademo": "1",
    "socket:chademo:current": "120",
    "socket:chademo:output": "50kW",
    "socket:chademo:voltage": "500",
    "socket:type2_cable": "1",
    "socket:type2_cable:current": "63",
    "socket:type2_cable:output": "43kW",
    "socket:type2_cable:voltage": "400",
    "socket:type2_combo": "1",
    "socket:type2_combo:current": "125",
    "socket:type2_combo:output": "50kW",
    "socket:type2_combo:voltage": "500",
    "website": "https://www.mobie.pt/"
  }
},
{
  "type": "node",
  "id": 8413287634,
  "lat": 39.0660980,
  "lon": -8.8764140,
  "tags": {
    "access": "yes",
    "addr:city": "Azambuja",
    "addr:country": "PT",
    "addr:street": "EN 3",
    "authentication:membership_card": "yes",
    "authentication:none": "no",
    "capacity": "2",
    "construction:amenity": "charging_station",
    "fee": "yes",
    "motorcar": "yes",
    "name": "AZB-00004",
    "network": "Mobi.E",
    "opening_hours": "24/7",
    "operator": "Powerdot",
    "parking:fee": "no",
    "ref": "AZB-00004",
    "socket:chademo": "1",
    "socket:chademo:current": "120",
    "socket:chademo:output": "50kW",
    "socket:chademo:voltage": "500",
    "socket:type2_cable": "1",
    "socket:type2_cable:current": "63",
    "socket:type2_cable:output": "43kW",
    "socket:type2_cable:voltage": "400",
    "socket:type2_combo": "1",
    "socket:type2_combo:current": "125",
    "socket:type2_combo:output": "50kW",
    "socket:type2_combo:voltage": "500",
    "website": "https://www.mobie.pt/"
  }
},
{
  "type": "node",
  "id": 8413309492,
  "lat": 41.2081822,
  "lon": -8.6883456,
  "tags": {
    "access": "customers",
    "addr:country": "PT",
    "authentication:none": "no",
    "capacity": "12",
    "construction:amenity": "charging_station",
    "fee": "yes",
    "motorcar": "yes",
    "name": "Matosinhos Supercharger",
    "network": "Tesla",
    "note": "V3",
    "opening_hours": "24/7",
    "operator": "Tesla",
    "parking:fee": "no",
    "socket:tesla_supercharger_ccs": "12",
    "socket:tesla_supercharger_ccs:output": "250kW"
  }
},
{
  "type": "node",
  "id": 8418677777,
  "lat": 41.3484700,
  "lon": -8.7471396,
  "tags": {
    "access": "yes",
    "addr:city": "Vila do Conde",
    "addr:country": "PT",
    "addr:street": "Avenida Júlio Graça",
    "authentication:membership_card": "yes",
    "authentication:none": "no",
    "capacity": "2",
    "construction:amenity": "charging_station",
    "fee": "yes",
    "motorcar": "yes",
    "name": "VCD-00007 - Lidl",
    "network": "Mobi.E",
    "opening_hours": "24/7",
    "operator": "KLC",
    "parking:fee": "no",
    "ref": "VCD-00007",
    "socket:chademo": "1",
    "socket:chademo:current": "120",
    "socket:chademo:output": "50kW",
    "socket:chademo:voltage": "500",
    "socket:type2_cable": "1",
    "socket:type2_cable:current": "63",
    "socket:type2_cable:output": "43kW",
    "socket:type2_cable:voltage": "400",
    "socket:type2_combo": "1",
    "socket:type2_combo:current": "125",
    "socket:type2_combo:output": "50kW",
    "socket:type2_combo:voltage": "500",
    "website": "https://www.mobie.pt/"
  }
},
{
  "type": "node",
  "id": 8419230189,
  "lat": 39.7509082,
  "lon": -7.9174170,
  "tags": {
    "access": "yes",
    "addr:country": "PT",
    "authentication:membership_card": "yes",
    "authentication:none": "no",
    "capacity": "2",
    "construction:amenity": "charging_station",
    "fee": "yes",
    "motorcar": "yes",
    "name": "PNV-00002",
    "network": "Mobi.E",
    "opening_hours": "24/7",
    "operator": "EDP Comercial",
    "parking:fee": "no",
    "ref": "PNV-00002",
    "socket:type2": "2",
    "socket:type2:current": "32",
    "socket:type2:output": "22kW",
    "socket:type2:voltage": "400",
    "website": "https://www.mobie.pt/"
  }
},
{
  "type": "node",
  "id": 8420984158,
  "lat": 41.1387293,
  "lon": -8.6095181,
  "tags": {
    "access": "yes",
    "addr:country": "PT",
    "authentication:membership_card": "yes",
    "authentication:none": "no",
    "capacity": "2",
    "construction:amenity": "charging_station",
    "fee": "yes",
    "motorcar": "yes",
    "name": "VNG-00048/49/50 - Parque Estacionamento Ponte Luiz I",
    "network": "Mobi.E",
    "opening_hours": "24/7",
    "operator": "Maksu Services",
    "parking:fee": "yes",
    "ref": "VNG-00048;VNG-00049;VNG-00050",
    "socket:type2": "3",
    "socket:type2:current": "32",
    "socket:type2:output": "22kW",
    "socket:type2:voltage": "400",
    "website": "https://www.mobie.pt/"
  }
},
{
  "type": "node",
  "id": 8427186506,
  "lat": 38.5372565,
  "lon": -28.6263210,
  "tags": {
    "access": "yes",
    "addr:country": "PT",
    "authentication:membership_card": "yes",
    "authentication:none": "no",
    "capacity": "2",
    "construction:amenity": "charging_station",
    "fee": "yes",
    "motorcar": "yes",
    "name": "HRT-00003",
    "network": "Mobi.E",
    "opening_hours": "24/7",
    "operator": "SEGMA",
    "parking:fee": "no",
    "ref": "HRT-00003",
    "socket:type2": "2",
    "socket:type2:current": "32",
    "socket:type2:output": "22kW",
    "socket:type2:voltage": "400",
    "website": "https://www.mobie.pt/"
  }
},
{
  "type": "node",
  "id": 8440774859,
  "lat": 40.6851500,
  "lon": -8.5211800,
  "tags": {
    "access": "yes",
    "addr:city": "Albergaria-a-Velha",
    "addr:country": "PT",
    "addr:street": "EN 16",
    "authentication:membership_card": "yes",
    "authentication:none": "no",
    "capacity": "2",
    "construction:amenity": "charging_station",
    "fee": "yes",
    "motorcar": "yes",
    "name": "ALB-00004",
    "network": "Mobi.E",
    "opening_hours": "24/7",
    "operator": "Powerdot",
    "parking:fee": "no",
    "ref": "ALB-00004",
    "socket:chademo": "1",
    "socket:chademo:current": "120",
    "socket:chademo:output": "50kW",
    "socket:chademo:voltage": "500",
    "socket:type2_cable": "1",
    "socket:type2_cable:current": "63",
    "socket:type2_cable:output": "43kW",
    "socket:type2_cable:voltage": "400",
    "socket:type2_combo": "1",
    "socket:type2_combo:current": "125",
    "socket:type2_combo:output": "50kW",
    "socket:type2_combo:voltage": "500",
    "website": "https://www.mobie.pt/"
  }
},
{
  "type": "node",
  "id": 8441024621,
  "lat": 41.4102400,
  "lon": -8.5189400,
  "tags": {
    "access": "yes",
    "addr:city": "Vila Nova de Famalicão",
    "addr:country": "PT",
    "addr:street": "Rua São João de Deus",
    "authentication:membership_card": "yes",
    "authentication:none": "no",
    "capacity": "2",
    "construction:amenity": "charging_station",
    "fee": "yes",
    "motorcar": "yes",
    "name": "VNF-00017",
    "network": "Mobi.E",
    "opening_hours": "24/7",
    "operator": "Powerdot",
    "parking:fee": "no",
    "ref": "VNF-00017",
    "socket:chademo": "1",
    "socket:chademo:current": "120",
    "socket:chademo:output": "50kW",
    "socket:chademo:voltage": "500",
    "socket:type2_cable": "1",
    "socket:type2_cable:current": "63",
    "socket:type2_cable:output": "43kW",
    "socket:type2_cable:voltage": "400",
    "socket:type2_combo": "1",
    "socket:type2_combo:current": "125",
    "socket:type2_combo:output": "50kW",
    "socket:type2_combo:voltage": "500",
    "website": "https://www.mobie.pt/"
  }
},
{
  "type": "node",
  "id": 8450481852,
  "lat": 37.6531670,
  "lon": -8.2250830,
  "tags": {
    "access": "yes",
    "addr:country": "PT",
    "authentication:membership_card": "yes",
    "authentication:none": "no",
    "capacity": "2",
    "construction:amenity": "charging_station",
    "fee": "yes",
    "motorcar": "yes",
    "name": "ORQ-00001",
    "network": "Mobi.E",
    "opening_hours": "24/7",
    "operator": "KLC",
    "parking:fee": "no",
    "ref": "ORQ-00001",
    "socket:type2": "2",
    "socket:type2:current": "32",
    "socket:type2:output": "22kW",
    "socket:type2:voltage": "400",
    "website": "https://www.mobie.pt/"
  }
},
{
  "type": "node",
  "id": 8461197310,
  "lat": 41.5642378,
  "lon": -8.4211640,
  "tags": {
    "access": "yes",
    "addr:country": "PT",
    "authentication:membership_card": "yes",
    "authentication:none": "no",
    "capacity": "2",
    "construction:amenity": "charging_station",
    "fee": "yes",
    "motorcar": "yes",
    "name": "BRG-00034",
    "network": "Mobi.E",
    "opening_hours": "24/7",
    "operator": "EVCE",
    "parking:fee": "no",
    "ref": "BRG-00034",
    "socket:type2": "2",
    "socket:type2:current": "16",
    "socket:type2:output": "11kW",
    "socket:type2:voltage": "400",
    "website": "https://www.mobie.pt/"
  }
},
{
  "type": "node",
  "id": 8477321982,
  "lat": 41.4457092,
  "lon": -8.1655350,
  "tags": {
    "access": "yes",
    "addr:city": "Fafe",
    "addr:country": "PT",
    "authentication:membership_card": "yes",
    "authentication:none": "no",
    "capacity": "2",
    "construction:amenity": "charging_station",
    "fee": "yes",
    "motorcar": "yes",
    "name": "FAF-00005 - Pingo Doce",
    "network": "Mobi.E",
    "opening_hours": "24/7",
    "operator": "KLC",
    "parking:fee": "no",
    "ref": "FAF-00005",
    "socket:chademo": "1",
    "socket:chademo:current": "120",
    "socket:chademo:output": "50kW",
    "socket:chademo:voltage": "500",
    "socket:type2_cable": "1",
    "socket:type2_cable:current": "63",
    "socket:type2_cable:output": "43kW",
    "socket:type2_cable:voltage": "400",
    "socket:type2_combo": "1",
    "socket:type2_combo:current": "125",
    "socket:type2_combo:output": "50kW",
    "socket:type2_combo:voltage": "500",
    "website": "https://www.mobie.pt/"
  }
},
{
  "type": "node",
  "id": 8486684186,
  "lat": 41.6256620,
  "lon": -8.3604250,
  "tags": {
    "access": "yes",
    "addr:country": "PT",
    "authentication:membership_card": "yes",
    "authentication:none": "no",
    "capacity": "2",
    "construction:amenity": "charging_station",
    "fee": "yes",
    "motorcar": "yes",
    "name": "AMR-00004 - Intermarché",
    "network": "Mobi.E",
    "opening_hours": "24/7",
    "operator": "Powerdot",
    "parking:fee": "no",
    "ref": "AMR-00004",
    "socket:type2": "2",
    "socket:type2:current": "32",
    "socket:type2:output": "22kW",
    "socket:type2:voltage": "400",
    "website": "https://www.mobie.pt/"
  }
},
{
  "type": "node",
  "id": 8486695718,
  "lat": 41.2502754,
  "lon": -8.6657091,
  "tags": {
    "access": "yes",
    "addr:city": "Maia",
    "addr:country": "PT",
    "authentication:membership_card": "yes",
    "authentication:none": "no",
    "capacity": "2",
    "construction:amenity": "charging_station",
    "fee": "yes",
    "motorcar": "yes",
    "name": "MAI-00017 - Intermarché",
    "network": "Mobi.E",
    "opening_hours": "24/7",
    "operator": "Powerdot",
    "parking:fee": "no",
    "ref": "MAI-00017",
    "socket:chademo": "1",
    "socket:chademo:current": "120",
    "socket:chademo:output": "50kW",
    "socket:chademo:voltage": "500",
    "socket:type2_cable": "1",
    "socket:type2_cable:current": "63",
    "socket:type2_cable:output": "43kW",
    "socket:type2_cable:voltage": "400",
    "socket:type2_combo": "1",
    "socket:type2_combo:current": "125",
    "socket:type2_combo:output": "50kW",
    "socket:type2_combo:voltage": "500",
    "website": "https://www.mobie.pt/"
  }
},
{
  "type": "node",
  "id": 8486714660,
  "lat": 38.9323790,
  "lon": -9.3300060,
  "tags": {
    "access": "yes",
    "addr:city": "Mafra",
    "addr:country": "PT",
    "addr:street": "Rua Almirante Gago Coutinho",
    "authentication:membership_card": "yes",
    "authentication:none": "no",
    "capacity": "2",
    "construction:amenity": "charging_station",
    "fee": "yes",
    "motorcar": "yes",
    "name": "MFR-00015 - Intermarché",
    "network": "Mobi.E",
    "opening_hours": "24/7",
    "operator": "Powerdot",
    "parking:fee": "no",
    "ref": "MFR-00015",
    "socket:chademo": "1",
    "socket:chademo:current": "120",
    "socket:chademo:output": "50kW",
    "socket:chademo:voltage": "500",
    "socket:type2_cable": "1",
    "socket:type2_cable:current": "63",
    "socket:type2_cable:output": "43kW",
    "socket:type2_cable:voltage": "400",
    "socket:type2_combo": "1",
    "socket:type2_combo:current": "125",
    "socket:type2_combo:output": "50kW",
    "socket:type2_combo:voltage": "500",
    "website": "https://www.mobie.pt/"
  }
},
{
  "type": "node",
  "id": 8486759711,
  "lat": 38.7147650,
  "lon": -9.2256920,
  "tags": {
    "access": "yes",
    "addr:country": "PT",
    "authentication:membership_card": "yes",
    "authentication:none": "no",
    "capacity": "2",
    "construction:amenity": "charging_station",
    "fee": "yes",
    "motorcar": "yes",
    "name": "OER-00063 - Miraflores Premium",
    "network": "Mobi.E",
    "opening_hours": "24/7",
    "operator": "Powerdot",
    "parking:fee": "yes",
    "ref": "OER-00063",
    "socket:type2": "2",
    "socket:type2:current": "32",
    "socket:type2:output": "7.4kW",
    "socket:type2:voltage": "230",
    "website": "https://www.mobie.pt/"
  }
},
{
  "type": "node",
  "id": 8497383440,
  "lat": 41.2668470,
  "lon": -8.2904670,
  "tags": {
    "access": "yes",
    "addr:city": "Lousada",
    "addr:country": "PT",
    "addr:street": "Rua do Comércio",
    "authentication:membership_card": "yes",
    "authentication:none": "no",
    "capacity": "2",
    "construction:amenity": "charging_station",
    "fee": "yes",
    "motorcar": "yes",
    "name": "LOU-XXXXX",
    "network": "Mobi.E",
    "opening_hours": "24/7",
    "operator": "Galp Power",
    "parking:fee": "no",
    "ref": "LOU-XXXXX",
    "socket:chademo": "1",
    "socket:chademo:current": "120",
    "socket:chademo:output": "50kW",
    "socket:chademo:voltage": "500",
    "socket:type2_cable": "1",
    "socket:type2_cable:current": "63",
    "socket:type2_cable:output": "43kW",
    "socket:type2_cable:voltage": "400",
    "socket:type2_combo": "1",
    "socket:type2_combo:current": "125",
    "socket:type2_combo:output": "50kW",
    "socket:type2_combo:voltage": "500",
    "website": "https://www.mobie.pt/"
  }
},
{
  "type": "node",
  "id": 8512876812,
  "lat": 38.7492148,
  "lon": -9.1496341,
  "tags": {
    "access": "yes",
    "addr:city": "Lisboa",
    "addr:country": "PT",
    "authentication:membership_card": "yes",
    "authentication:none": "no",
    "capacity": "6",
    "construction:amenity": "charging_station",
    "fee": "yes",
    "motorcar": "yes",
    "name": "LSB-XXXXX",
    "network": "Mobi.E",
    "opening_hours": "24/7",
    "operator": "EMEL",
    "parking:fee": "no",
    "ref": "LSB-XXXXX",
    "socket:chademo": "6",
    "socket:chademo:current": "120",
    "socket:chademo:output": "50kW",
    "socket:chademo:voltage": "500",
    "socket:type2_combo": "6",
    "socket:type2_combo:current": "125",
    "socket:type2_combo:output": "50kW",
    "socket:type2_combo:voltage": "500",
    "website": "https://www.mobie.pt/"
  }
},
{
  "type": "node",
  "id": 8513200747,
  "lat": 39.8064962,
  "lon": -7.5155403,
  "tags": {
    "access": "customers",
    "addr:country": "PT",
    "authentication:none": "no",
    "capacity": "8",
    "construction:amenity": "charging_station",
    "fee": "yes",
    "motorcar": "yes",
    "name": "Castelo Branco Supercharger",
    "network": "Tesla",
    "note": "V3",
    "opening_hours": "24/7",
    "operator": "Tesla",
    "parking:fee": "no",
    "socket:tesla_supercharger_ccs": "8",
    "socket:tesla_supercharger_ccs:output": "250kW"
  }
},
{
  "type": "node",
  "id": 8522435566,
  "lat": 38.7118521,
  "lon": -9.2977059,
  "tags": {
    "access": "yes",
    "addr:country": "PT",
    "authentication:membership_card": "yes",
    "authentication:none": "no",
    "capacity": "1",
    "construction:amenity": "charging_station",
    "fee": "yes",
    "motorcar": "yes",
    "name": "OER-XXXXX",
    "network": "Mobi.E",
    "opening_hours": "24/7",
    "operator": "unknown",
    "parking:fee": "no",
    "ref": "OER-XXXXX",
    "socket:type2": "1",
    "socket:type2:current": "32",
    "socket:type2:output": "22kW",
    "socket:type2:voltage": "400",
    "website": "https://www.mobie.pt/"
  }
},
{
  "type": "node",
  "id": 8536726565,
  "lat": 38.5300062,
  "lon": -8.8342930,
  "tags": {
    "access": "private",
    "addr:city": "Setúbal",
    "addr:country": "PT",
    "authentication:membership_card": "yes",
    "authentication:none": "no",
    "capacity": "2",
    "construction:amenity": "charging_station",
    "fee": "yes",
    "name": "STB-XXXXX",
    "network": "Mobi.E",
    "opening_hours": "24/7",
    "operator": "Helexia II",
    "parking:fee": "no",
    "ref": "STB-XXXXX",
    "socket:chademo": "1",
    "socket:chademo:current": "120",
    "socket:chademo:output": "50kW",
    "socket:chademo:voltage": "500",
    "socket:type2_cable": "1",
    "socket:type2_cable:current": "63",
    "socket:type2_cable:output": "43kW",
    "socket:type2_cable:voltage": "400",
    "socket:type2_combo": "1",
    "socket:type2_combo:current": "125",
    "socket:type2_combo:output": "50kW",
    "socket:type2_combo:voltage": "500",
    "website": "https://www.mobie.pt/"
  }
},
{
  "type": "node",
  "id": 8647618654,
  "lat": 37.5985000,
  "lon": -8.6459170,
  "tags": {
    "access": "yes",
    "addr:country": "PT",
    "authentication:membership_card": "yes",
    "authentication:none": "no",
    "capacity": "2",
    "construction:amenity": "charging_station",
    "fee": "yes",
    "motorcar": "yes",
    "name": "ODM-00001",
    "network": "Mobi.E",
    "opening_hours": "24/7",
    "operator": "Mobi.E",
    "parking:fee": "no",
    "ref": "ODM-00001",
    "socket:type2": "2",
    "socket:type2:current": "32",
    "socket:type2:output": "22kW",
    "socket:type2:voltage": "400",
    "website": "https://www.mobie.pt/"
  }
},
{
  "type": "node",
  "id": 8681176706,
  "lat": 41.1839200,
  "lon": -8.4812530,
  "tags": {
    "access": "yes",
    "addr:city": "Valongo",
    "addr:country": "PT",
    "authentication:membership_card": "yes",
    "authentication:none": "no",
    "capacity": "2",
    "construction:amenity": "charging_station",
    "fee": "yes",
    "motorcar": "yes",
    "name": "VLG-00009 - Intermarché",
    "network": "Mobi.E",
    "opening_hours": "24/7",
    "operator": "Powerdot",
    "parking:fee": "no",
    "ref": "VLG-00009",
    "socket:chademo": "1",
    "socket:chademo:current": "120",
    "socket:chademo:output": "50kW",
    "socket:chademo:voltage": "500",
    "socket:type2_cable": "1",
    "socket:type2_cable:current": "63",
    "socket:type2_cable:output": "43kW",
    "socket:type2_cable:voltage": "400",
    "socket:type2_combo": "1",
    "socket:type2_combo:current": "125",
    "socket:type2_combo:output": "50kW",
    "socket:type2_combo:voltage": "500",
    "website": "https://www.mobie.pt/"
  }
},
{
  "type": "node",
  "id": 8681247144,
  "lat": 41.1608847,
  "lon": -8.6055290,
  "tags": {
    "access": "yes",
    "addr:country": "PT",
    "authentication:membership_card": "yes",
    "authentication:none": "no",
    "capacity": "4",
    "construction:amenity": "charging_station",
    "fee": "yes",
    "motorcar": "yes",
    "name": "PRT-00087/88 - Parque do Marquês",
    "network": "Mobi.E",
    "opening_hours": "24/7",
    "operator": "Powerdot",
    "parking:fee": "yes",
    "ref": "PRT-00087;PRT-00088",
    "socket:type2": "4",
    "socket:type2:current": "32",
    "socket:type2:output": "22kW",
    "socket:type2:voltage": "400",
    "website": "https://www.mobie.pt/"
  }
},
{
  "type": "node",
  "id": 8681256182,
  "lat": 38.7625570,
  "lon": -9.1289640,
  "tags": {
    "access": "yes",
    "addr:city": "Lisboa",
    "addr:country": "PT",
    "addr:street": "Rotunda do Relógio",
    "authentication:membership_card": "yes",
    "authentication:none": "no",
    "capacity": "2",
    "construction:amenity": "charging_station",
    "fee": "yes",
    "motorcar": "yes",
    "name": "LSB-00335 - Repsol Rotunda do Relógio",
    "network": "Mobi.E",
    "opening_hours": "24/7",
    "operator": "Repsol",
    "parking:fee": "no",
    "ref": "LSB-00335",
    "socket:chademo": "1",
    "socket:chademo:current": "120",
    "socket:chademo:output": "50kW",
    "socket:chademo:voltage": "500",
    "socket:type2_cable": "1",
    "socket:type2_cable:current": "63",
    "socket:type2_cable:output": "43kW",
    "socket:type2_cable:voltage": "400",
    "socket:type2_combo": "1",
    "socket:type2_combo:current": "125",
    "socket:type2_combo:output": "50kW",
    "socket:type2_combo:voltage": "500",
    "website": "https://www.mobie.pt/"
  }
},
{
  "type": "node",
  "id": 8681262028,
  "lat": 41.2137150,
  "lon": -8.5505070,
  "tags": {
    "access": "yes",
    "addr:country": "PT",
    "authentication:membership_card": "yes",
    "authentication:none": "no",
    "capacity": "2",
    "construction:amenity": "charging_station",
    "fee": "yes",
    "motorcar": "yes",
    "name": "VLG-00008 - Intermarché",
    "network": "Mobi.E",
    "opening_hours": "24/7",
    "operator": "High Green Power",
    "parking:fee": "no",
    "ref": "VLG-00008",
    "socket:type2": "2",
    "socket:type2:current": "32",
    "socket:type2:output": "22kW",
    "socket:type2:voltage": "400",
    "website": "https://www.mobie.pt/"
  }
},
{
  "type": "node",
  "id": 8688212145,
  "lat": 38.1825550,
  "lon": -8.5673449,
  "tags": {
    "access": "yes",
    "addr:country": "PT",
    "authentication:membership_card": "yes",
    "authentication:none": "no",
    "capacity": "2",
    "construction:amenity": "charging_station",
    "fee": "yes",
    "motorcar": "yes",
    "name": "GDL-00003",
    "network": "Mobi.E",
    "opening_hours": "24/7",
    "operator": "Powerdot",
    "parking:fee": "no",
    "ref": "GDL-90003",
    "socket:type2": "2",
    "socket:type2:current": "32",
    "socket:type2:output": "22kW",
    "socket:type2:voltage": "400",
    "website": "https://www.mobie.pt/"
  }
},
{
  "type": "node",
  "id": 8710940318,
  "lat": 40.6372625,
  "lon": -7.9266614,
  "tags": {
    "access": "yes",
    "addr:country": "PT",
    "authentication:membership_card": "yes",
    "authentication:none": "no",
    "capacity": "2",
    "construction:amenity": "charging_station",
    "fee": "yes",
    "motorcar": "yes",
    "name": "VIS-00010 - EDP",
    "network": "Mobi.E",
    "opening_hours": "24/7",
    "operator": "EDP Comercial",
    "parking:fee": "no",
    "ref": "VIS-00010",
    "socket:type2": "2",
    "socket:type2:current": "32",
    "socket:type2:output": "22kW",
    "socket:type2:voltage": "400",
    "website": "https://www.mobie.pt/"
  }
},
{
  "type": "node",
  "id": 8719792738,
  "lat": 41.1926490,
  "lon": -8.7055770,
  "tags": {
    "access": "yes",
    "addr:city": "Leça da Palmeira",
    "addr:country": "PT",
    "addr:street": "Avenida da Liberdade",
    "authentication:membership_card": "yes",
    "authentication:none": "no",
    "capacity": "2",
    "construction:amenity": "charging_station",
    "fee": "yes",
    "motorcar": "yes",
    "name": "MTS-XXXXX - McDonald's",
    "network": "Mobi.E",
    "opening_hours": "24/7",
    "operator": "EDP Comercial",
    "parking:fee": "no",
    "ref": "MTS-XXXXX",
    "socket:chademo": "1",
    "socket:chademo:current": "120",
    "socket:chademo:output": "50kW",
    "socket:chademo:voltage": "500",
    "socket:type2_cable": "1",
    "socket:type2_cable:current": "63",
    "socket:type2_cable:output": "43kW",
    "socket:type2_cable:voltage": "400",
    "socket:type2_combo": "1",
    "socket:type2_combo:current": "125",
    "socket:type2_combo:output": "50kW",
    "socket:type2_combo:voltage": "500",
    "website": "https://www.mobie.pt/"
  }
},
{
  "type": "node",
  "id": 8730840559,
  "lat": 38.7563930,
  "lon": -9.1552480,
  "tags": {
    "access": "yes",
    "addr:city": "Lisboa",
    "addr:country": "PT",
    "addr:street": "Campo Grande",
    "authentication:membership_card": "yes",
    "authentication:none": "no",
    "capacity": "1",
    "construction:amenity": "charging_station",
    "fee": "yes",
    "motorcar": "yes",
    "name": "LSB-XXXXX - Faculdade de Ciências",
    "network": "Mobi.E",
    "opening_hours": "24/7",
    "operator": "unknown",
    "parking:fee": "no",
    "ref": "LSB-XXXXX",
    "socket:chademo": "1",
    "socket:chademo:current": "200",
    "socket:chademo:output": "100kW",
    "socket:chademo:voltage": "500",
    "socket:type2_combo": "1",
    "socket:type2_combo:current": "200",
    "socket:type2_combo:output": "180kW",
    "socket:type2_combo:voltage": "920",
    "website": "https://www.mobie.pt/"
  }
},
{
  "type": "node",
  "id": 8733708461,
  "lat": 38.5659859,
  "lon": -9.0375829,
  "tags": {
    "access": "yes",
    "addr:city": "Quinta do Conde",
    "addr:country": "PT",
    "addr:street": "Avenida Norton de Matos",
    "authentication:membership_card": "yes",
    "authentication:none": "no",
    "capacity": "2",
    "construction:amenity": "charging_station",
    "fee": "yes",
    "motorcar": "yes",
    "name": "SSB-00005 - Lidl",
    "network": "Mobi.E",
    "opening_hours": "24/7",
    "operator": "KLC",
    "parking:fee": "no",
    "ref": "SSB-00005",
    "socket:chademo": "1",
    "socket:chademo:current": "120",
    "socket:chademo:output": "50kW",
    "socket:chademo:voltage": "500",
    "socket:type2_cable": "1",
    "socket:type2_cable:current": "63",
    "socket:type2_cable:output": "43kW",
    "socket:type2_cable:voltage": "400",
    "socket:type2_combo": "1",
    "socket:type2_combo:current": "125",
    "socket:type2_combo:output": "50kW",
    "socket:type2_combo:voltage": "500",
    "website": "https://www.mobie.pt/"
  }
},
{
  "type": "node",
  "id": 8733708462,
  "lat": 38.5388380,
  "lon": -8.8906850,
  "tags": {
    "access": "yes",
    "addr:city": "Setúbal",
    "addr:country": "PT",
    "addr:street": "Avenida de Moçambique",
    "authentication:membership_card": "yes",
    "authentication:none": "no",
    "capacity": "2",
    "construction:amenity": "charging_station",
    "fee": "yes",
    "motorcar": "yes",
    "name": "STB-00018 - Lidl",
    "network": "Mobi.E",
    "opening_hours": "24/7",
    "operator": "KLC",
    "parking:fee": "no",
    "ref": "STB-00018",
    "socket:chademo": "1",
    "socket:chademo:current": "120",
    "socket:chademo:output": "50kW",
    "socket:chademo:voltage": "500",
    "socket:type2_cable": "1",
    "socket:type2_cable:current": "63",
    "socket:type2_cable:output": "43kW",
    "socket:type2_cable:voltage": "400",
    "socket:type2_combo": "1",
    "socket:type2_combo:current": "125",
    "socket:type2_combo:output": "50kW",
    "socket:type2_combo:voltage": "500",
    "website": "https://www.mobie.pt/"
  }
},
{
  "type": "node",
  "id": 8733712596,
  "lat": 38.5976844,
  "lon": -9.1409647,
  "tags": {
    "access": "yes",
    "addr:city": "Belverde",
    "addr:country": "PT",
    "addr:street": "Avenida do Mar",
    "authentication:membership_card": "yes",
    "authentication:none": "no",
    "capacity": "2",
    "construction:amenity": "charging_station",
    "fee": "yes",
    "motorcar": "yes",
    "name": "SXL-00015 - Lidl",
    "network": "Mobi.E",
    "opening_hours": "24/7",
    "operator": "KLC",
    "parking:fee": "no",
    "ref": "SXL-00015",
    "socket:chademo": "1",
    "socket:chademo:current": "120",
    "socket:chademo:output": "50kW",
    "socket:chademo:voltage": "500",
    "socket:type2_cable": "1",
    "socket:type2_cable:current": "63",
    "socket:type2_cable:output": "43kW",
    "socket:type2_cable:voltage": "400",
    "socket:type2_combo": "1",
    "socket:type2_combo:current": "125",
    "socket:type2_combo:output": "50kW",
    "socket:type2_combo:voltage": "500",
    "website": "https://www.mobie.pt/"
  }
},
{
  "type": "node",
  "id": 8733712597,
  "lat": 38.0058010,
  "lon": -7.8710280,
  "tags": {
    "access": "yes",
    "addr:city": "Beja",
    "addr:country": "PT",
    "authentication:membership_card": "yes",
    "authentication:none": "no",
    "capacity": "2",
    "construction:amenity": "charging_station",
    "fee": "yes",
    "motorcar": "yes",
    "name": "BJA-00012 - Lidl",
    "network": "Mobi.E",
    "opening_hours": "24/7",
    "operator": "KLC",
    "parking:fee": "no",
    "ref": "BJA-00012",
    "socket:chademo": "1",
    "socket:chademo:current": "120",
    "socket:chademo:output": "50kW",
    "socket:chademo:voltage": "500",
    "socket:type2_cable": "1",
    "socket:type2_cable:current": "63",
    "socket:type2_cable:output": "43kW",
    "socket:type2_cable:voltage": "400",
    "socket:type2_combo": "1",
    "socket:type2_combo:current": "125",
    "socket:type2_combo:output": "50kW",
    "socket:type2_combo:voltage": "500",
    "website": "https://www.mobie.pt/"
  }
},
{
  "type": "node",
  "id": 8733712653,
  "lat": 38.8153334,
  "lon": -9.1483209,
  "tags": {
    "access": "yes",
    "addr:city": "Loures",
    "addr:country": "PT",
    "authentication:membership_card": "yes",
    "authentication:none": "no",
    "capacity": "2",
    "construction:amenity": "charging_station",
    "fee": "yes",
    "motorcar": "yes",
    "name": "LRS-00054 - Lidl",
    "network": "Mobi.E",
    "opening_hours": "24/7",
    "operator": "KLC",
    "parking:fee": "no",
    "ref": "LRS-00054",
    "socket:chademo": "1",
    "socket:chademo:current": "120",
    "socket:chademo:output": "50kW",
    "socket:chademo:voltage": "500",
    "socket:type2_cable": "1",
    "socket:type2_cable:current": "63",
    "socket:type2_cable:output": "43kW",
    "socket:type2_cable:voltage": "400",
    "socket:type2_combo": "1",
    "socket:type2_combo:current": "125",
    "socket:type2_combo:output": "50kW",
    "socket:type2_combo:voltage": "500",
    "website": "https://www.mobie.pt/"
  }
},
{
  "type": "node",
  "id": 8733712654,
  "lat": 37.0271606,
  "lon": -7.9306633,
  "tags": {
    "access": "yes",
    "addr:city": "Faro",
    "addr:country": "PT",
    "authentication:membership_card": "yes",
    "authentication:none": "no",
    "capacity": "2",
    "construction:amenity": "charging_station",
    "fee": "yes",
    "motorcar": "yes",
    "name": "FAR-00010 - Lidl",
    "network": "Mobi.E",
    "opening_hours": "24/7",
    "operator": "KLC",
    "parking:fee": "no",
    "ref": "FAR-00010",
    "socket:chademo": "1",
    "socket:chademo:current": "120",
    "socket:chademo:output": "50kW",
    "socket:chademo:voltage": "500",
    "socket:type2_cable": "1",
    "socket:type2_cable:current": "63",
    "socket:type2_cable:output": "43kW",
    "socket:type2_cable:voltage": "400",
    "socket:type2_combo": "1",
    "socket:type2_combo:current": "125",
    "socket:type2_combo:output": "50kW",
    "socket:type2_combo:voltage": "500",
    "website": "https://www.mobie.pt/"
  }
},
{
  "type": "node",
  "id": 8733779262,
  "lat": 38.7148220,
  "lon": -9.3449400,
  "tags": {
    "access": "yes",
    "addr:city": "Tires",
    "addr:country": "PT",
    "authentication:membership_card": "yes",
    "authentication:none": "no",
    "capacity": "2",
    "construction:amenity": "charging_station",
    "fee": "yes",
    "motorcar": "yes",
    "name": "CSC-00072 - Lidl",
    "network": "Mobi.E",
    "opening_hours": "24/7",
    "operator": "KLC",
    "parking:fee": "no",
    "ref": "CSC-00072",
    "socket:chademo": "1",
    "socket:chademo:current": "120",
    "socket:chademo:output": "50kW",
    "socket:chademo:voltage": "500",
    "socket:type2_cable": "1",
    "socket:type2_cable:current": "63",
    "socket:type2_cable:output": "43kW",
    "socket:type2_cable:voltage": "400",
    "socket:type2_combo": "1",
    "socket:type2_combo:current": "125",
    "socket:type2_combo:output": "50kW",
    "socket:type2_combo:voltage": "500",
    "website": "https://www.mobie.pt/"
  }
},
{
  "type": "node",
  "id": 8733779263,
  "lat": 38.7592405,
  "lon": -9.3778965,
  "tags": {
    "access": "yes",
    "addr:city": "Beloura",
    "addr:country": "PT",
    "addr:street": "Avenida Pedro Álvares Cabral",
    "authentication:membership_card": "yes",
    "authentication:none": "no",
    "capacity": "2",
    "construction:amenity": "charging_station",
    "fee": "yes",
    "motorcar": "yes",
    "name": "SNT-00048 - Lidl",
    "network": "Mobi.E",
    "opening_hours": "24/7",
    "operator": "KLC",
    "parking:fee": "no",
    "ref": "SNT-00048",
    "socket:chademo": "1",
    "socket:chademo:current": "120",
    "socket:chademo:output": "50kW",
    "socket:chademo:voltage": "500",
    "socket:type2_cable": "1",
    "socket:type2_cable:current": "63",
    "socket:type2_cable:output": "43kW",
    "socket:type2_cable:voltage": "400",
    "socket:type2_combo": "1",
    "socket:type2_combo:current": "125",
    "socket:type2_combo:output": "50kW",
    "socket:type2_combo:voltage": "500",
    "website": "https://www.mobie.pt/"
  }
},
{
  "type": "node",
  "id": 8733832871,
  "lat": 39.6100745,
  "lon": -8.4019186,
  "tags": {
    "access": "yes",
    "addr:city": "Tomar",
    "addr:country": "PT",
    "authentication:membership_card": "yes",
    "authentication:none": "no",
    "capacity": "2",
    "construction:amenity": "charging_station",
    "fee": "yes",
    "motorcar": "yes",
    "name": "TMR-00005 - Lidl",
    "network": "Mobi.E",
    "opening_hours": "24/7",
    "operator": "KLC",
    "parking:fee": "no",
    "ref": "TMR-00005",
    "socket:chademo": "1",
    "socket:chademo:current": "120",
    "socket:chademo:output": "50kW",
    "socket:chademo:voltage": "500",
    "socket:type2_cable": "1",
    "socket:type2_cable:current": "63",
    "socket:type2_cable:output": "43kW",
    "socket:type2_cable:voltage": "400",
    "socket:type2_combo": "1",
    "socket:type2_combo:current": "125",
    "socket:type2_combo:output": "50kW",
    "socket:type2_combo:voltage": "500",
    "website": "https://www.mobie.pt/"
  }
},
{
  "type": "node",
  "id": 8733832872,
  "lat": 39.0821933,
  "lon": -9.2618384,
  "tags": {
    "access": "yes",
    "addr:city": "Torres Vedras",
    "addr:country": "PT",
    "authentication:membership_card": "yes",
    "authentication:none": "no",
    "capacity": "2",
    "construction:amenity": "charging_station",
    "fee": "yes",
    "motorcar": "yes",
    "name": "TVD-00020 - Lidl",
    "network": "Mobi.E",
    "opening_hours": "24/7",
    "operator": "KLC",
    "parking:fee": "no",
    "ref": "TVD-00020",
    "socket:chademo": "1",
    "socket:chademo:current": "120",
    "socket:chademo:output": "50kW",
    "socket:chademo:voltage": "500",
    "socket:type2_cable": "1",
    "socket:type2_cable:current": "63",
    "socket:type2_cable:output": "43kW",
    "socket:type2_cable:voltage": "400",
    "socket:type2_combo": "1",
    "socket:type2_combo:current": "125",
    "socket:type2_combo:output": "50kW",
    "socket:type2_combo:voltage": "500",
    "website": "https://www.mobie.pt/"
  }
},
{
  "type": "node",
  "id": 8733832873,
  "lat": 38.9648086,
  "lon": -9.4079278,
  "tags": {
    "access": "yes",
    "addr:city": "Ericeira",
    "addr:country": "PT",
    "authentication:membership_card": "yes",
    "authentication:none": "no",
    "capacity": "2",
    "construction:amenity": "charging_station",
    "fee": "yes",
    "motorcar": "yes",
    "name": "MFR-00016 - Lidl",
    "network": "Mobi.E",
    "opening_hours": "24/7",
    "operator": "KLC",
    "parking:fee": "no",
    "ref": "MFR-00016",
    "socket:chademo": "1",
    "socket:chademo:current": "120",
    "socket:chademo:output": "50kW",
    "socket:chademo:voltage": "500",
    "socket:type2_cable": "1",
    "socket:type2_cable:current": "63",
    "socket:type2_cable:output": "43kW",
    "socket:type2_cable:voltage": "400",
    "socket:type2_combo": "1",
    "socket:type2_combo:current": "125",
    "socket:type2_combo:output": "50kW",
    "socket:type2_combo:voltage": "500",
    "website": "https://www.mobie.pt/"
  }
},
{
  "type": "node",
  "id": 8733832874,
  "lat": 40.5468340,
  "lon": -8.6782420,
  "tags": {
    "access": "yes",
    "addr:city": "Vagos",
    "addr:country": "PT",
    "addr:street": "Rua Grémio da Lavoura",
    "authentication:membership_card": "yes",
    "authentication:none": "no",
    "capacity": "2",
    "construction:amenity": "charging_station",
    "fee": "yes",
    "motorcar": "yes",
    "name": "VGS-00004 - Lidl",
    "network": "Mobi.E",
    "opening_hours": "24/7",
    "operator": "KLC",
    "parking:fee": "no",
    "ref": "VGS-00004",
    "socket:chademo": "1",
    "socket:chademo:current": "120",
    "socket:chademo:output": "50kW",
    "socket:chademo:voltage": "500",
    "socket:type2_cable": "1",
    "socket:type2_cable:current": "63",
    "socket:type2_cable:output": "43kW",
    "socket:type2_cable:voltage": "400",
    "socket:type2_combo": "1",
    "socket:type2_combo:current": "125",
    "socket:type2_combo:output": "50kW",
    "socket:type2_combo:voltage": "500",
    "website": "https://www.mobie.pt/"
  }
},
{
  "type": "node",
  "id": 8757730287,
  "lat": 38.7359240,
  "lon": -9.3010200,
  "tags": {
    "access": "yes",
    "addr:city": "Oeiras",
    "addr:country": "PT",
    "addr:street": "Avenida Professor Doutor Cavaco Silva",
    "authentication:membership_card": "yes",
    "authentication:none": "no",
    "capacity": "1",
    "construction:amenity": "charging_station",
    "fee": "yes",
    "motorcar": "yes",
    "name": "OER-XXXXX",
    "network": "Mobi.E",
    "opening_hours": "24/7",
    "operator": "unknown",
    "parking:fee": "no",
    "ref": "OER-XXXXX",
    "socket:chademo": "1",
    "socket:chademo:current": "200",
    "socket:chademo:output": "100kW",
    "socket:chademo:voltage": "500",
    "socket:type2_combo": "1",
    "socket:type2_combo:current": "200",
    "socket:type2_combo:output": "180kW",
    "socket:type2_combo:voltage": "920",
    "website": "https://www.mobie.pt/"
  }
},
{
  "type": "node",
  "id": 8757754343,
  "lat": 41.2041937,
  "lon": -8.6965733,
  "tags": {
    "access": "yes",
    "addr:city": "Leça da Palmeira",
    "addr:country": "PT",
    "authentication:membership_card": "yes",
    "authentication:none": "no",
    "capacity": "2",
    "construction:amenity": "charging_station",
    "fee": "yes",
    "motorcar": "yes",
    "name": "MTS-00035 - Lidl",
    "network": "Mobi.E",
    "opening_hours": "24/7",
    "operator": "KLC",
    "parking:fee": "no",
    "ref": "MTS-00035",
    "socket:chademo": "1",
    "socket:chademo:current": "120",
    "socket:chademo:output": "50kW",
    "socket:chademo:voltage": "500",
    "socket:type2_cable": "1",
    "socket:type2_cable:current": "63",
    "socket:type2_cable:output": "43kW",
    "socket:type2_cable:voltage": "400",
    "socket:type2_combo": "1",
    "socket:type2_combo:current": "125",
    "socket:type2_combo:output": "50kW",
    "socket:type2_combo:voltage": "500",
    "website": "https://www.mobie.pt/"
  }
},
{
  "type": "node",
  "id": 8757790899,
  "lat": 41.5378890,
  "lon": -8.6227220,
  "tags": {
    "access": "yes",
    "addr:country": "PT",
    "authentication:app": "yes",
    "authentication:none": "no",
    "capacity": "2",
    "construction:amenity": "charging_station",
    "fee": "yes",
    "motorcar": "yes",
    "name": "Continente Bom Dia Barcelos",
    "network": "Continente Plug&Charge",
    "opening_hours": "Mo-Su 09:00-21:00",
    "operator": "Sonae",
    "parking:fee": "no",
    "socket:type2": "2",
    "socket:type2:current": "32",
    "socket:type2:output": "22kW",
    "socket:type2:voltage": "400",
    "website": "https://plugcharge.continente.pt/"
  }
},
{
  "type": "node",
  "id": 8779356628,
  "lat": 38.7686559,
  "lon": -9.1294385,
  "tags": {
    "access": "yes",
    "addr:country": "PT",
    "authentication:membership_card": "yes",
    "authentication:none": "no",
    "capacity": "2",
    "construction:amenity": "charging_station",
    "fee": "yes",
    "motorcar": "yes",
    "name": "LSB-00343 - Aeroporto Parque P1",
    "network": "Mobi.E",
    "opening_hours": "24/7",
    "operator": "Galp Power",
    "parking:fee": "no",
    "ref": "LSB-00343",
    "socket:type2": "2",
    "socket:type2:current": "32",
    "socket:type2:output": "22kW",
    "socket:type2:voltage": "400",
    "website": "https://www.mobie.pt/"
  }
},
{
  "type": "node",
  "id": 8779356629,
  "lat": 37.0285442,
  "lon": -8.0208200,
  "tags": {
    "access": "yes",
    "addr:country": "PT",
    "authentication:membership_card": "yes",
    "authentication:none": "no",
    "capacity": "2",
    "construction:amenity": "charging_station",
    "fee": "yes",
    "motorcar": "yes",
    "name": "LLE-00055",
    "network": "Mobi.E",
    "opening_hours": "24/7",
    "operator": "Loulé Concelho Global",
    "parking:fee": "yes",
    "ref": "LLE-00055",
    "socket:type2": "2",
    "socket:type2:current": "32",
    "socket:type2:output": "22kW",
    "socket:type2:voltage": "400",
    "website": "https://www.mobie.pt/"
  }
},
{
  "type": "node",
  "id": 8779356631,
  "lat": 40.1621430,
  "lon": -8.8481230,
  "tags": {
    "access": "yes",
    "addr:city": "Figueira da Foz",
    "addr:country": "PT",
    "addr:street": "Avenida Dom João Alves",
    "authentication:membership_card": "yes",
    "authentication:none": "no",
    "capacity": "2",
    "construction:amenity": "charging_station",
    "fee": "yes",
    "motorcar": "yes",
    "name": "FIG-XXXXX",
    "network": "Mobi.E",
    "opening_hours": "24/7",
    "operator": "EDP Comercial",
    "parking:fee": "no",
    "ref": "FIG-XXXXX",
    "socket:chademo": "1",
    "socket:chademo:current": "120",
    "socket:chademo:output": "50kW",
    "socket:chademo:voltage": "500",
    "socket:type2_cable": "1",
    "socket:type2_cable:current": "63",
    "socket:type2_cable:output": "43kW",
    "socket:type2_cable:voltage": "400",
    "socket:type2_combo": "1",
    "socket:type2_combo:current": "125",
    "socket:type2_combo:output": "50kW",
    "socket:type2_combo:voltage": "500",
    "website": "https://www.mobie.pt/"
  }
},
{
  "type": "node",
  "id": 8781101649,
  "lat": 37.0357092,
  "lon": -8.0267022,
  "tags": {
    "access": "yes",
    "addr:country": "PT",
    "authentication:membership_card": "yes",
    "authentication:none": "no",
    "capacity": "2",
    "construction:amenity": "charging_station",
    "fee": "yes",
    "motorcar": "yes",
    "name": "LLE-00056",
    "network": "Mobi.E",
    "opening_hours": "24/7",
    "operator": "Loulé Concelho Global",
    "parking:fee": "yes",
    "ref": "LLE-00056",
    "socket:type2": "2",
    "socket:type2:current": "32",
    "socket:type2:output": "22kW",
    "socket:type2:voltage": "400",
    "website": "https://www.mobie.pt/"
  }
},
{
  "type": "node",
  "id": 8781101650,
  "lat": 37.0199921,
  "lon": -7.9235710,
  "tags": {
    "access": "yes",
    "addr:city": "Faro",
    "addr:country": "PT",
    "addr:street": "Avenida Doutor Júlio Filipe de Almeida Carrapato",
    "authentication:membership_card": "yes",
    "authentication:none": "no",
    "capacity": "2",
    "construction:amenity": "charging_station",
    "fee": "yes",
    "motorcar": "yes",
    "name": "FAR-00011 - Repsol",
    "network": "Mobi.E",
    "opening_hours": "24/7",
    "operator": "Repsol",
    "parking:fee": "no",
    "ref": "FAR-00011",
    "socket:chademo": "1",
    "socket:chademo:current": "120",
    "socket:chademo:output": "50kW",
    "socket:chademo:voltage": "500",
    "socket:type2_cable": "1",
    "socket:type2_cable:current": "32",
    "socket:type2_cable:output": "22kW",
    "socket:type2_cable:voltage": "400",
    "socket:type2_combo": "1",
    "socket:type2_combo:current": "125",
    "socket:type2_combo:output": "50kW",
    "socket:type2_combo:voltage": "500",
    "website": "https://www.mobie.pt/"
  }
},
{
  "type": "node",
  "id": 8781101651,
  "lat": 40.6446720,
  "lon": -8.6081960,
  "tags": {
    "access": "yes",
    "addr:city": "Aveiro",
    "addr:country": "PT",
    "authentication:membership_card": "yes",
    "authentication:none": "no",
    "capacity": "2",
    "construction:amenity": "charging_station",
    "fee": "yes",
    "motorcar": "yes",
    "name": "AVR-XXXXX - Retail Park",
    "network": "Mobi.E",
    "opening_hours": "24/7",
    "operator": "unknown",
    "parking:fee": "no",
    "ref": "AVR-XXXXX",
    "socket:chademo": "1",
    "socket:chademo:current": "120",
    "socket:chademo:output": "50kW",
    "socket:chademo:voltage": "500",
    "socket:type2_cable": "1",
    "socket:type2_cable:current": "63",
    "socket:type2_cable:output": "43kW",
    "socket:type2_cable:voltage": "400",
    "socket:type2_combo": "1",
    "socket:type2_combo:current": "125",
    "socket:type2_combo:output": "50kW",
    "socket:type2_combo:voltage": "500",
    "website": "https://www.mobie.pt/"
  }
},
{
  "type": "node",
  "id": 8781101654,
  "lat": 38.7686873,
  "lon": -9.1294467,
  "tags": {
    "access": "yes",
    "addr:city": "Lisboa",
    "addr:country": "PT",
    "authentication:membership_card": "yes",
    "authentication:none": "no",
    "capacity": "2",
    "construction:amenity": "charging_station",
    "fee": "yes",
    "motorcar": "yes",
    "name": "LSB-00344 - Aeroporto Parque P1",
    "network": "Mobi.E",
    "opening_hours": "24/7",
    "operator": "Galp Power",
    "parking:fee": "no",
    "ref": "LSB-00344",
    "socket:chademo": "1",
    "socket:chademo:current": "120",
    "socket:chademo:output": "50kW",
    "socket:chademo:voltage": "500",
    "socket:type2_cable": "1",
    "socket:type2_cable:current": "63",
    "socket:type2_cable:output": "43kW",
    "socket:type2_cable:voltage": "400",
    "socket:type2_combo": "1",
    "socket:type2_combo:current": "125",
    "socket:type2_combo:output": "50kW",
    "socket:type2_combo:voltage": "500",
    "website": "https://www.mobie.pt/"
  }
},
{
  "type": "node",
  "id": 8781140430,
  "lat": 37.1312092,
  "lon": -8.5668241,
  "tags": {
    "access": "customers",
    "addr:country": "PT",
    "authentication:membership_card": "yes",
    "authentication:none": "no",
    "capacity": "2",
    "construction:amenity": "charging_station",
    "fee": "yes",
    "name": "PTM-00021 - Vitor's Plaza",
    "network": "Mobi.E",
    "opening_hours": "24/7",
    "operator": "Bluecharge",
    "parking:fee": "no",
    "ref": "PTM-00021",
    "socket:type2": "2",
    "socket:type2:current": "32",
    "socket:type2:output": "22kW",
    "socket:type2:voltage": "400",
    "website": "https://www.mobie.pt/"
  }
},
{
  "type": "node",
  "id": 8818730513,
  "lat": 40.9795710,
  "lon": -8.5757070,
  "tags": {
    "access": "yes",
    "addr:country": "PT",
    "authentication:membership_card": "yes",
    "authentication:none": "no",
    "capacity": "2",
    "construction:amenity": "charging_station",
    "fee": "yes",
    "motorcar": "yes",
    "name": "VFR-00008 - Intermarché",
    "network": "Mobi.E",
    "opening_hours": "24/7",
    "operator": "Powerdot",
    "parking:fee": "no",
    "ref": "VFR-00008",
    "socket:type2": "2",
    "socket:type2:current": "32",
    "socket:type2:output": "22kW",
    "socket:type2:voltage": "400",
    "website": "https://www.mobie.pt/"
  }
},
{
  "type": "node",
  "id": 8829299063,
  "lat": 41.1959929,
  "lon": -8.5761962,
  "tags": {
    "access": "yes",
    "addr:country": "PT",
    "authentication:membership_card": "yes",
    "authentication:none": "no",
    "capacity": "2",
    "construction:amenity": "charging_station",
    "fee": "yes",
    "motorcar": "yes",
    "name": "GDM-XXXXX",
    "network": "Mobi.E",
    "opening_hours": "24/7",
    "operator": "Galp Power",
    "parking:fee": "no",
    "ref": "GDM-XXXXX",
    "socket:chademo": "1",
    "socket:chademo:current": "120",
    "socket:chademo:output": "50kW",
    "socket:chademo:voltage": "500",
    "socket:type2_cable": "1",
    "socket:type2_cable:current": "63",
    "socket:type2_cable:output": "43kW",
    "socket:type2_cable:voltage": "400",
    "socket:type2_combo": "1",
    "socket:type2_combo:current": "125",
    "socket:type2_combo:output": "50kW",
    "socket:type2_combo:voltage": "500",
    "website": "https://www.mobie.pt/"
  }
},
{
  "type": "node",
  "id": 8830322331,
  "lat": 41.1845130,
  "lon": -8.4769055,
  "tags": {
    "access": "yes",
    "addr:country": "PT",
    "authentication:membership_card": "yes",
    "authentication:none": "no",
    "capacity": "2",
    "construction:amenity": "charging_station",
    "fee": "yes",
    "motorcar": "yes",
    "name": "VLG-00012 - Santa Justa",
    "network": "Mobi.E",
    "opening_hours": "24/7",
    "operator": "Evio",
    "parking:fee": "no",
    "ref": "VLG-00012",
    "socket:type2": "2",
    "socket:type2:current": "32",
    "socket:type2:output": "22kW",
    "socket:type2:voltage": "400",
    "website": "https://www.mobie.pt/"
  }
},
{
  "type": "node",
  "id": 8836883441,
  "lat": 39.6135010,
  "lon": -9.0610350,
  "tags": {
    "access": "yes",
    "addr:city": "Nazaré",
    "addr:country": "PT",
    "authentication:membership_card": "yes",
    "authentication:none": "no",
    "capacity": "2",
    "construction:amenity": "charging_station",
    "fee": "yes",
    "motorcar": "yes",
    "name": "NZR-00002 - McDonald's",
    "network": "Mobi.E",
    "opening_hours": "24/7",
    "operator": "EDP Comercial",
    "parking:fee": "no",
    "ref": "NZR-00002",
    "socket:chademo": "1",
    "socket:chademo:current": "120",
    "socket:chademo:output": "50kW",
    "socket:chademo:voltage": "500",
    "socket:type2_cable": "1",
    "socket:type2_cable:current": "63",
    "socket:type2_cable:output": "43kW",
    "socket:type2_cable:voltage": "400",
    "socket:type2_combo": "1",
    "socket:type2_combo:current": "125",
    "socket:type2_combo:output": "50kW",
    "socket:type2_combo:voltage": "500",
    "website": "https://www.mobie.pt/"
  }
},
{
  "type": "node",
  "id": 8849291222,
  "lat": 37.0603560,
  "lon": -7.9662117,
  "tags": {
    "access": "customers",
    "addr:city": "Faro",
    "addr:country": "PT",
    "authentication:membership_card": "yes",
    "authentication:none": "no",
    "capacity": "2",
    "construction:amenity": "charging_station",
    "fee": "yes",
    "motorcar": "yes",
    "name": "Centro Porsche Faro",
    "network": "Porsche",
    "opening_hours": "Mo-Fr 09:00-18:00",
    "operator": "Porsche",
    "parking:fee": "no",
    "socket:type2_combo": "2",
    "socket:type2_combo:current": "500",
    "socket:type2_combo:output": "350kW",
    "socket:type2_combo:voltage": "950"
  }
},
{
  "type": "node",
  "id": 8850662959,
  "lat": 41.1480798,
  "lon": -8.6120399,
  "tags": {
    "access": "yes",
    "addr:country": "PT",
    "authentication:membership_card": "yes",
    "authentication:none": "no",
    "capacity": "2",
    "construction:amenity": "charging_station",
    "fee": "yes",
    "motorcar": "yes",
    "name": "PRT-00094/95 - Parque SABA Garagem Comércio do Porto",
    "network": "Mobi.E",
    "opening_hours": "24/7",
    "operator": "EDP Comercial",
    "parking:fee": "yes",
    "ref": "PRT-00094;PRT-00095",
    "socket:type2": "2",
    "socket:type2:current": "32",
    "socket:type2:output": "7.4kW",
    "socket:type2:voltage": "230",
    "website": "https://www.mobie.pt/"
  }
},
{
  "type": "node",
  "id": 8866903384,
  "lat": 41.1537570,
  "lon": -8.6086990,
  "tags": {
    "access": "customers",
    "addr:country": "PT",
    "authentication:membership_card": "yes",
    "authentication:none": "no",
    "capacity": "2",
    "construction:amenity": "charging_station",
    "fee": "yes",
    "motorcar": "yes",
    "name": "PRT-00092/93",
    "network": "Mobi.E",
    "opening_hours": "24/7",
    "operator": "Galp Power",
    "parking:fee": "no",
    "ref": "PRT-00092;PRT-00093",
    "socket:type2": "4",
    "socket:type2:current": "16",
    "socket:type2:output": "11kW",
    "socket:type2:voltage": "400",
    "website": "https://www.mobie.pt/"
  }
},
{
  "type": "node",
  "id": 8868413625,
  "lat": 41.1844789,
  "lon": -8.6815596,
  "tags": {
    "access": "yes",
    "addr:country": "PT",
    "authentication:membership_card": "yes",
    "authentication:none": "no",
    "capacity": "1",
    "construction:amenity": "charging_station",
    "fee": "yes",
    "motorcar": "yes",
    "name": "MTS-XXXXX",
    "network": "Mobi.E",
    "opening_hours": "24/7",
    "operator": "unknown",
    "parking:fee": "no",
    "ref": "MTS-XXXXX",
    "socket:chademo": "1",
    "socket:chademo:current": "120",
    "socket:chademo:output": "50kW",
    "socket:chademo:voltage": "500",
    "socket:type2_combo": "1",
    "socket:type2_combo:current": "125",
    "socket:type2_combo:output": "50kW",
    "socket:type2_combo:voltage": "500",
    "website": "https://www.mobie.pt/"
  }
},
{
  "type": "node",
  "id": 8868413626,
  "lat": 41.1845153,
  "lon": -8.6815824,
  "tags": {
    "access": "yes",
    "addr:country": "PT",
    "authentication:membership_card": "yes",
    "authentication:none": "no",
    "capacity": "2",
    "construction:amenity": "charging_station",
    "fee": "yes",
    "motorcar": "yes",
    "name": "MTS-XXXXX",
    "network": "Mobi.E",
    "opening_hours": "24/7",
    "operator": "unknown",
    "parking:fee": "no",
    "ref": "MTS-XXXXX",
    "socket:type2": "2",
    "socket:type2:current": "32",
    "socket:type2:output": "22kW",
    "socket:type2:voltage": "400",
    "website": "https://www.mobie.pt/"
  }
},
{
  "type": "node",
  "id": 8868413627,
  "lat": 41.1844456,
  "lon": -8.6815381,
  "tags": {
    "access": "yes",
    "addr:city": "Matosinhos",
    "addr:country": "PT",
    "addr:street": "Rua de Goa",
    "authentication:membership_card": "yes",
    "authentication:none": "no",
    "capacity": "1",
    "construction:amenity": "charging_station",
    "fee": "yes",
    "motorcar": "yes",
    "name": "MTS-XXXXX",
    "network": "Mobi.E",
    "opening_hours": "24/7",
    "operator": "unknown",
    "parking:fee": "no",
    "ref": "MTS-XXXXX",
    "socket:chademo": "1",
    "socket:chademo:current": "120",
    "socket:chademo:output": "50kW",
    "socket:chademo:voltage": "500",
    "socket:type2_combo": "1",
    "socket:type2_combo:current": "350",
    "socket:type2_combo:output": "160kW",
    "socket:type2_combo:voltage": "920",
    "website": "https://www.mobie.pt/"
  }
},
{
  "type": "node",
  "id": 8888322803,
  "lat": 41.6209440,
  "lon": -8.2214970,
  "tags": {
    "access": "yes",
    "addr:country": "PT",
    "authentication:membership_card": "yes",
    "authentication:none": "no",
    "capacity": "2",
    "construction:amenity": "charging_station",
    "fee": "yes",
    "motorcar": "yes",
    "name": "PVL-00002",
    "network": "Mobi.E",
    "opening_hours": "24/7",
    "operator": "Elergone Energia",
    "ref": "PVL-00002",
    "socket:type2": "2",
    "socket:type2:current": "32",
    "socket:type2:output": "7.4kW",
    "socket:type2:voltage": "230",
    "website": "https://www.mobie.pt/"
  }
}

  ]
}
