{
"type": "FeatureCollection",
"features": [
{
  "type": "Feature",
  "id": "node/966120976",
  "properties": {
    "access": "yes",
    "addr:city": "Bragança",
    "addr:country": "PT",
    "addr:postcode": "5300",
    "addr:street": "Jardim António José de Almeida",
    "authentication:membership_card": "yes",
    "authentication:none": "no",
    "capacity": "2",
    "disused:amenity": "charging_station",
    "email": "ajuda@powerdot.pt",
    "fee": "yes",
    "motorcar": "yes",
    "name": "BGC-00002",
    "network": "Mobi.E",
    "opening_hours": "24/7",
    "operator": "Powerdot",
    "parking:fee": "no",
    "phone": "+351 800 180 292",
    "ref": "BGC-90002",
    "socket:type2": "2",
    "socket:type2:current": "16",
    "socket:type2:output": "3.7kW",
    "socket:type2:voltage": "230",
    "website": "https://www.mobie.pt/",
    "id": "node/966120976"
  },
  "geometry": {
    "type": "Point",
    "coordinates": [
      -6.758,
      41.80483
    ]
  }
},
{
  "type": "Feature",
  "id": "node/2084642560",
  "properties": {
    "access": "yes",
    "addr:country": "PT",
    "addr:street": "Avenida dos Combatentes da Grande Guerra",
    "authentication:membership_card": "yes",
    "authentication:none": "no",
    "capacity": "2",
    "disused:amenity": "charging_station",
    "email": "mobilidade.electricacrc@galp.com",
    "fee": "yes",
    "motorcar": "yes",
    "name": "VCT-00002",
    "network": "Mobi.E",
    "opening_hours": "24/7",
    "operator": "Galp Power",
    "parking:fee": "no",
    "phone": "+351 800 249 249",
    "ref": "VCT-90002",
    "socket:type2": "2",
    "socket:type2:current": "32",
    "socket:type2:output": "7.4kW",
    "socket:type2:voltage": "230",
    "website": "https://www.mobie.pt/",
    "id": "node/2084642560"
  },
  "geometry": {
    "type": "Point",
    "coordinates": [
      -8.8311839,
      41.6947381
    ]
  }
},
{
  "type": "Feature",
  "id": "node/2731614731",
  "properties": {
    "access": "yes",
    "addr:country": "PT",
    "authentication:membership_card": "yes",
    "authentication:none": "no",
    "capacity": "2",
    "disused:amenity": "charging_station",
    "email": "apoio.cliente@kmlowcost.com",
    "fee": "yes",
    "motorcar": "yes",
    "name": "VCT-00007",
    "network": "Mobi.E",
    "opening_hours": "24/7",
    "operator": "KLC",
    "parking:fee": "no",
    "phone": "+351 800 296 929",
    "ref": "VCT-90007",
    "socket:type2": "2",
    "socket:type2:current": "16",
    "socket:type2:output": "3.7kW",
    "socket:type2:voltage": "230",
    "transportation": "charging_station",
    "website": "https://www.mobie.pt/",
    "id": "node/2731614731"
  },
  "geometry": {
    "type": "Point",
    "coordinates": [
      -8.7712526,
      41.6431572
    ]
  }
},
{
  "type": "Feature",
  "id": "node/3341794812",
  "properties": {
    "access": "yes",
    "addr:country": "PT",
    "authentication:membership_card": "yes",
    "authentication:none": "no",
    "capacity": "2",
    "disused:amenity": "charging_station",
    "email": "mobilidade-eletrica@edp.pt",
    "fee": "yes",
    "motorcar": "yes",
    "name": "VNG-00012",
    "network": "Mobi.E",
    "opening_hours": "24/7",
    "operator": "EDP Comercial",
    "parking:fee": "no",
    "phone": "+351 800 222 222",
    "ref": "VNG-00012",
    "socket:type2": "2",
    "socket:type2:current": "32",
    "socket:type2:output": "7.4kW",
    "socket:type2:voltage": "230",
    "website": "https://www.mobie.pt/",
    "id": "node/3341794812"
  },
  "geometry": {
    "type": "Point",
    "coordinates": [
      -8.6561008,
      41.0693332
    ]
  }
},
{
  "type": "Feature",
  "id": "node/3612876421",
  "properties": {
    "access": "yes",
    "addr:country": "PT",
    "authentication:membership_card": "yes",
    "authentication:none": "no",
    "capacity": "2",
    "disused:amenity": "charging_station",
    "email": "mobilidade.electricacrc@galp.com",
    "fee": "yes",
    "motorcar": "yes",
    "name": "GMR-00001",
    "network": "Mobi.E",
    "opening_hours": "24/7",
    "operator": "Galp Power",
    "parking:fee": "no",
    "phone": "+351 800 249 249",
    "ref": "GMR-00001",
    "socket:type2": "2",
    "socket:type2:current": "32",
    "socket:type2:output": "7.4kW",
    "socket:type2:voltage": "230",
    "website": "https://www.mobie.pt/",
    "id": "node/3612876421"
  },
  "geometry": {
    "type": "Point",
    "coordinates": [
      -8.2915479,
      41.4448216
    ]
  }
},
{
  "type": "Feature",
  "id": "node/3703042039",
  "properties": {
    "access": "yes",
    "addr:city": "Lisboa",
    "addr:country": "PT",
    "addr:housenumber": "41",
    "addr:postcode": "1950-142 Beato",
    "addr:street": "Alameda do Beato",
    "authentication:membership_card": "yes",
    "authentication:none": "no",
    "capacity": "2",
    "disused:amenity": "charging_station",
    "email": "ajuda@powerdot.pt",
    "fee": "yes",
    "motorcar": "yes",
    "name": "LSB-00146",
    "network": "Mobi.E",
    "opening_hours": "24/7",
    "operator": "Powerdot",
    "parking:fee": "no",
    "phone": "+351 800 180 292",
    "ref": "LSB-90146",
    "socket:type2": "2",
    "socket:type2:current": "16",
    "socket:type2:output": "3.7kW",
    "socket:type2:voltage": "230",
    "website": "https://www.mobie.pt/",
    "id": "node/3703042039"
  },
  "geometry": {
    "type": "Point",
    "coordinates": [
      -9.1054622,
      38.7339863
    ]
  }
},
{
  "type": "Feature",
  "id": "node/3706318965",
  "properties": {
    "access": "yes",
    "addr:city": "Lisboa",
    "addr:country": "PT",
    "addr:housenumber": "5",
    "addr:postcode": "1169 - 199",
    "addr:street": "Travessa do Cidadão João Gonçalves",
    "authentication:membership_card": "yes",
    "authentication:none": "no",
    "capacity": "2",
    "disused:amenity": "charging_station",
    "email": "mobilidade-eletrica@edp.pt",
    "fee": "yes",
    "motorcar": "yes",
    "name": "LSB-00123",
    "network": "Mobi.E",
    "opening_hours": "24/7",
    "operator": "EDP Comercial",
    "parking:fee": "no",
    "phone": "+351 800 222 222",
    "ref": "LSB-00123",
    "socket:type2": "2",
    "socket:type2:current": "32",
    "socket:type2:output": "22kW",
    "socket:type2:voltage": "400",
    "website": "https://www.mobie.pt/",
    "id": "node/3706318965"
  },
  "geometry": {
    "type": "Point",
    "coordinates": [
      -9.1350475,
      38.7212869
    ]
  }
},
{
  "type": "Feature",
  "id": "node/3708190938",
  "properties": {
    "access": "yes",
    "addr:city": "Lisboa",
    "addr:country": "PT",
    "addr:housenumber": "22",
    "addr:postcode": "1300",
    "addr:street": "Travessa do Conde da Ponte",
    "authentication:membership_card": "yes",
    "authentication:none": "no",
    "capacity": "2",
    "disused:amenity": "charging_station",
    "email": "mobilidade-eletrica@edp.pt",
    "fee": "yes",
    "motorcar": "yes",
    "name": "LSB-00028",
    "network": "Mobi.E",
    "opening_hours": "24/7",
    "operator": "EDP Comercial",
    "parking:fee": "no",
    "phone": "+351 800 222 222",
    "ref": "LSB-90028",
    "socket:type2": "2",
    "socket:type2:current": "32",
    "socket:type2:output": "22kW",
    "socket:type2:voltage": "400",
    "website": "https://www.mobie.pt/",
    "id": "node/3708190938"
  },
  "geometry": {
    "type": "Point",
    "coordinates": [
      -9.1809196,
      38.6996238
    ]
  }
},
{
  "type": "Feature",
  "id": "node/3724919247",
  "properties": {
    "access": "yes",
    "addr:city": "Lisboa",
    "addr:country": "PT",
    "addr:postcode": "1700-097",
    "addr:street": "Campo Grande",
    "authentication:membership_card": "yes",
    "authentication:none": "no",
    "capacity": "6",
    "disused:amenity": "charging_station",
    "fee": "yes",
    "motorcar": "yes",
    "name": "LSB-01070",
    "network": "Mobi.E",
    "opening_hours": "24/7",
    "operator": "Mobi.E",
    "parking:fee": "yes",
    "ref": "LSB-01070",
    "socket:type2": "6",
    "socket:type2:current": "16",
    "socket:type2:output": "3.7kW",
    "socket:type2:voltage": "230",
    "website": "https://www.mobie.pt/",
    "id": "node/3724919247"
  },
  "geometry": {
    "type": "Point",
    "coordinates": [
      -9.1549373,
      38.7571928
    ]
  }
},
{
  "type": "Feature",
  "id": "node/3724919265",
  "properties": {
    "access": "yes",
    "addr:city": "Lisboa",
    "addr:country": "PT",
    "addr:housenumber": "75",
    "addr:postcode": "1050-189",
    "addr:street": "Avenida da República",
    "authentication:membership_card": "yes",
    "authentication:none": "no",
    "capacity": "2",
    "disused:amenity": "charging_station",
    "email": "ajuda@powerdot.pt",
    "fee": "yes",
    "motorcar": "yes",
    "name": "LSB-00103",
    "network": "Mobi.E",
    "opening_hours": "24/7",
    "operator": "Powerdot",
    "parking:fee": "no",
    "phone": "+351 800 180 292",
    "ref": "LSB-90103",
    "socket:type2": "2",
    "socket:type2:current": "32",
    "socket:type2:output": "22kW",
    "socket:type2:voltage": "400",
    "website": "https://www.mobie.pt/",
    "id": "node/3724919265"
  },
  "geometry": {
    "type": "Point",
    "coordinates": [
      -9.1468283,
      38.741088
    ]
  }
},
{
  "type": "Feature",
  "id": "node/3930754460",
  "properties": {
    "access": "yes",
    "addr:city": "Leiria",
    "addr:country": "PT",
    "addr:street": "Avenida Nossa Senhora de Fátima",
    "authentication:membership_card": "yes",
    "authentication:none": "no",
    "capacity": "2",
    "disused:amenity": "charging_station",
    "email": "mobilidade-eletrica@edp.pt",
    "fee": "yes",
    "motorcar": "yes",
    "name": "LRA-00010",
    "network": "Mobi.E",
    "opening_hours": "24/7",
    "operator": "EDP Comercial",
    "parking:fee": "no",
    "phone": "+351 800 222 222",
    "ref": "LRA-00010",
    "socket:type2": "2",
    "socket:type2:current": "16",
    "socket:type2:output": "3.7kW",
    "socket:type2:voltage": "230",
    "website": "https://www.mobie.pt/",
    "id": "node/3930754460"
  },
  "geometry": {
    "type": "Point",
    "coordinates": [
      -8.8030895,
      39.739778
    ]
  }
},
{
  "type": "Feature",
  "id": "node/5349379982",
  "properties": {
    "access": "yes",
    "addr:country": "PT",
    "authentication:membership_card": "yes",
    "authentication:none": "no",
    "capacity": "2",
    "disused:amenity": "charging_station",
    "email": "electric@prioenergy.com",
    "fee": "yes",
    "motorcar": "yes",
    "name": "OAZ-00002",
    "network": "Mobi.E",
    "opening_hours": "24/7",
    "operator": "Prio.E",
    "parking:fee": "no",
    "phone": "+351 800 450 111",
    "ref": "OAZ-00002",
    "socket:type2": "2",
    "socket:type2:current": "32",
    "socket:type2:output": "22kW",
    "socket:type2:voltage": "400",
    "website": "https://www.mobie.pt/",
    "id": "node/5349379982"
  },
  "geometry": {
    "type": "Point",
    "coordinates": [
      -8.4795222,
      40.8351596
    ]
  }
},
{
  "type": "Feature",
  "id": "node/5349380815",
  "properties": {
    "access": "yes",
    "addr:country": "PT",
    "authentication:membership_card": "yes",
    "authentication:none": "no",
    "capacity": "2",
    "disused:amenity": "charging_station",
    "email": "electric@prioenergy.com",
    "fee": "yes",
    "motorcar": "yes",
    "name": "OAZ-00001",
    "network": "Mobi.E",
    "opening_hours": "24/7",
    "operator": "Prio.E",
    "parking:fee": "no",
    "phone": "+351 800 450 111",
    "ref": "OAZ-00001",
    "socket:type2": "2",
    "socket:type2:current": "32",
    "socket:type2:output": "22kW",
    "socket:type2:voltage": "400",
    "website": "https://www.mobie.pt/",
    "id": "node/5349380815"
  },
  "geometry": {
    "type": "Point",
    "coordinates": [
      -8.4852973,
      40.8319797
    ]
  }
},
{
  "type": "Feature",
  "id": "node/5398312785",
  "properties": {
    "access": "yes",
    "authentication:membership_card": "yes",
    "authentication:none": "no",
    "bicycle": "no",
    "capacity": "2",
    "disused:amenity": "charging_station",
    "email": "mobilidade.electricacrc@galp.com",
    "fee": "yes",
    "motorcar": "yes",
    "name": "LGS-00002",
    "network": "Mobi.E",
    "opening_hours": "24/7",
    "operator": "Galp Power",
    "parking:fee": "no",
    "phone": "+351 800 249 249",
    "ref": "LGS-00002",
    "socket:chademo": "1",
    "socket:chademo:current": "120",
    "socket:chademo:output": "50kW",
    "socket:chademo:voltage": "500",
    "socket:type2_cable": "1",
    "socket:type2_cable:current": "63",
    "socket:type2_cable:output": "43kW",
    "socket:type2_cable:voltage": "400",
    "socket:type2_combo": "1",
    "socket:type2_combo:current": "125",
    "socket:type2_combo:output": "50kW",
    "socket:type2_combo:voltage": "500",
    "website": "https://www.mobie.pt/",
    "id": "node/5398312785"
  },
  "geometry": {
    "type": "Point",
    "coordinates": [
      -8.7026607,
      37.1485144
    ]
  }
},
{
  "type": "Feature",
  "id": "node/5398312786",
  "properties": {
    "access": "yes",
    "authentication:membership_card": "yes",
    "authentication:none": "no",
    "bicycle": "no",
    "capacity": "2",
    "disused:amenity": "charging_station",
    "email": "mobilidade.electricacrc@galp.com",
    "fee": "yes",
    "motorcar": "yes",
    "name": "LGS-00003",
    "network": "Mobi.E",
    "opening_hours": "24/7",
    "operator": "Galp Power",
    "parking:fee": "no",
    "phone": "+351 800 249 249",
    "ref": "LGS-00003",
    "socket:chademo": "1",
    "socket:chademo:current": "120",
    "socket:chademo:output": "50kW",
    "socket:chademo:voltage": "500",
    "socket:type2_cable": "1",
    "socket:type2_cable:current": "63",
    "socket:type2_cable:output": "43kW",
    "socket:type2_cable:voltage": "400",
    "socket:type2_combo": "1",
    "socket:type2_combo:current": "125",
    "socket:type2_combo:output": "50kW",
    "socket:type2_combo:voltage": "500",
    "website": "https://www.mobie.pt/",
    "id": "node/5398312786"
  },
  "geometry": {
    "type": "Point",
    "coordinates": [
      -8.7039529,
      37.1488153
    ]
  }
},
{
  "type": "Feature",
  "id": "node/7126770379",
  "properties": {
    "access": "yes",
    "addr:city": "Faro",
    "addr:country": "PT",
    "addr:street": "Largo Francisco Sá Carneiro",
    "authentication:membership_card": "yes",
    "authentication:none": "no",
    "capacity": "2",
    "disused:amenity": "charging_station",
    "email": "mobilidade.electricacrc@galp.com",
    "fee": "yes",
    "motorcar": "yes",
    "name": "FAR-00004",
    "network": "Mobi.E",
    "opening_hours": "24/7",
    "operator": "Galp Power",
    "parking:fee": "no",
    "phone": "+351 800 249 249",
    "ref": "FAR-90004",
    "socket:type2": "2",
    "socket:type2:current": "32",
    "socket:type2:output": "7.4kW",
    "socket:type2:voltage": "230",
    "website": "https://www.mobie.pt/",
    "id": "node/7126770379"
  },
  "geometry": {
    "type": "Point",
    "coordinates": [
      -7.9283148,
      37.019596
    ]
  }
},
{
  "type": "Feature",
  "id": "node/7131888831",
  "properties": {
    "access": "yes",
    "addr:city": "Vale de Lobo",
    "addr:country": "PT",
    "addr:street": "Estrada da Horta",
    "authentication:membership_card": "yes",
    "authentication:none": "no",
    "capacity": "2",
    "disused:amenity": "charging_station",
    "fee": "yes",
    "motorcar": "yes",
    "name": "LLE-00019",
    "network": "Mobi.E",
    "opening_hours": "24/7",
    "operator": "CME",
    "parking:fee": "no",
    "ref": "LLE-00019",
    "socket:type2": "2",
    "socket:type2:current": "32",
    "socket:type2:output": "22kW",
    "socket:type2:voltage": "400",
    "website": "https://www.mobie.pt/",
    "id": "node/7131888831"
  },
  "geometry": {
    "type": "Point",
    "coordinates": [
      -8.0634284,
      37.0491908
    ]
  }
},
{
  "type": "Feature",
  "id": "node/7593143797",
  "properties": {
    "access": "yes",
    "addr:city": "Zambujeira do Mar",
    "addr:country": "PT",
    "addr:street": "Beco do Elias",
    "authentication:membership_card": "yes",
    "authentication:none": "no",
    "capacity": "2",
    "disused:amenity": "charging_station",
    "email": "mobilidade.electricacrc@galp.com",
    "fee": "yes",
    "motorcar": "yes",
    "name": "ODM-00002",
    "network": "Mobi.E",
    "opening_hours": "24/7",
    "operator": "Galp Power",
    "parking:fee": "no",
    "phone": "+351 800 249 249",
    "ref": "ODM-00002",
    "socket:type2": "2",
    "socket:type2:current": "16",
    "socket:type2:output": "3.7kW",
    "socket:type2:voltage": "230",
    "website": "https://www.mobie.pt/",
    "id": "node/7593143797"
  },
  "geometry": {
    "type": "Point",
    "coordinates": [
      -8.7869305,
      37.525097
    ]
  }
},
{
  "type": "Feature",
  "id": "node/7716685370",
  "properties": {
    "access": "yes",
    "addr:city": "Beja",
    "addr:country": "PT",
    "addr:street": "Rua Pedro Soares",
    "authentication:membership_card": "yes",
    "authentication:none": "no",
    "capacity": "2",
    "disused:amenity": "charging_station",
    "email": "mobilidade-eletrica@edp.pt",
    "fee": "yes",
    "motorcar": "yes",
    "name": "BJA-00003",
    "network": "Mobi.E",
    "opening_hours": "24/7",
    "operator": "EDP Comercial",
    "parking:fee": "no",
    "phone": "+351 800 222 222",
    "ref": "BJA-90003",
    "socket:type2": "2",
    "socket:type2:current": "16",
    "socket:type2:output": "3.7kW",
    "socket:type2:voltage": "230",
    "website": "https://www.mobie.pt/",
    "id": "node/7716685370"
  },
  "geometry": {
    "type": "Point",
    "coordinates": [
      -7.8728829,
      38.013322
    ]
  }
},
{
  "type": "Feature",
  "id": "node/7770962109",
  "properties": {
    "access": "yes",
    "addr:country": "PT",
    "authentication:membership_card": "yes",
    "authentication:none": "no",
    "capacity": "2",
    "disused:amenity": "charging_station",
    "email": "mobilidade-eletrica@edp.pt",
    "fee": "yes",
    "motorcar": "yes",
    "name": "PTG-00004",
    "network": "Mobi.E",
    "opening_hours": "24/7",
    "operator": "EDP Comercial",
    "parking:fee": "no",
    "phone": "+351 800 222 222",
    "ref": "PTG-90004",
    "socket:type2": "2",
    "socket:type2:current": "16",
    "socket:type2:output": "3.7kW",
    "socket:type2:voltage": "230",
    "website": "https://www.mobie.pt/",
    "id": "node/7770962109"
  },
  "geometry": {
    "type": "Point",
    "coordinates": [
      -7.420413,
      39.2691968
    ]
  }
},
{
  "type": "Feature",
  "id": "node/8001331029",
  "properties": {
    "access": "yes",
    "addr:city": "Fogueteiro",
    "addr:country": "PT",
    "authentication:membership_card": "yes",
    "authentication:none": "no",
    "capacity": "2",
    "disused:amenity": "charging_station",
    "email": "mobilidade-eletrica@edp.pt",
    "fee": "yes",
    "motorcar": "yes",
    "name": "SXL-00002",
    "network": "Mobi.E",
    "opening_hours": "24/7",
    "operator": "EDP Comercial",
    "parking:fee": "no",
    "phone": "+351 800 222 222",
    "ref": "SXL-00002",
    "socket:chademo": "1",
    "socket:chademo:current": "120",
    "socket:chademo:output": "50kW",
    "socket:chademo:voltage": "500",
    "socket:type2_cable": "1",
    "socket:type2_cable:current": "63",
    "socket:type2_cable:output": "43kW",
    "socket:type2_cable:voltage": "400",
    "socket:type2_combo": "1",
    "socket:type2_combo:current": "125",
    "socket:type2_combo:output": "50kW",
    "socket:type2_combo:voltage": "500",
    "website": "https://www.mobie.pt/",
    "id": "node/8001331029"
  },
  "geometry": {
    "type": "Point",
    "coordinates": [
      -9.0986632,
      38.6098946
    ]
  }
},
{
  "type": "Feature",
  "id": "node/8014347881",
  "properties": {
    "access": "yes",
    "addr:city": "Lisboa",
    "addr:country": "PT",
    "addr:street": "Rua do Mar do Norte",
    "authentication:membership_card": "yes",
    "authentication:none": "no",
    "capacity": "1",
    "disused:amenity": "charging_station",
    "email": "suporte@mobiletric.com",
    "fee": "yes",
    "motorcar": "yes",
    "name": "LSB-00206",
    "network": "Mobi.E",
    "opening_hours": "24/7",
    "operator": "Mobiletric",
    "parking:fee": "no",
    "phone": "+351 800 210 204",
    "ref": "LSB-00206",
    "socket:chademo": "1",
    "socket:chademo:current": "120",
    "socket:chademo:output": "50kW",
    "socket:chademo:voltage": "500",
    "socket:type2_combo": "1",
    "socket:type2_combo:current": "125",
    "socket:type2_combo:output": "50kW",
    "socket:type2_combo:voltage": "500",
    "website": "https://www.mobie.pt/",
    "id": "node/8014347881"
  },
  "geometry": {
    "type": "Point",
    "coordinates": [
      -9.0965952,
      38.7641175
    ]
  }
},
{
  "type": "Feature",
  "id": "node/8017374245",
  "properties": {
    "access": "yes",
    "addr:country": "PT",
    "addr:street": "Área de Serviço de Santarém",
    "authentication:membership_card": "yes",
    "authentication:none": "no",
    "capacity": "2",
    "disused:amenity": "charging_station",
    "email": "apoio.cliente@kmlowcost.com",
    "fee": "yes",
    "motorcar": "yes",
    "name": "STR-00011",
    "network": "Mobi.E",
    "opening_hours": "24/7",
    "operator": "KLC",
    "parking:fee": "no",
    "phone": "+351 800 296 929",
    "ref": "STR-00011",
    "socket:chademo": "1",
    "socket:chademo:current": "120",
    "socket:chademo:output": "50kW",
    "socket:chademo:voltage": "500",
    "socket:type2_cable": "1",
    "socket:type2_cable:current": "63",
    "socket:type2_cable:output": "43kW",
    "socket:type2_cable:voltage": "400",
    "socket:type2_combo": "1",
    "socket:type2_combo:current": "125",
    "socket:type2_combo:output": "50kW",
    "socket:type2_combo:voltage": "500",
    "website": "https://www.mobie.pt/",
    "id": "node/8017374245"
  },
  "geometry": {
    "type": "Point",
    "coordinates": [
      -8.6409992,
      39.3936748
    ]
  }
},
{
  "type": "Feature",
  "id": "node/8072522374",
  "properties": {
    "access": "yes",
    "addr:city": "Celorico da Beira",
    "addr:country": "PT",
    "authentication:membership_card": "yes",
    "authentication:none": "no",
    "capacity": "1",
    "disused:amenity": "charging_station",
    "email": "apoio.cliente@kmlowcost.com",
    "fee": "yes",
    "motorcar": "yes",
    "name": "CLB-00007 - Muito Menos",
    "network": "Mobi.E",
    "opening_hours": "Mo-Su 09:00-21:00",
    "operator": "KLC",
    "parking:fee": "no",
    "phone": "+351 800 296 929",
    "ref": "CLB-00007",
    "socket:chademo": "1",
    "socket:chademo:current": "120",
    "socket:chademo:output": "50kW",
    "socket:chademo:voltage": "500",
    "socket:type2_combo": "1",
    "socket:type2_combo:current": "125",
    "socket:type2_combo:output": "50kW",
    "socket:type2_combo:voltage": "500",
    "website": "https://www.mobie.pt/",
    "id": "node/8072522374"
  },
  "geometry": {
    "type": "Point",
    "coordinates": [
      -7.4023481,
      40.6259408
    ]
  }
},
{
  "type": "Feature",
  "id": "node/8089363843",
  "properties": {
    "access": "yes",
    "addr:country": "PT",
    "authentication:membership_card": "yes",
    "authentication:none": "no",
    "capacity": "1",
    "disused:amenity": "charging_station",
    "email": "suporte@emobtec.pt",
    "fee": "yes",
    "motorcar": "yes",
    "name": "OER-00028",
    "network": "Mobi.E",
    "opening_hours": "24/7",
    "operator": "Emobtec",
    "parking:fee": "no",
    "phone": "+351 800 500 216",
    "ref": "OER-00028",
    "socket:type2": "1",
    "socket:type2:current": "32",
    "socket:type2:output": "22kW",
    "socket:type2:voltage": "400",
    "website": "https://www.mobie.pt/",
    "id": "node/8089363843"
  },
  "geometry": {
    "type": "Point",
    "coordinates": [
      -9.2929148,
      38.6936517
    ]
  }
},
{
  "type": "Feature",
  "id": "node/8104938473",
  "properties": {
    "access": "yes",
    "addr:country": "PT",
    "authentication:membership_card": "yes",
    "authentication:none": "no",
    "capacity": "2",
    "disused:amenity": "charging_station",
    "email": "opc@ucharge.pt",
    "fee": "yes",
    "motorcar": "yes",
    "name": "LSB-00204",
    "network": "Mobi.E",
    "opening_hours": "24/7",
    "operator": "Ucharge",
    "parking:fee": "no",
    "phone": "+351 211 648 577",
    "ref": "LSB-00204",
    "socket:type2": "2",
    "socket:type2:current": "32",
    "socket:type2:output": "22kW",
    "socket:type2:voltage": "400",
    "website": "https://www.mobie.pt/",
    "id": "node/8104938473"
  },
  "geometry": {
    "type": "Point",
    "coordinates": [
      -9.1653093,
      38.7532844
    ]
  }
},
{
  "type": "Feature",
  "id": "node/8104957862",
  "properties": {
    "access": "yes",
    "addr:country": "PT",
    "authentication:membership_card": "yes",
    "authentication:none": "no",
    "capacity": "2",
    "disused:amenity": "charging_station",
    "email": "mobilidade-eletrica@edp.pt",
    "fee": "yes",
    "motorcar": "yes",
    "name": "LSB-00024",
    "network": "Mobi.E",
    "opening_hours": "24/7",
    "operator": "EDP Comercial",
    "parking:fee": "no",
    "phone": "+351 800 222 222",
    "ref": "LSB-90024",
    "socket:type2": "2",
    "socket:type2:current": "32",
    "socket:type2:output": "22kW",
    "socket:type2:voltage": "400",
    "website": "https://www.mobie.pt/",
    "id": "node/8104957862"
  },
  "geometry": {
    "type": "Point",
    "coordinates": [
      -9.1853931,
      38.7044861
    ]
  }
},
{
  "type": "Feature",
  "id": "node/8109599763",
  "properties": {
    "access": "yes",
    "addr:country": "PT",
    "authentication:membership_card": "yes",
    "authentication:none": "no",
    "capacity": "2",
    "disused:amenity": "charging_station",
    "email": "ajuda@powerdot.pt",
    "fee": "yes",
    "motorcar": "yes",
    "name": "ENT-00001",
    "network": "Mobi.E",
    "opening_hours": "24/7",
    "operator": "Powerdot",
    "parking:fee": "no",
    "phone": "+351 800 180 292",
    "ref": "ENT-90001",
    "socket:type2": "2",
    "socket:type2:current": "32",
    "socket:type2:output": "22kW",
    "socket:type2:voltage": "400",
    "website": "https://www.mobie.pt/",
    "id": "node/8109599763"
  },
  "geometry": {
    "type": "Point",
    "coordinates": [
      -8.4673558,
      39.4654692
    ]
  }
},
{
  "type": "Feature",
  "id": "node/8109599992",
  "properties": {
    "access": "yes",
    "addr:country": "PT",
    "authentication:membership_card": "yes",
    "authentication:none": "no",
    "capacity": "2",
    "disused:amenity": "charging_station",
    "email": "mobilidade-eletrica@edp.pt",
    "fee": "yes",
    "motorcar": "yes",
    "name": "VLR-00001",
    "network": "Mobi.E",
    "opening_hours": "24/7",
    "operator": "EDP Comercial",
    "parking:fee": "no",
    "phone": "+351 800 222 222",
    "ref": "VLR-90001",
    "socket:type2": "2",
    "socket:type2:current": "32",
    "socket:type2:output": "22kW",
    "socket:type2:voltage": "400",
    "website": "https://www.mobie.pt/",
    "id": "node/8109599992"
  },
  "geometry": {
    "type": "Point",
    "coordinates": [
      -8.1446739,
      39.6731268
    ]
  }
},
{
  "type": "Feature",
  "id": "node/8109685921",
  "properties": {
    "access": "yes",
    "addr:country": "PT",
    "authentication:membership_card": "yes",
    "authentication:none": "no",
    "capacity": "2",
    "disused:amenity": "charging_station",
    "email": "mobilidade-eletrica@edp.pt",
    "fee": "yes",
    "motorcar": "yes",
    "name": "CBR-00038 - Intermarché",
    "network": "Mobi.E",
    "opening_hours": "24/7",
    "operator": "EDP Comercial",
    "parking:fee": "no",
    "phone": "+351 800 222 222",
    "ref": "CBR-00038",
    "socket:type2": "2",
    "socket:type2:current": "32",
    "socket:type2:output": "22kW",
    "socket:type2:voltage": "400",
    "website": "https://www.mobie.pt/",
    "id": "node/8109685921"
  },
  "geometry": {
    "type": "Point",
    "coordinates": [
      -8.4450893,
      40.1970338
    ]
  }
},
{
  "type": "Feature",
  "id": "node/8109687608",
  "properties": {
    "access": "yes",
    "addr:country": "PT",
    "authentication:membership_card": "yes",
    "authentication:none": "no",
    "capacity": "2",
    "disused:amenity": "charging_station",
    "email": "mobilidade.electricacrc@galp.com",
    "fee": "yes",
    "motorcar": "yes",
    "name": "TBU-00001",
    "network": "Mobi.E",
    "opening_hours": "24/7",
    "operator": "Galp Power",
    "parking:fee": "no",
    "phone": "+351 800 249 249",
    "ref": "TBU-00001",
    "socket:type2": "2",
    "socket:type2:current": "32",
    "socket:type2:output": "22kW",
    "socket:type2:voltage": "400",
    "website": "https://www.mobie.pt/",
    "id": "node/8109687608"
  },
  "geometry": {
    "type": "Point",
    "coordinates": [
      -8.0276524,
      40.3600112
    ]
  }
},
{
  "type": "Feature",
  "id": "node/8112779814",
  "properties": {
    "access": "yes",
    "addr:country": "PT",
    "authentication:membership_card": "yes",
    "authentication:none": "no",
    "capacity": "2",
    "disused:amenity": "charging_station",
    "email": "info@evce.pt",
    "fee": "yes",
    "motorcar": "yes",
    "name": "OAZ-00003 - Escola Superior Aveiro Norte",
    "network": "Mobi.E",
    "opening_hours": "24/7",
    "operator": "EVCE",
    "parking:fee": "no",
    "phone": "+351 253 623 190",
    "ref": "OAZ-00003",
    "socket:type2": "2",
    "socket:type2:current": "32",
    "socket:type2:output": "22kW",
    "socket:type2:voltage": "400",
    "website": "https://www.mobie.pt/",
    "id": "node/8112779814"
  },
  "geometry": {
    "type": "Point",
    "coordinates": [
      -8.4759562,
      40.861992
    ]
  }
},
{
  "type": "Feature",
  "id": "node/8112873811",
  "properties": {
    "access": "yes",
    "addr:country": "PT",
    "authentication:membership_card": "yes",
    "authentication:none": "no",
    "capacity": "2",
    "disused:amenity": "charging_station",
    "email": "info@evce.pt",
    "fee": "yes",
    "motorcar": "yes",
    "name": "OVR-00003",
    "network": "Mobi.E",
    "opening_hours": "24/7",
    "operator": "EVCE",
    "parking:fee": "no",
    "phone": "+351 253 623 190",
    "ref": "OVR-00003",
    "socket:type2": "2",
    "socket:type2:current": "32",
    "socket:type2:output": "22kW",
    "socket:type2:voltage": "400",
    "website": "https://www.mobie.pt/",
    "id": "node/8112873811"
  },
  "geometry": {
    "type": "Point",
    "coordinates": [
      -8.6265367,
      40.9553344
    ]
  }
},
{
  "type": "Feature",
  "id": "node/8112945350",
  "properties": {
    "access": "yes",
    "addr:country": "PT",
    "authentication:membership_card": "yes",
    "authentication:none": "no",
    "capacity": "2",
    "disused:amenity": "charging_station",
    "email": "ajuda@powerdot.pt",
    "fee": "yes",
    "motorcar": "yes",
    "name": "LMG-00003",
    "network": "Mobi.E",
    "opening_hours": "24/7",
    "operator": "Powerdot",
    "parking:fee": "no",
    "phone": "+351 800 180 292",
    "ref": "LMG-00003",
    "socket:type2": "2",
    "socket:type2:current": "32",
    "socket:type2:output": "22kW",
    "socket:type2:voltage": "400",
    "website": "https://www.mobie.pt/",
    "id": "node/8112945350"
  },
  "geometry": {
    "type": "Point",
    "coordinates": [
      -7.8075041,
      41.0965607
    ]
  }
},
{
  "type": "Feature",
  "id": "node/8113054723",
  "properties": {
    "access": "yes",
    "addr:country": "PT",
    "authentication:membership_card": "yes",
    "authentication:none": "no",
    "capacity": "4",
    "disused:amenity": "charging_station",
    "email": "apoio.cliente@kmlowcost.com",
    "fee": "yes",
    "motorcar": "yes",
    "name": "AMT-00003/4",
    "network": "Mobi.E",
    "opening_hours": "24/7",
    "operator": "KLC",
    "parking:fee": "no",
    "phone": "+351 800 296 929",
    "ref": "AMT-00003;AMT-00004",
    "socket:type2": "4",
    "socket:type2:current": "32",
    "socket:type2:output": "22kW",
    "socket:type2:voltage": "400",
    "website": "https://www.mobie.pt/",
    "id": "node/8113054723"
  },
  "geometry": {
    "type": "Point",
    "coordinates": [
      -8.0749311,
      41.2714133
    ]
  }
},
{
  "type": "Feature",
  "id": "node/8113069557",
  "properties": {
    "access": "yes",
    "addr:country": "PT",
    "authentication:membership_card": "yes",
    "authentication:none": "no",
    "capacity": "2",
    "disused:amenity": "charging_station",
    "email": "ajuda@powerdot.pt",
    "fee": "yes",
    "motorcar": "yes",
    "name": "STS-00001",
    "network": "Mobi.E",
    "opening_hours": "24/7",
    "operator": "Powerdot",
    "parking:fee": "no",
    "phone": "+351 800 180 292",
    "ref": "STS-00001",
    "socket:type2": "2",
    "socket:type2:current": "32",
    "socket:type2:output": "22kW",
    "socket:type2:voltage": "400",
    "website": "https://www.mobie.pt/",
    "id": "node/8113069557"
  },
  "geometry": {
    "type": "Point",
    "coordinates": [
      -8.4771001,
      41.3377908
    ]
  }
},
{
  "type": "Feature",
  "id": "node/8115700033",
  "properties": {
    "access": "yes",
    "addr:country": "PT",
    "authentication:membership_card": "yes",
    "authentication:none": "no",
    "capacity": "2",
    "disused:amenity": "charging_station",
    "fee": "yes",
    "motorcar": "yes",
    "name": "GMR-00015 - McDonald's",
    "network": "Mobi.E",
    "opening_hours": "24/7",
    "operator": "Elergone Energia",
    "parking:fee": "no",
    "ref": "GMR-00015",
    "socket:type2": "2",
    "socket:type2:current": "32",
    "socket:type2:output": "22kW",
    "socket:type2:voltage": "400",
    "website": "https://www.mobie.pt/",
    "id": "node/8115700033"
  },
  "geometry": {
    "type": "Point",
    "coordinates": [
      -8.3016917,
      41.4315453
    ]
  }
},
{
  "type": "Feature",
  "id": "node/8116398356",
  "properties": {
    "access": "yes",
    "addr:country": "PT",
    "authentication:membership_card": "yes",
    "authentication:none": "no",
    "capacity": "2",
    "disused:amenity": "charging_station",
    "email": "mobilidade-eletrica@edp.pt",
    "fee": "yes",
    "motorcar": "yes",
    "name": "VRL-00006",
    "network": "Mobi.E",
    "opening_hours": "24/7",
    "operator": "EDP Comercial",
    "parking:fee": "no",
    "phone": "+351 800 222 222",
    "ref": "VRL-00006",
    "socket:type2": "2",
    "socket:type2:current": "16",
    "socket:type2:output": "3.7kW",
    "socket:type2:voltage": "230",
    "website": "https://www.mobie.pt/",
    "id": "node/8116398356"
  },
  "geometry": {
    "type": "Point",
    "coordinates": [
      -7.7468278,
      41.2946238
    ]
  }
},
{
  "type": "Feature",
  "id": "node/8119316662",
  "properties": {
    "access": "yes",
    "addr:country": "PT",
    "authentication:membership_card": "yes",
    "authentication:none": "no",
    "capacity": "2",
    "disused:amenity": "charging_station",
    "email": "mobilidade-eletrica@edp.pt",
    "fee": "yes",
    "motorcar": "yes",
    "name": "STB-00006",
    "network": "Mobi.E",
    "opening_hours": "24/7",
    "operator": "EDP Comercial",
    "parking:fee": "no",
    "phone": "+351 800 222 222",
    "ref": "STB-00006",
    "socket:type2": "2",
    "socket:type2:current": "32",
    "socket:type2:output": "7.4kW",
    "socket:type2:voltage": "230",
    "website": "https://www.mobie.pt/",
    "id": "node/8119316662"
  },
  "geometry": {
    "type": "Point",
    "coordinates": [
      -8.8949581,
      38.5231136
    ]
  }
},
{
  "type": "Feature",
  "id": "node/8119362926",
  "properties": {
    "access": "yes",
    "addr:country": "PT",
    "authentication:membership_card": "yes",
    "authentication:none": "no",
    "capacity": "2",
    "disused:amenity": "charging_station",
    "email": "ajuda@powerdot.pt",
    "fee": "yes",
    "motorcar": "yes",
    "name": "ALM-00004",
    "network": "Mobi.E",
    "opening_hours": "24/7",
    "operator": "Powerdot",
    "parking:fee": "yes",
    "phone": "+351 800 180 292",
    "ref": "ALM-00004",
    "socket:type2": "2",
    "socket:type2:current": "16",
    "socket:type2:output": "3.7kW",
    "socket:type2:voltage": "230",
    "website": "https://www.mobie.pt/",
    "id": "node/8119362926"
  },
  "geometry": {
    "type": "Point",
    "coordinates": [
      -9.1595765,
      38.6815478
    ]
  }
},
{
  "type": "Feature",
  "id": "node/8119362927",
  "properties": {
    "access": "yes",
    "addr:country": "PT",
    "authentication:membership_card": "yes",
    "authentication:none": "no",
    "capacity": "2",
    "disused:amenity": "charging_station",
    "email": "apoio.cliente@kmlowcost.com",
    "fee": "yes",
    "location": "underground",
    "motorcar": "yes",
    "name": "ALM-00007",
    "network": "Mobi.E",
    "opening_hours": "24/7",
    "operator": "KLC",
    "parking:fee": "yes",
    "phone": "+351 800 296 929",
    "ref": "ALM-90007",
    "socket:type2": "2",
    "socket:type2:current": "16",
    "socket:type2:output": "3.7kW",
    "socket:type2:voltage": "230",
    "website": "https://www.mobie.pt/",
    "id": "node/8119362927"
  },
  "geometry": {
    "type": "Point",
    "coordinates": [
      -9.1654864,
      38.669354
    ]
  }
},
{
  "type": "Feature",
  "id": "node/8119362928",
  "properties": {
    "access": "yes",
    "addr:country": "PT",
    "authentication:membership_card": "yes",
    "authentication:none": "no",
    "capacity": "2",
    "disused:amenity": "charging_station",
    "email": "mobilidade.electricacrc@galp.com",
    "fee": "yes",
    "location": "underground",
    "motorcar": "yes",
    "name": "ALM-00008",
    "network": "Mobi.E",
    "opening_hours": "24/7",
    "operator": "Galp Power",
    "parking:fee": "yes",
    "phone": "+351 800 249 249",
    "ref": "ALM-00008",
    "socket:type2": "2",
    "socket:type2:current": "16",
    "socket:type2:output": "3.7kW",
    "socket:type2:voltage": "230",
    "website": "https://www.mobie.pt/",
    "id": "node/8119362928"
  },
  "geometry": {
    "type": "Point",
    "coordinates": [
      -9.1529471,
      38.6545749
    ]
  }
},
{
  "type": "Feature",
  "id": "node/8121815336",
  "properties": {
    "access": "yes",
    "addr:country": "PT",
    "authentication:membership_card": "yes",
    "authentication:none": "no",
    "capacity": "2",
    "disused:amenity": "charging_station",
    "email": "mobilidade-eletrica@edp.pt",
    "fee": "yes",
    "motorcar": "yes",
    "name": "SNT-00001",
    "network": "Mobi.E",
    "opening_hours": "24/7",
    "operator": "EDP Comercial",
    "parking:fee": "yes",
    "phone": "+351 800 222 222",
    "ref": "SNT-00001",
    "socket:type2": "2",
    "socket:type2:current": "32",
    "socket:type2:output": "7.4kW",
    "socket:type2:voltage": "230",
    "website": "https://www.mobie.pt/",
    "id": "node/8121815336"
  },
  "geometry": {
    "type": "Point",
    "coordinates": [
      -9.3866104,
      38.7985299
    ]
  }
},
{
  "type": "Feature",
  "id": "node/8121815340",
  "properties": {
    "access": "yes",
    "addr:country": "PT",
    "authentication:membership_card": "yes",
    "authentication:none": "no",
    "capacity": "2",
    "disused:amenity": "charging_station",
    "email": "ajuda@powerdot.pt",
    "fee": "yes",
    "motorcar": "yes",
    "name": "SNT-00025",
    "network": "Mobi.E",
    "opening_hours": "24/7",
    "operator": "Powerdot",
    "parking:fee": "no",
    "phone": "+351 800 180 292",
    "ref": "SNT-90025",
    "socket:type2": "2",
    "socket:type2:current": "16",
    "socket:type2:output": "3.7kW",
    "socket:type2:voltage": "230",
    "website": "https://www.mobie.pt/",
    "id": "node/8121815340"
  },
  "geometry": {
    "type": "Point",
    "coordinates": [
      -9.387641,
      38.7881598
    ]
  }
},
{
  "type": "Feature",
  "id": "node/8121969369",
  "properties": {
    "access": "yes",
    "addr:country": "PT",
    "authentication:membership_card": "yes",
    "authentication:none": "no",
    "capacity": "2",
    "disused:amenity": "charging_station",
    "email": "electric@prioenergy.com",
    "fee": "yes",
    "location": "underground",
    "motorcar": "yes",
    "name": "AMD-00002",
    "network": "Mobi.E",
    "opening_hours": "24/7",
    "operator": "Prio.E",
    "parking:fee": "yes",
    "phone": "+351 800 450 111",
    "ref": "AMD-00002",
    "socket:type2": "2",
    "socket:type2:current": "16",
    "socket:type2:output": "3.7kW",
    "socket:type2:voltage": "230",
    "website": "https://www.mobie.pt/",
    "id": "node/8121969369"
  },
  "geometry": {
    "type": "Point",
    "coordinates": [
      -9.2142396,
      38.7484491
    ]
  }
},
{
  "type": "Feature",
  "id": "node/8126753541",
  "properties": {
    "access": "yes",
    "addr:country": "PT",
    "authentication:membership_card": "yes",
    "authentication:none": "no",
    "capacity": "2",
    "disused:amenity": "charging_station",
    "email": "mobilidade-eletrica@edp.pt",
    "fee": "yes",
    "motorcar": "yes",
    "name": "LRS-00021",
    "network": "Mobi.E",
    "opening_hours": "24/7",
    "operator": "EDP Comercial",
    "parking:fee": "no",
    "phone": "+351 800 222 222",
    "ref": "LRS-00021",
    "socket:type2": "2",
    "socket:type2:current": "16",
    "socket:type2:output": "3.7kW",
    "socket:type2:voltage": "230",
    "website": "https://www.mobie.pt/",
    "id": "node/8126753541"
  },
  "geometry": {
    "type": "Point",
    "coordinates": [
      -9.1019771,
      38.7945827
    ]
  }
},
{
  "type": "Feature",
  "id": "node/8132374182",
  "properties": {
    "access": "yes",
    "addr:country": "PT",
    "authentication:membership_card": "yes",
    "authentication:none": "no",
    "capacity": "2",
    "disused:amenity": "charging_station",
    "email": "ajuda@powerdot.pt",
    "fee": "yes",
    "motorcar": "yes",
    "name": "STR-00010",
    "network": "Mobi.E",
    "opening_hours": "24/7",
    "operator": "Powerdot",
    "parking:fee": "no",
    "phone": "+351 800 180 292",
    "ref": "STR-90010",
    "socket:type2": "2",
    "socket:type2:current": "16",
    "socket:type2:output": "3.7kW",
    "socket:type2:voltage": "230",
    "website": "https://www.mobie.pt/",
    "id": "node/8132374182"
  },
  "geometry": {
    "type": "Point",
    "coordinates": [
      -8.8205529,
      39.4142109
    ]
  }
},
{
  "type": "Feature",
  "id": "node/8132583522",
  "properties": {
    "access": "yes",
    "addr:country": "PT",
    "authentication:membership_card": "yes",
    "authentication:none": "no",
    "capacity": "3",
    "disused:amenity": "charging_station",
    "email": "apoio.cliente@kmlowcost.com",
    "fee": "yes",
    "motorcar": "yes",
    "name": "CLB-00004/5/6 - Muito Menos",
    "network": "Mobi.E",
    "note": "No parque de estacionamento. Se estiver fechado pedir na recepção para abrir.",
    "opening_hours": "Mo-Su 09:00-21:00",
    "operator": "KLC",
    "parking:fee": "no",
    "phone": "+351 800 296 929",
    "ref": "CLB-00004;CLB-00005;CLB-00006",
    "socket:type2": "3",
    "socket:type2:current": "32",
    "socket:type2:output": "7.4kW",
    "socket:type2:voltage": "230",
    "website": "https://www.mobie.pt/",
    "id": "node/8132583522"
  },
  "geometry": {
    "type": "Point",
    "coordinates": [
      -7.4023015,
      40.6259877
    ]
  }
},
{
  "type": "Feature",
  "id": "node/8132600675",
  "properties": {
    "access": "yes",
    "addr:country": "PT",
    "authentication:membership_card": "yes",
    "authentication:none": "no",
    "capacity": "2",
    "disused:amenity": "charging_station",
    "email": "ajuda@powerdot.pt",
    "fee": "yes",
    "motorcar": "yes",
    "name": "LMG-00001",
    "network": "Mobi.E",
    "opening_hours": "24/7",
    "operator": "Powerdot",
    "parking:fee": "no",
    "phone": "+351 800 180 292",
    "ref": "LMG-00001",
    "socket:type2": "2",
    "socket:type2:current": "16",
    "socket:type2:output": "3.7kW",
    "socket:type2:voltage": "230",
    "website": "https://www.mobie.pt/",
    "id": "node/8132600675"
  },
  "geometry": {
    "type": "Point",
    "coordinates": [
      -7.8113651,
      41.0942323
    ]
  }
},
{
  "type": "Feature",
  "id": "node/8143027997",
  "properties": {
    "access": "yes",
    "addr:country": "PT",
    "authentication:membership_card": "yes",
    "authentication:none": "no",
    "capacity": "2",
    "disused:amenity": "charging_station",
    "email": "apoio.cliente@kmlowcost.com",
    "fee": "yes",
    "motorcar": "yes",
    "name": "GRD-00003",
    "network": "Mobi.E",
    "opening_hours": "24/7",
    "operator": "KLC",
    "parking:fee": "no",
    "phone": "+351 800 296 929",
    "ref": "GRD-90003",
    "socket:type2": "2",
    "socket:type2:current": "16",
    "socket:type2:output": "3.7kW",
    "socket:type2:voltage": "230",
    "website": "https://www.mobie.pt/",
    "id": "node/8143027997"
  },
  "geometry": {
    "type": "Point",
    "coordinates": [
      -7.2770905,
      40.5375451
    ]
  }
},
{
  "type": "Feature",
  "id": "node/8147608432",
  "properties": {
    "access": "yes",
    "addr:country": "PT",
    "addr:street": "Rua Alferes Barrilaro Ruas",
    "authentication:membership_card": "yes",
    "authentication:none": "no",
    "capacity": "2",
    "disused:amenity": "charging_station",
    "email": "mobilidade-eletrica@edp.pt",
    "fee": "yes",
    "motorcar": "yes",
    "name": "LSB-00139",
    "network": "Mobi.E",
    "opening_hours": "24/7",
    "operator": "EDP Comercial",
    "parking:fee": "no",
    "phone": "+351 800 222 222",
    "ref": "LSB-90139",
    "socket:type2": "2",
    "socket:type2:current": "16",
    "socket:type2:output": "3.7kW",
    "socket:type2:voltage": "230",
    "website": "https://www.mobie.pt/",
    "id": "node/8147608432"
  },
  "geometry": {
    "type": "Point",
    "coordinates": [
      -9.1124648,
      38.7752648
    ]
  }
},
{
  "type": "Feature",
  "id": "node/8220843747",
  "properties": {
    "access": "yes",
    "addr:city": "Madalena",
    "addr:country": "PT",
    "addr:street": "Rua Doutor Manuel de Arriaga",
    "authentication:membership_card": "yes",
    "authentication:none": "no",
    "capacity": "2",
    "disused:amenity": "charging_station",
    "email": "mobilidade.electricacrc@galp.com",
    "fee": "yes",
    "motorcar": "yes",
    "name": "MAD-00001",
    "network": "Mobi.E",
    "opening_hours": "24/7",
    "operator": "Galp Geste",
    "parking:fee": "no",
    "phone": "+351 800 249 249",
    "ref": "MAD-00001",
    "socket:chademo": "1",
    "socket:chademo:current": "120",
    "socket:chademo:output": "50kW",
    "socket:chademo:voltage": "500",
    "socket:type2_cable": "1",
    "socket:type2_cable:current": "63",
    "socket:type2_cable:output": "43kW",
    "socket:type2_cable:voltage": "400",
    "socket:type2_combo": "1",
    "socket:type2_combo:current": "125",
    "socket:type2_combo:output": "50kW",
    "socket:type2_combo:voltage": "500",
    "website": "https://www.mobie.pt/",
    "id": "node/8220843747"
  },
  "geometry": {
    "type": "Point",
    "coordinates": [
      -28.5307726,
      38.5258318
    ]
  }
},
{
  "type": "Feature",
  "id": "node/8270246279",
  "properties": {
    "access": "yes",
    "addr:country": "PT",
    "authentication:membership_card": "yes",
    "authentication:none": "no",
    "capacity": "2",
    "disused:amenity": "charging_station",
    "email": "electric@prioenergy.com",
    "fee": "yes",
    "motorcar": "yes",
    "name": "PTM-00002",
    "network": "Mobi.E",
    "opening_hours": "24/7",
    "operator": "Prio.E",
    "parking:fee": "no",
    "phone": "+351 800 450 111",
    "ref": "PTM-00002",
    "socket:type2": "2",
    "socket:type2:current": "32",
    "socket:type2:output": "22kW",
    "socket:type2:voltage": "400",
    "website": "https://www.mobie.pt/",
    "id": "node/8270246279"
  },
  "geometry": {
    "type": "Point",
    "coordinates": [
      -8.5508341,
      37.1535936
    ]
  }
},
{
  "type": "Feature",
  "id": "node/8289261751",
  "properties": {
    "access": "yes",
    "addr:country": "PT",
    "authentication:membership_card": "yes",
    "authentication:none": "no",
    "capacity": "2",
    "disused:amenity": "charging_station",
    "email": "mobilidade.electricacrc@galp.com",
    "fee": "yes",
    "motorcar": "yes",
    "name": "PRL-00001",
    "network": "Mobi.E",
    "opening_hours": "24/7",
    "operator": "Galp Power",
    "parking:fee": "no",
    "phone": "+351 800 249 249",
    "ref": "PRL-90001",
    "socket:type2": "2",
    "socket:type2:current": "32",
    "socket:type2:output": "22kW",
    "socket:type2:voltage": "400",
    "website": "https://www.mobie.pt/",
    "id": "node/8289261751"
  },
  "geometry": {
    "type": "Point",
    "coordinates": [
      -7.7082369,
      38.3065975
    ]
  }
},
{
  "type": "Feature",
  "id": "node/8289278913",
  "properties": {
    "access": "yes",
    "addr:country": "PT",
    "authentication:membership_card": "yes",
    "authentication:none": "no",
    "capacity": "2",
    "disused:amenity": "charging_station",
    "email": "mobilidade-eletrica@edp.pt",
    "fee": "yes",
    "motorcar": "yes",
    "name": "ADL-00001",
    "network": "Mobi.E",
    "opening_hours": "24/7",
    "operator": "EDP Comercial",
    "parking:fee": "no",
    "phone": "+351 800 222 222",
    "ref": "ADL-00001",
    "socket:type2": "2",
    "socket:type2:current": "32",
    "socket:type2:output": "22kW",
    "socket:type2:voltage": "400",
    "website": "https://www.mobie.pt/",
    "id": "node/8289278913"
  },
  "geometry": {
    "type": "Point",
    "coordinates": [
      -7.4056153,
      38.7023813
    ]
  }
},
{
  "type": "Feature",
  "id": "node/8289566369",
  "properties": {
    "access": "yes",
    "addr:country": "PT",
    "authentication:membership_card": "yes",
    "authentication:none": "no",
    "capacity": "2",
    "disused:amenity": "charging_station",
    "email": "mobilidade-eletrica@edp.pt",
    "fee": "yes",
    "location": "underground",
    "motorcar": "yes",
    "name": "ALM-00005",
    "network": "Mobi.E",
    "opening_hours": "24/7",
    "operator": "EDP Comercial",
    "parking:fee": "no",
    "phone": "+351 800 222 222",
    "ref": "ALM-00005",
    "socket:type2": "2",
    "socket:type2:current": "16",
    "socket:type2:output": "3.7kW",
    "socket:type2:voltage": "230",
    "website": "https://www.mobie.pt/",
    "id": "node/8289566369"
  },
  "geometry": {
    "type": "Point",
    "coordinates": [
      -9.1608509,
      38.6813662
    ]
  }
},
{
  "type": "Feature",
  "id": "node/8301177096",
  "properties": {
    "access": "customers",
    "addr:country": "PT",
    "authentication:membership_card": "yes",
    "authentication:none": "no",
    "capacity": "2",
    "disused:amenity": "charging_station",
    "email": "ajuda@powerdot.pt",
    "fee": "yes",
    "motorcar": "yes",
    "name": "LSB-00208",
    "network": "Mobi.E",
    "opening_hours": "24/7",
    "operator": "Powerdot",
    "parking:fee": "yes",
    "phone": "+351 800 180 292",
    "ref": "LSB-00208",
    "socket:type2": "2",
    "socket:type2:current": "32",
    "socket:type2:output": "7.4kW",
    "socket:type2:voltage": "230",
    "website": "https://www.mobie.pt/",
    "id": "node/8301177096"
  },
  "geometry": {
    "type": "Point",
    "coordinates": [
      -9.1594139,
      38.7208129
    ]
  }
},
{
  "type": "Feature",
  "id": "node/8301177097",
  "properties": {
    "access": "customers",
    "addr:country": "PT",
    "authentication:membership_card": "yes",
    "authentication:none": "no",
    "capacity": "2",
    "disused:amenity": "charging_station",
    "email": "ajuda@powerdot.pt",
    "fee": "yes",
    "motorcar": "yes",
    "name": "LSB-00210",
    "network": "Mobi.E",
    "opening_hours": "24/7",
    "operator": "Powerdot",
    "parking:fee": "yes",
    "phone": "+351 800 180 292",
    "ref": "LSB-00210",
    "socket:type2": "2",
    "socket:type2:current": "32",
    "socket:type2:output": "7.4kW",
    "socket:type2:voltage": "230",
    "website": "https://www.mobie.pt/",
    "id": "node/8301177097"
  },
  "geometry": {
    "type": "Point",
    "coordinates": [
      -9.1593998,
      38.7208317
    ]
  }
},
{
  "type": "Feature",
  "id": "node/8308985789",
  "properties": {
    "access": "yes",
    "addr:country": "PT",
    "authentication:membership_card": "yes",
    "authentication:none": "no",
    "capacity": "4",
    "disused:amenity": "charging_station",
    "fee": "yes",
    "location": "underground",
    "motorcar": "yes",
    "name": "LSB-00161/162/164/165 - Parque Estacionamento Arco do Cego",
    "network": "Mobi.E",
    "opening_hours": "24/7",
    "operator": "Maksu Services",
    "parking:fee": "yes",
    "ref": "LSB-00161;LSB-00162;LSB-00164;LSB-00165",
    "socket:type2": "4",
    "socket:type2:current": "32",
    "socket:type2:output": "22kW",
    "socket:type2:voltage": "400",
    "website": "https://www.mobie.pt/",
    "id": "node/8308985789"
  },
  "geometry": {
    "type": "Point",
    "coordinates": [
      -9.1429961,
      38.736217
    ]
  }
},
{
  "type": "Feature",
  "id": "node/8418708474",
  "properties": {
    "access": "yes",
    "addr:country": "PT",
    "authentication:membership_card": "yes",
    "authentication:none": "no",
    "capacity": "2",
    "disused:amenity": "charging_station",
    "email": "mobilidade-eletrica@edp.pt",
    "fee": "yes",
    "motorcar": "yes",
    "name": "ALM-00006",
    "network": "Mobi.E",
    "opening_hours": "Mo-Su 08:00-20:00",
    "operator": "EDP Comercial",
    "parking:fee": "yes",
    "phone": "+351 800 222 222",
    "ref": "ALM-00006",
    "socket:type2": "2",
    "socket:type2:current": "16",
    "socket:type2:output": "3.7kW",
    "socket:type2:voltage": "230",
    "website": "https://www.mobie.pt/",
    "id": "node/8418708474"
  },
  "geometry": {
    "type": "Point",
    "coordinates": [
      -9.1659048,
      38.6755598
    ]
  }
},
{
  "type": "Feature",
  "id": "node/8427186506",
  "properties": {
    "access": "yes",
    "addr:country": "PT",
    "authentication:membership_card": "yes",
    "authentication:none": "no",
    "capacity": "2",
    "disused:amenity": "charging_station",
    "fee": "yes",
    "motorcar": "yes",
    "name": "HRT-00003",
    "network": "Mobi.E",
    "opening_hours": "24/7",
    "operator": "SEGMA",
    "parking:fee": "no",
    "ref": "HRT-00003",
    "socket:type2": "2",
    "socket:type2:current": "32",
    "socket:type2:output": "22kW",
    "socket:type2:voltage": "400",
    "website": "https://www.mobie.pt/",
    "id": "node/8427186506"
  },
  "geometry": {
    "type": "Point",
    "coordinates": [
      -28.626321,
      38.5372565
    ]
  }
},
{
  "type": "Feature",
  "id": "node/8436175699",
  "properties": {
    "access": "yes",
    "addr:country": "PT",
    "authentication:membership_card": "yes",
    "authentication:none": "no",
    "capacity": "2",
    "disused:amenity": "charging_station",
    "fee": "yes",
    "motorcar": "yes",
    "name": "RPN-00002",
    "network": "Mobi.E",
    "opening_hours": "24/7",
    "operator": "Muvext",
    "parking:fee": "no",
    "ref": "RPN-00002",
    "socket:type2": "2",
    "socket:type2:current": "32",
    "socket:type2:output": "7.4kW",
    "socket:type2:voltage": "230",
    "website": "https://www.mobie.pt/",
    "id": "node/8436175699"
  },
  "geometry": {
    "type": "Point",
    "coordinates": [
      -7.801746,
      41.503662
    ]
  }
},
{
  "type": "Feature",
  "id": "node/8464696457",
  "properties": {
    "access": "yes",
    "addr:country": "PT",
    "authentication:membership_card": "yes",
    "authentication:none": "no",
    "capacity": "2",
    "disused:amenity": "charging_station",
    "fee": "yes",
    "motorcar": "yes",
    "name": "MGL-00002",
    "network": "Mobi.E",
    "opening_hours": "24/7",
    "operator": "Mobi.E",
    "parking:fee": "no",
    "ref": "MGL-00002",
    "socket:type2": "2",
    "socket:type2:current": "16",
    "socket:type2:output": "3.7kW",
    "socket:type2:voltage": "230",
    "website": "https://www.mobie.pt/",
    "id": "node/8464696457"
  },
  "geometry": {
    "type": "Point",
    "coordinates": [
      -7.7522472,
      40.6033556
    ]
  }
},
{
  "type": "Feature",
  "id": "node/8975160855",
  "properties": {
    "access": "yes",
    "addr:country": "PT",
    "authentication:membership_card": "yes",
    "authentication:none": "no",
    "capacity": "2",
    "disused:amenity": "charging_station",
    "email": "renewing.charging@mota-engil.pt",
    "fee": "yes",
    "motorcar": "yes",
    "name": "SNT-00042 - Alegro Sintra",
    "network": "Mobi.E",
    "opening_hours": "24/7",
    "operator": "Mota Engil II",
    "parking:fee": "no",
    "phone": "+351 214 158 200",
    "ref": "SNT-00042",
    "socket:type2": "2",
    "socket:type2:current": "32",
    "socket:type2:output": "22kW",
    "socket:type2:voltage": "400",
    "website": "https://www.mobie.pt/",
    "id": "node/8975160855"
  },
  "geometry": {
    "type": "Point",
    "coordinates": [
      -9.3419735,
      38.7749786
    ]
  }
}
]
}
