{
  "version": 0.6,
  "generator": "Overpass API 0.7.56.9 76e5016d",
  "osm3s": {
    "copyright": "The data included in this document is from www.openstreetmap.org. The data is made available under ODbL."
  },
  "elements": [

{
  "type": "node",
  "id": 966120783,
  "lat": 38.7781734,
  "lon": -9.0975198,
  "tags": {
    "access": "yes",
    "addr:city": "Lisboa",
    "addr:country": "PT",
    "addr:postcode": "1990",
    "addr:street": "Avenida Dom João II",
    "authentication:membership_card": "yes",
    "authentication:none": "no",
    "capacity": "2",
    "disused:amenity": "charging_station",
    "email": "mobilidade-eletrica@edp.pt",
    "fee": "yes",
    "motorcar": "yes",
    "name": "LSB-00032",
    "network": "Mobi.E",
    "opening_hours": "24/7",
    "operator": "EDP Comercial",
    "parking:fee": "no",
    "phone": "+351 800 222 222",
    "ref": "LSB-00032",
    "socket:type2": "2",
    "socket:type2:current": "16",
    "socket:type2:output": "3.7kW",
    "socket:type2:voltage": "230",
    "website": "https://www.mobie.pt/"
  }
},
{
  "type": "node",
  "id": 966120976,
  "lat": 41.8048300,
  "lon": -6.7580000,
  "tags": {
    "access": "yes",
    "addr:city": "Bragança",
    "addr:country": "PT",
    "addr:postcode": "5300",
    "addr:street": "Jardim António José de Almeida",
    "authentication:membership_card": "yes",
    "authentication:none": "no",
    "capacity": "2",
    "disused:amenity": "charging_station",
    "email": "ajuda@powerdot.pt",
    "fee": "yes",
    "motorcar": "yes",
    "name": "BGC-00002",
    "network": "Mobi.E",
    "opening_hours": "24/7",
    "operator": "Powerdot",
    "parking:fee": "no",
    "phone": "+351 800 180 292",
    "ref": "BGC-90002",
    "socket:type2": "2",
    "socket:type2:current": "16",
    "socket:type2:output": "3.7kW",
    "socket:type2:voltage": "230",
    "website": "https://www.mobie.pt/"
  }
},
{
  "type": "node",
  "id": 2084642560,
  "lat": 41.6947381,
  "lon": -8.8311839,
  "tags": {
    "access": "yes",
    "addr:country": "PT",
    "addr:street": "Avenida dos Combatentes da Grande Guerra",
    "authentication:membership_card": "yes",
    "authentication:none": "no",
    "capacity": "2",
    "disused:amenity": "charging_station",
    "fee": "yes",
    "motorcar": "yes",
    "name": "VCT-00002",
    "network": "Mobi.E",
    "opening_hours": "24/7",
    "operator": "Galp Power",
    "parking:fee": "no",
    "ref": "VCT-00002",
    "socket:type2": "2",
    "socket:type2:current": "32",
    "socket:type2:output": "7.4kW",
    "socket:type2:voltage": "230",
    "website": "https://www.mobie.pt/"
  }
},
{
  "type": "node",
  "id": 2084661709,
  "lat": 41.6932942,
  "lon": -8.8460784,
  "tags": {
    "access": "yes",
    "addr:city": "Viana do Castelo",
    "addr:country": "PT",
    "addr:street": "Avenida do Atlântico",
    "authentication:membership_card": "yes",
    "authentication:none": "no",
    "capacity": "2",
    "disused:amenity": "charging_station",
    "email": "apoio.cliente@kmlowcost.com",
    "fee": "yes",
    "motorcar": "yes",
    "name": "VCT-00003",
    "network": "Mobi.E",
    "opening_hours": "24/7",
    "operator": "KLC",
    "parking:fee": "no",
    "phone": "+351 800 296 929",
    "ref": "VCT-90003",
    "socket:type2": "2",
    "socket:type2:current": "32",
    "socket:type2:output": "7.4kW",
    "socket:type2:voltage": "230",
    "website": "https://www.mobie.pt/"
  }
},
{
  "type": "node",
  "id": 2731614731,
  "lat": 41.6431572,
  "lon": -8.7712526,
  "tags": {
    "access": "yes",
    "addr:country": "PT",
    "authentication:membership_card": "yes",
    "authentication:none": "no",
    "capacity": "2",
    "disused:amenity": "charging_station",
    "email": "apoio.cliente@kmlowcost.com",
    "fee": "yes",
    "motorcar": "yes",
    "name": "VCT-00007",
    "network": "Mobi.E",
    "opening_hours": "24/7",
    "operator": "KLC",
    "parking:fee": "no",
    "phone": "+351 800 296 929",
    "ref": "VCT-90007",
    "socket:type2": "2",
    "socket:type2:current": "16",
    "socket:type2:output": "3.7kW",
    "socket:type2:voltage": "230",
    "transportation": "charging_station",
    "website": "https://www.mobie.pt/"
  }
},
{
  "type": "node",
  "id": 3341738003,
  "lat": 41.1289487,
  "lon": -8.6676454,
  "tags": {
    "access": "yes",
    "addr:country": "PT",
    "authentication:membership_card": "yes",
    "authentication:none": "no",
    "capacity": "2",
    "disused:amenity": "charging_station",
    "email": "mobilidade-eletrica@edp.pt",
    "fee": "yes",
    "motorcar": "yes",
    "name": "VNG-00013",
    "network": "Mobi.E",
    "opening_hours": "24/7",
    "operator": "EDP Comercial",
    "parking:fee": "no",
    "phone": "+351 800 222 222",
    "ref": "VNG-90013",
    "socket:type2": "2",
    "socket:type2:current": "16",
    "socket:type2:output": "3.7kW",
    "socket:type2:voltage": "230",
    "website": "https://www.mobie.pt/"
  }
},
{
  "type": "node",
  "id": 3341794812,
  "lat": 41.0693332,
  "lon": -8.6561008,
  "tags": {
    "access": "yes",
    "addr:country": "PT",
    "authentication:membership_card": "yes",
    "authentication:none": "no",
    "capacity": "2",
    "disused:amenity": "charging_station",
    "email": "mobilidade-eletrica@edp.pt",
    "fee": "yes",
    "motorcar": "yes",
    "name": "VNG-00012",
    "network": "Mobi.E",
    "opening_hours": "24/7",
    "operator": "EDP Comercial",
    "parking:fee": "no",
    "phone": "+351 800 222 222",
    "ref": "VNG-00012",
    "socket:type2": "2",
    "socket:type2:current": "32",
    "socket:type2:output": "7.4kW",
    "socket:type2:voltage": "230",
    "website": "https://www.mobie.pt/"
  }
},
{
  "type": "node",
  "id": 3612876421,
  "lat": 41.4448216,
  "lon": -8.2915479,
  "tags": {
    "access": "yes",
    "addr:country": "PT",
    "authentication:membership_card": "yes",
    "authentication:none": "no",
    "capacity": "2",
    "disused:amenity": "charging_station",
    "fee": "yes",
    "motorcar": "yes",
    "name": "GMR-00001",
    "network": "Mobi.E",
    "opening_hours": "24/7",
    "operator": "Galp Power",
    "parking:fee": "no",
    "ref": "GMR-00001",
    "socket:type2": "2",
    "socket:type2:current": "32",
    "socket:type2:output": "7.4kW",
    "socket:type2:voltage": "230",
    "website": "https://www.mobie.pt/"
  }
},
{
  "type": "node",
  "id": 3697279495,
  "lat": 38.6944796,
  "lon": -9.4229035,
  "tags": {
    "access": "yes",
    "addr:country": "PT",
    "authentication:membership_card": "yes",
    "authentication:none": "no",
    "capacity": "2",
    "disused:amenity": "charging_station",
    "email": "apoio.cliente@kmlowcost.com",
    "fee": "yes",
    "motorcar": "yes",
    "name": "CSC-00002",
    "network": "Mobi.E",
    "opening_hours": "24/7",
    "operator": "KLC",
    "parking:fee": "no",
    "phone": "+351 800 296 929",
    "ref": "CSC-90002",
    "socket:type2": "2",
    "socket:type2:current": "32",
    "socket:type2:output": "7.4kW",
    "socket:type2:voltage": "230",
    "website": "https://www.mobie.pt/"
  }
},
{
  "type": "node",
  "id": 3703042039,
  "lat": 38.7339863,
  "lon": -9.1054622,
  "tags": {
    "access": "yes",
    "addr:city": "Lisboa",
    "addr:country": "PT",
    "addr:housenumber": "41",
    "addr:postcode": "1950-142 Beato",
    "addr:street": "Alameda do Beato",
    "authentication:membership_card": "yes",
    "authentication:none": "no",
    "capacity": "2",
    "disused:amenity": "charging_station",
    "email": "ajuda@powerdot.pt",
    "fee": "yes",
    "motorcar": "yes",
    "name": "LSB-00146",
    "network": "Mobi.E",
    "opening_hours": "24/7",
    "operator": "Powerdot",
    "parking:fee": "no",
    "phone": "+351 800 180 292",
    "ref": "LSB-90146",
    "socket:type2": "2",
    "socket:type2:current": "16",
    "socket:type2:output": "3.7kW",
    "socket:type2:voltage": "230",
    "website": "https://www.mobie.pt/"
  }
},
{
  "type": "node",
  "id": 3703042043,
  "lat": 38.7437338,
  "lon": -9.1325704,
  "tags": {
    "access": "yes",
    "addr:city": "Lisboa",
    "addr:country": "PT",
    "addr:postcode": "1000-011",
    "addr:street": "Avenida Almirante Gago Coutinho",
    "authentication:membership_card": "yes",
    "authentication:none": "no",
    "capacity": "6",
    "disused:amenity": "charging_station",
    "fee": "yes",
    "motorcar": "yes",
    "name": "LSB-01120",
    "network": "Mobi.E",
    "opening_hours": "24/7",
    "operator": "Mobi.E",
    "parking:fee": "yes",
    "ref": "LSB-01120",
    "socket:type2": "6",
    "socket:type2:current": "16",
    "socket:type2:output": "3.7kW",
    "socket:type2:voltage": "230",
    "website": "https://www.mobie.pt/"
  }
},
{
  "type": "node",
  "id": 3706318965,
  "lat": 38.7212869,
  "lon": -9.1350475,
  "tags": {
    "access": "yes",
    "addr:city": "Lisboa",
    "addr:country": "PT",
    "addr:housenumber": "5",
    "addr:postcode": "1169 - 199",
    "addr:street": "Travessa do Cidadão João Gonçalves",
    "authentication:membership_card": "yes",
    "authentication:none": "no",
    "capacity": "2",
    "disused:amenity": "charging_station",
    "email": "mobilidade-eletrica@edp.pt",
    "fee": "yes",
    "motorcar": "yes",
    "name": "LSB-00123",
    "network": "Mobi.E",
    "opening_hours": "24/7",
    "operator": "EDP Comercial",
    "parking:fee": "no",
    "phone": "+351 800 222 222",
    "ref": "LSB-00123",
    "socket:type2": "2",
    "socket:type2:current": "32",
    "socket:type2:output": "22kW",
    "socket:type2:voltage": "400",
    "website": "https://www.mobie.pt/"
  }
},
{
  "type": "node",
  "id": 3724919247,
  "lat": 38.7571928,
  "lon": -9.1549373,
  "tags": {
    "access": "yes",
    "addr:city": "Lisboa",
    "addr:country": "PT",
    "addr:postcode": "1700-097",
    "addr:street": "Campo Grande",
    "authentication:membership_card": "yes",
    "authentication:none": "no",
    "capacity": "6",
    "disused:amenity": "charging_station",
    "fee": "yes",
    "motorcar": "yes",
    "name": "LSB-01070",
    "network": "Mobi.E",
    "opening_hours": "24/7",
    "operator": "Mobi.E",
    "parking:fee": "yes",
    "ref": "LSB-01070",
    "socket:type2": "6",
    "socket:type2:current": "16",
    "socket:type2:output": "3.7kW",
    "socket:type2:voltage": "230",
    "website": "https://www.mobie.pt/"
  }
},
{
  "type": "node",
  "id": 3724919265,
  "lat": 38.7410880,
  "lon": -9.1468283,
  "tags": {
    "access": "yes",
    "addr:city": "Lisboa",
    "addr:country": "PT",
    "addr:housenumber": "75",
    "addr:postcode": "1050-189",
    "addr:street": "Avenida da República",
    "authentication:membership_card": "yes",
    "authentication:none": "no",
    "capacity": "2",
    "disused:amenity": "charging_station",
    "email": "ajuda@powerdot.pt",
    "fee": "yes",
    "motorcar": "yes",
    "name": "LSB-00103",
    "network": "Mobi.E",
    "opening_hours": "24/7",
    "operator": "Powerdot",
    "parking:fee": "no",
    "phone": "+351 800 180 292",
    "ref": "LSB-90103",
    "socket:type2": "2",
    "socket:type2:current": "32",
    "socket:type2:output": "22kW",
    "socket:type2:voltage": "400",
    "website": "https://www.mobie.pt/"
  }
},
{
  "type": "node",
  "id": 3930573509,
  "lat": 40.2116836,
  "lon": -8.4263184,
  "tags": {
    "access": "yes",
    "addr:city": "Coimbra",
    "addr:country": "PT",
    "addr:postcode": "3000",
    "addr:street": "Rua Olímpio Nicolau Rui Fernandes",
    "authentication:membership_card": "yes",
    "authentication:none": "no",
    "capacity": "4",
    "disused:amenity": "charging_station",
    "email": "mobilidade.electricacrc@galp.com",
    "fee": "yes",
    "motorcar": "yes",
    "name": "CBR-00001",
    "network": "Mobi.E",
    "note": "Located inside municipal parking area",
    "opening_hours": "24/7",
    "operator": "Galp Power",
    "parking:fee": "yes",
    "phone": "+351 800 249 249",
    "ref": "CBR-90001",
    "socket:type2": "4",
    "socket:type2:current": "16",
    "socket:type2:output": "3.7kW",
    "socket:type2:voltage": "230",
    "website": "https://www.mobie.pt/"
  }
},
{
  "type": "node",
  "id": 3930573516,
  "lat": 40.1973991,
  "lon": -8.4620397,
  "tags": {
    "access": "yes",
    "addr:city": "Coimbra",
    "addr:country": "PT",
    "addr:housenumber": "108",
    "addr:postcode": "3040",
    "addr:street": "Rua 5 de Outubro",
    "authentication:membership_card": "yes",
    "authentication:none": "no",
    "capacity": "2",
    "disused:amenity": "charging_station",
    "email": "ajuda@powerdot.pt",
    "fee": "yes",
    "motorcar": "yes",
    "name": "CBR-00008",
    "network": "Mobi.E",
    "opening_hours": "24/7",
    "operator": "Powerdot",
    "parking:fee": "no",
    "phone": "+351 800 180 292",
    "ref": "CBR-90008",
    "socket:type2": "2",
    "socket:type2:current": "16",
    "socket:type2:output": "3.7kW",
    "socket:type2:voltage": "230",
    "website": "https://www.mobie.pt/"
  }
},
{
  "type": "node",
  "id": 3930754460,
  "lat": 39.7397780,
  "lon": -8.8030895,
  "tags": {
    "access": "yes",
    "addr:city": "Leiria",
    "addr:country": "PT",
    "addr:street": "Avenida Nossa Senhora de Fátima",
    "authentication:membership_card": "yes",
    "authentication:none": "no",
    "capacity": "2",
    "disused:amenity": "charging_station",
    "fee": "yes",
    "motorcar": "yes",
    "name": "LRA-00010",
    "network": "Mobi.E",
    "opening_hours": "24/7",
    "operator": "EDP Comercial",
    "parking:fee": "no",
    "ref": "LRA-00010",
    "socket:type2": "2",
    "socket:type2:current": "16",
    "socket:type2:output": "3.7kW",
    "socket:type2:voltage": "230",
    "website": "https://www.mobie.pt/"
  }
},
{
  "type": "node",
  "id": 4285884102,
  "lat": 39.4071273,
  "lon": -9.1364151,
  "tags": {
    "access": "yes",
    "addr:city": "Caldas da Rainha",
    "addr:country": "PT",
    "addr:housenumber": "16",
    "addr:postcode": "2500-130",
    "addr:street": "Praça 25 de Abril",
    "authentication:membership_card": "yes",
    "authentication:none": "no",
    "capacity": "2",
    "disused:amenity": "charging_station",
    "email": "mobilidade-eletrica@edp.pt",
    "fee": "yes",
    "motorcar": "yes",
    "name": "CLD-00004",
    "network": "Mobi.E",
    "opening_hours": "24/7",
    "operator": "EDP Comercial",
    "parking:fee": "no",
    "phone": "+351 800 222 222",
    "ref": "CLD-00004",
    "socket:type2": "2",
    "socket:type2:current": "32",
    "socket:type2:output": "7.4kW",
    "socket:type2:voltage": "230",
    "website": "https://www.mobie.pt/"
  }
},
{
  "type": "node",
  "id": 4942633434,
  "lat": 41.6830083,
  "lon": -8.8325754,
  "tags": {
    "access": "yes",
    "addr:city": "Viana do Castelo",
    "addr:country": "PT",
    "addr:postcode": "4935",
    "addr:street": "Avenida do Cabedelo",
    "authentication:membership_card": "yes",
    "authentication:none": "no",
    "capacity": "2",
    "disused:amenity": "charging_station",
    "email": "ajuda@powerdot.pt",
    "fee": "yes",
    "motorcar": "yes",
    "name": "VCT-00006",
    "network": "Mobi.E",
    "opening_hours": "24/7",
    "operator": "Powerdot",
    "parking:fee": "no",
    "phone": "+351 800 180 292",
    "ref": "VCT-90006",
    "socket:type2": "2",
    "socket:type2:current": "16",
    "socket:type2:output": "3.7kW",
    "socket:type2:voltage": "230",
    "website": "https://www.mobie.pt/"
  }
},
{
  "type": "node",
  "id": 5349379982,
  "lat": 40.8351596,
  "lon": -8.4795222,
  "tags": {
    "access": "yes",
    "addr:country": "PT",
    "authentication:membership_card": "yes",
    "authentication:none": "no",
    "capacity": "2",
    "disused:amenity": "charging_station",
    "email": "electric@prioenergy.com",
    "fee": "yes",
    "motorcar": "yes",
    "name": "OAZ-00002",
    "network": "Mobi.E",
    "opening_hours": "24/7",
    "operator": "Prio.E",
    "parking:fee": "no",
    "phone": "+351 800 450 111",
    "ref": "OAZ-00002",
    "socket:type2": "2",
    "socket:type2:current": "32",
    "socket:type2:output": "22kW",
    "socket:type2:voltage": "400",
    "website": "https://www.mobie.pt/"
  }
},
{
  "type": "node",
  "id": 5349380815,
  "lat": 40.8319797,
  "lon": -8.4852973,
  "tags": {
    "access": "yes",
    "addr:country": "PT",
    "authentication:membership_card": "yes",
    "authentication:none": "no",
    "capacity": "2",
    "disused:amenity": "charging_station",
    "email": "electric@prioenergy.com",
    "fee": "yes",
    "motorcar": "yes",
    "name": "OAZ-00001",
    "network": "Mobi.E",
    "opening_hours": "24/7",
    "operator": "Prio.E",
    "parking:fee": "no",
    "phone": "+351 800 450 111",
    "ref": "OAZ-00001",
    "socket:type2": "2",
    "socket:type2:current": "32",
    "socket:type2:output": "22kW",
    "socket:type2:voltage": "400",
    "website": "https://www.mobie.pt/"
  }
},
{
  "type": "node",
  "id": 5398312785,
  "lat": 37.1485144,
  "lon": -8.7026607,
  "tags": {
    "access": "yes",
    "authentication:membership_card": "yes",
    "authentication:none": "no",
    "bicycle": "no",
    "capacity": "2",
    "disused:amenity": "charging_station",
    "email": "mobilidade.electricacrc@galp.com",
    "fee": "yes",
    "motorcar": "yes",
    "name": "LGS-00002",
    "network": "Mobi.E",
    "opening_hours": "24/7",
    "operator": "Galp Power",
    "parking:fee": "no",
    "phone": "+351 800 249 249",
    "ref": "LGS-00002",
    "socket:chademo": "1",
    "socket:chademo:current": "120",
    "socket:chademo:output": "50kW",
    "socket:chademo:voltage": "500",
    "socket:type2_cable": "1",
    "socket:type2_cable:current": "63",
    "socket:type2_cable:output": "43kW",
    "socket:type2_cable:voltage": "400",
    "socket:type2_combo": "1",
    "socket:type2_combo:current": "125",
    "socket:type2_combo:output": "50kW",
    "socket:type2_combo:voltage": "500",
    "website": "https://www.mobie.pt/"
  }
},
{
  "type": "node",
  "id": 5398312786,
  "lat": 37.1488153,
  "lon": -8.7039529,
  "tags": {
    "access": "yes",
    "authentication:membership_card": "yes",
    "authentication:none": "no",
    "bicycle": "no",
    "capacity": "2",
    "disused:amenity": "charging_station",
    "email": "mobilidade.electricacrc@galp.com",
    "fee": "yes",
    "motorcar": "yes",
    "name": "LGS-00003",
    "network": "Mobi.E",
    "opening_hours": "24/7",
    "operator": "Galp Power",
    "parking:fee": "no",
    "phone": "+351 800 249 249",
    "ref": "LGS-00003",
    "socket:chademo": "1",
    "socket:chademo:current": "120",
    "socket:chademo:output": "50kW",
    "socket:chademo:voltage": "500",
    "socket:type2_cable": "1",
    "socket:type2_cable:current": "63",
    "socket:type2_cable:output": "43kW",
    "socket:type2_cable:voltage": "400",
    "socket:type2_combo": "1",
    "socket:type2_combo:current": "125",
    "socket:type2_combo:output": "50kW",
    "socket:type2_combo:voltage": "500",
    "website": "https://www.mobie.pt/"
  }
},
{
  "type": "node",
  "id": 6622563117,
  "lat": 41.1531333,
  "lon": -8.6180203,
  "tags": {
    "access": "yes",
    "addr:country": "PT",
    "authentication:membership_card": "yes",
    "authentication:none": "no",
    "capacity": "4",
    "disused:amenity": "charging_station",
    "email": "mobilidade.electricacrc@galp.com",
    "fee": "yes",
    "motorcar": "yes",
    "name": "PRT-00081",
    "network": "Mobi.E",
    "opening_hours": "24/7",
    "operator": "Galp Power",
    "parking:fee": "no",
    "phone": "+351 800 249 249",
    "ref": "PRT-90081",
    "socket:type2": "4",
    "socket:type2:current": "16",
    "socket:type2:output": "3.7kW",
    "socket:type2:voltage": "230",
    "website": "https://www.mobie.pt/"
  }
},
{
  "type": "node",
  "id": 6635281056,
  "lat": 40.6372782,
  "lon": -7.9266601,
  "tags": {
    "access": "yes",
    "addr:country": "PT",
    "authentication:membership_card": "yes",
    "authentication:none": "no",
    "capacity": "2",
    "disused:amenity": "charging_station",
    "email": "mobilidade-eletrica@edp.pt",
    "fee": "yes",
    "motorcar": "yes",
    "name": "VIS-00055",
    "network": "Mobi.E",
    "opening_hours": "24/7",
    "operator": "EDP Comercial",
    "parking:fee": "no",
    "phone": "+351 800 222 222",
    "ref": "VIS-00055",
    "socket:type2": "2",
    "socket:type2:current": "32",
    "socket:type2:output": "22kW",
    "socket:type2:voltage": "400",
    "website": "https://www.mobie.pt/"
  }
},
{
  "type": "node",
  "id": 7126770379,
  "lat": 37.0195960,
  "lon": -7.9283148,
  "tags": {
    "access": "yes",
    "addr:city": "Faro",
    "addr:country": "PT",
    "addr:street": "Largo Francisco Sá Carneiro",
    "authentication:membership_card": "yes",
    "authentication:none": "no",
    "capacity": "2",
    "disused:amenity": "charging_station",
    "email": "mobilidade.electricacrc@galp.com",
    "fee": "yes",
    "motorcar": "yes",
    "name": "FAR-00004",
    "network": "Mobi.E",
    "opening_hours": "24/7",
    "operator": "Galp Power",
    "parking:fee": "no",
    "phone": "+351 800 249 249",
    "ref": "FAR-90004",
    "socket:type2": "2",
    "socket:type2:current": "32",
    "socket:type2:output": "7.4kW",
    "socket:type2:voltage": "230",
    "website": "https://www.mobie.pt/"
  }
},
{
  "type": "node",
  "id": 7137653607,
  "lat": 37.1416997,
  "lon": -8.5049307,
  "tags": {
    "access": "yes",
    "addr:city": "Parchal",
    "addr:country": "PT",
    "addr:street": "Parque Industrial do Pateiro",
    "authentication:membership_card": "yes",
    "authentication:none": "no",
    "capacity": "2",
    "disused:amenity": "charging_station",
    "fee": "yes",
    "motorcar": "yes",
    "name": "LGA-00014",
    "network": "Mobi.E",
    "opening_hours": "Mo-Sa 09:00-13:00,15:00-19:00",
    "operator": "E-Plug",
    "parking:fee": "no",
    "ref": "LGA-00014",
    "socket:type2": "2",
    "socket:type2:current": "32",
    "socket:type2:output": "22kW",
    "socket:type2:voltage": "400",
    "website": "https://www.mobie.pt/"
  }
},
{
  "type": "node",
  "id": 7593177680,
  "lat": 37.7234737,
  "lon": -8.7852212,
  "tags": {
    "access": "yes",
    "addr:city": "Vila Nova de Milfontes",
    "addr:country": "PT",
    "addr:street": "Avenida Marginal",
    "authentication:membership_card": "yes",
    "authentication:none": "no",
    "capacity": "2",
    "disused:amenity": "charging_station",
    "email": "mobilidade.electricacrc@galp.com",
    "fee": "yes",
    "motorcar": "yes",
    "name": "ODM-00004",
    "network": "Mobi.E",
    "opening_hours": "24/7",
    "operator": "Galp Power",
    "parking:fee": "no",
    "phone": "+351 800 249 249",
    "ref": "ODM-00004",
    "socket:type2": "2",
    "socket:type2:current": "16",
    "socket:type2:output": "3.7kW",
    "socket:type2:voltage": "230",
    "website": "https://www.mobie.pt/"
  }
},
{
  "type": "node",
  "id": 7745153196,
  "lat": 38.5663618,
  "lon": -7.9116838,
  "tags": {
    "access": "yes",
    "addr:city": "Évora",
    "addr:country": "PT",
    "addr:street": "Avenida General Humberto Delgado",
    "authentication:membership_card": "yes",
    "authentication:none": "no",
    "capacity": "2",
    "disused:amenity": "charging_station",
    "email": "mobilidade.electricacrc@galp.com",
    "fee": "yes",
    "motorcar": "yes",
    "name": "EVR-00006",
    "network": "Mobi.E",
    "opening_hours": "24/7",
    "operator": "Galp Power",
    "parking:fee": "no",
    "phone": "+351 800 249 249",
    "ref": "EVR-90006",
    "socket:type2": "2",
    "socket:type2:current": "16",
    "socket:type2:output": "3.7kW",
    "socket:type2:voltage": "230",
    "website": "https://www.mobie.pt/"
  }
},
{
  "type": "node",
  "id": 7770882156,
  "lat": 39.2959538,
  "lon": -7.4298444,
  "tags": {
    "access": "yes",
    "addr:country": "PT",
    "authentication:membership_card": "yes",
    "authentication:none": "no",
    "capacity": "2",
    "disused:amenity": "charging_station",
    "email": "mobilidade.electricacrc@galp.com",
    "fee": "yes",
    "motorcar": "yes",
    "name": "PTG-00001",
    "network": "Mobi.E",
    "opening_hours": "24/7",
    "operator": "Galp Power",
    "parking:fee": "no",
    "phone": "+351 800 249 249",
    "ref": "PTG-90001",
    "socket:type2": "2",
    "socket:type2:current": "16",
    "socket:type2:output": "3.7kW",
    "socket:type2:voltage": "230",
    "website": "https://www.mobie.pt/"
  }
},
{
  "type": "node",
  "id": 7770950479,
  "lat": 39.2894264,
  "lon": -7.4291456,
  "tags": {
    "access": "yes",
    "addr:country": "PT",
    "authentication:membership_card": "yes",
    "authentication:none": "no",
    "capacity": "2",
    "disused:amenity": "charging_station",
    "email": "ajuda@powerdot.pt",
    "fee": "yes",
    "motorcar": "yes",
    "name": "PTG-00003",
    "network": "Mobi.E",
    "opening_hours": "24/7",
    "operator": "Powerdot",
    "parking:fee": "no",
    "phone": "+351 800 180 292",
    "ref": "PTG-90003",
    "socket:type2": "2",
    "socket:type2:current": "16",
    "socket:type2:output": "3.7kW",
    "socket:type2:voltage": "230",
    "website": "https://www.mobie.pt/"
  }
},
{
  "type": "node",
  "id": 8017374245,
  "lat": 39.3936748,
  "lon": -8.6409992,
  "tags": {
    "access": "yes",
    "addr:country": "PT",
    "addr:street": "Área de Serviço de Santarém",
    "authentication:membership_card": "yes",
    "authentication:none": "no",
    "capacity": "2",
    "disused:amenity": "charging_station",
    "email": "apoio.cliente@kmlowcost.com",
    "fee": "yes",
    "motorcar": "yes",
    "name": "STR-00011",
    "network": "Mobi.E",
    "opening_hours": "24/7",
    "operator": "KLC",
    "parking:fee": "no",
    "phone": "+351 800 296 929",
    "ref": "STR-00011",
    "socket:chademo": "1",
    "socket:chademo:current": "120",
    "socket:chademo:output": "50kW",
    "socket:chademo:voltage": "500",
    "socket:type2_cable": "1",
    "socket:type2_cable:current": "63",
    "socket:type2_cable:output": "43kW",
    "socket:type2_cable:voltage": "400",
    "socket:type2_combo": "1",
    "socket:type2_combo:current": "125",
    "socket:type2_combo:output": "50kW",
    "socket:type2_combo:voltage": "500",
    "website": "https://www.mobie.pt/"
  }
},
{
  "type": "node",
  "id": 8072522374,
  "lat": 40.6260558,
  "lon": -7.4024916,
  "tags": {
    "access": "yes",
    "addr:city": "Celorico da Beira",
    "addr:country": "PT",
    "authentication:membership_card": "yes",
    "authentication:none": "no",
    "capacity": "1",
    "disused:amenity": "charging_station",
    "email": "apoio.cliente@kmlowcost.com",
    "fee": "yes",
    "motorcar": "yes",
    "name": "CLB-00007 - Muito Menos",
    "network": "Mobi.E",
    "opening_hours": "Mo-Su 09:00-21:00",
    "operator": "KLC",
    "parking:fee": "no",
    "phone": "+351 800 296 929",
    "ref": "CLB-00007",
    "socket:chademo": "1",
    "socket:chademo:current": "120",
    "socket:chademo:output": "50kW",
    "socket:chademo:voltage": "500",
    "socket:type2_combo": "1",
    "socket:type2_combo:current": "125",
    "socket:type2_combo:output": "50kW",
    "socket:type2_combo:voltage": "500",
    "website": "https://www.mobie.pt/"
  }
},
{
  "type": "node",
  "id": 8082083828,
  "lat": 41.7673967,
  "lon": -8.5818699,
  "tags": {
    "access": "yes",
    "addr:city": "Ponte de Lima",
    "addr:country": "PT",
    "addr:street": "Calçada dos Quarteis",
    "authentication:membership_card": "yes",
    "authentication:none": "no",
    "capacity": "1",
    "disused:amenity": "charging_station",
    "email": "info@evce.pt",
    "fee": "yes",
    "motorcar": "yes",
    "name": "PTL-00003",
    "network": "Mobi.E",
    "opening_hours": "24/7",
    "operator": "EVCE",
    "parking:fee": "no",
    "phone": "+351 253 623 190",
    "ref": "PTL-00003",
    "socket:chademo": "1",
    "socket:chademo:current": "120",
    "socket:chademo:output": "50kW",
    "socket:chademo:voltage": "500",
    "socket:type2_combo": "1",
    "socket:type2_combo:current": "125",
    "socket:type2_combo:output": "50kW",
    "socket:type2_combo:voltage": "500",
    "website": "https://www.mobie.pt/"
  }
},
{
  "type": "node",
  "id": 8085979209,
  "lat": 38.6529030,
  "lon": -9.0490293,
  "tags": {
    "access": "permissive",
    "addr:country": "PT",
    "authentication:membership_card": "yes",
    "authentication:none": "no",
    "capacity": "2",
    "disused:amenity": "charging_station",
    "email": "apoio.cliente@kmlowcost.com",
    "fee": "yes",
    "motorcar": "yes",
    "name": "IPS-00003",
    "network": "Mobi.E",
    "opening_hours": "Mo-Fr 09:00-18:00",
    "operator": "KLC",
    "parking:fee": "no",
    "phone": "+351 800 296 929",
    "ref": "IPS-00003",
    "socket:type2": "2",
    "socket:type2:current": "32",
    "socket:type2:output": "22kW",
    "socket:type2:voltage": "400",
    "website": "https://www.mobie.pt/"
  }
},
{
  "type": "node",
  "id": 8086098310,
  "lat": 39.1513107,
  "lon": -9.3062460,
  "tags": {
    "access": "yes",
    "addr:country": "PT",
    "authentication:membership_card": "yes",
    "authentication:none": "no",
    "capacity": "2",
    "disused:amenity": "charging_station",
    "email": "mobilidade-eletrica@edp.pt",
    "fee": "yes",
    "motorcar": "yes",
    "name": "TVD-00012 - Intermarché",
    "network": "Mobi.E",
    "opening_hours": "24/7",
    "operator": "EDP Comercial",
    "parking:fee": "no",
    "phone": "+351 800 222 222",
    "ref": "TVD-00012",
    "socket:type2": "2",
    "socket:type2:current": "32",
    "socket:type2:output": "22kW",
    "socket:type2:voltage": "400",
    "website": "https://www.mobie.pt/"
  }
},
{
  "type": "node",
  "id": 8109685921,
  "lat": 40.1970338,
  "lon": -8.4450893,
  "tags": {
    "access": "yes",
    "addr:country": "PT",
    "authentication:membership_card": "yes",
    "authentication:none": "no",
    "capacity": "2",
    "disused:amenity": "charging_station",
    "email": "mobilidade-eletrica@edp.pt",
    "fee": "yes",
    "motorcar": "yes",
    "name": "CBR-00038 - Intermarché",
    "network": "Mobi.E",
    "opening_hours": "24/7",
    "operator": "EDP Comercial",
    "parking:fee": "no",
    "phone": "+351 800 222 222",
    "ref": "CBR-00038",
    "socket:type2": "2",
    "socket:type2:current": "32",
    "socket:type2:output": "22kW",
    "socket:type2:voltage": "400",
    "website": "https://www.mobie.pt/"
  }
},
{
  "type": "node",
  "id": 8109687608,
  "lat": 40.3600112,
  "lon": -8.0276524,
  "tags": {
    "access": "yes",
    "addr:country": "PT",
    "authentication:membership_card": "yes",
    "authentication:none": "no",
    "capacity": "2",
    "disused:amenity": "charging_station",
    "email": "mobilidade.electricacrc@galp.com",
    "fee": "yes",
    "motorcar": "yes",
    "name": "TBU-00001",
    "network": "Mobi.E",
    "opening_hours": "24/7",
    "operator": "Galp Power",
    "parking:fee": "no",
    "phone": "+351 800 249 249",
    "ref": "TBU-00001",
    "socket:type2": "2",
    "socket:type2:current": "32",
    "socket:type2:output": "22kW",
    "socket:type2:voltage": "400",
    "website": "https://www.mobie.pt/"
  }
},
{
  "type": "node",
  "id": 8109709284,
  "lat": 40.3974466,
  "lon": -8.1321318,
  "tags": {
    "access": "yes",
    "addr:country": "PT",
    "authentication:membership_card": "yes",
    "authentication:none": "no",
    "capacity": "2",
    "disused:amenity": "charging_station",
    "email": "ajuda@powerdot.pt",
    "fee": "yes",
    "motorcar": "yes",
    "name": "SCD-00001",
    "network": "Mobi.E",
    "opening_hours": "24/7",
    "operator": "Powerdot",
    "parking:fee": "no",
    "phone": "+351 800 180 292",
    "ref": "SCD-90001",
    "socket:type2": "2",
    "socket:type2:current": "32",
    "socket:type2:output": "22kW",
    "socket:type2:voltage": "400",
    "website": "https://www.mobie.pt/"
  }
},
{
  "type": "node",
  "id": 8112779814,
  "lat": 40.8619920,
  "lon": -8.4759562,
  "tags": {
    "access": "yes",
    "addr:country": "PT",
    "authentication:membership_card": "yes",
    "authentication:none": "no",
    "capacity": "2",
    "disused:amenity": "charging_station",
    "email": "info@evce.pt",
    "fee": "yes",
    "motorcar": "yes",
    "name": "OAZ-00003 - Escola Superior Aveiro Norte",
    "network": "Mobi.E",
    "opening_hours": "24/7",
    "operator": "EVCE",
    "parking:fee": "no",
    "phone": "+351 253 623 190",
    "ref": "OAZ-00003",
    "socket:type2": "2",
    "socket:type2:current": "32",
    "socket:type2:output": "22kW",
    "socket:type2:voltage": "400",
    "website": "https://www.mobie.pt/"
  }
},
{
  "type": "node",
  "id": 8112873811,
  "lat": 40.9553344,
  "lon": -8.6265367,
  "tags": {
    "access": "yes",
    "addr:country": "PT",
    "authentication:membership_card": "yes",
    "authentication:none": "no",
    "capacity": "2",
    "disused:amenity": "charging_station",
    "email": "info@evce.pt",
    "fee": "yes",
    "motorcar": "yes",
    "name": "OVR-00003",
    "network": "Mobi.E",
    "opening_hours": "24/7",
    "operator": "EVCE",
    "parking:fee": "no",
    "phone": "+351 253 623 190",
    "ref": "OVR-00003",
    "socket:type2": "2",
    "socket:type2:current": "32",
    "socket:type2:output": "22kW",
    "socket:type2:voltage": "400",
    "website": "https://www.mobie.pt/"
  }
},
{
  "type": "node",
  "id": 8112945347,
  "lat": 41.1165619,
  "lon": -7.5695653,
  "tags": {
    "access": "yes",
    "addr:country": "PT",
    "authentication:membership_card": "yes",
    "authentication:none": "no",
    "capacity": "2",
    "disused:amenity": "charging_station",
    "email": "apoio.cliente@kmlowcost.com",
    "fee": "yes",
    "motorcar": "yes",
    "name": "TBC-00001",
    "network": "Mobi.E",
    "opening_hours": "24/7",
    "operator": "KLC",
    "parking:fee": "no",
    "phone": "+351 800 296 929",
    "ref": "TBC-00001",
    "socket:type2": "2",
    "socket:type2:current": "32",
    "socket:type2:output": "22kW",
    "socket:type2:voltage": "400",
    "website": "https://www.mobie.pt/"
  }
},
{
  "type": "node",
  "id": 8113054724,
  "lat": 41.2676013,
  "lon": -8.0789222,
  "tags": {
    "access": "yes",
    "addr:country": "PT",
    "authentication:membership_card": "yes",
    "authentication:none": "no",
    "capacity": "2",
    "disused:amenity": "charging_station",
    "email": "apoio.cliente@kmlowcost.com",
    "fee": "yes",
    "motorcar": "yes",
    "name": "AMT-00001",
    "network": "Mobi.E",
    "opening_hours": "24/7",
    "operator": "KLC",
    "parking:fee": "no",
    "phone": "+351 800 296 929",
    "ref": "AMT-00001",
    "socket:type2": "2",
    "socket:type2:current": "32",
    "socket:type2:output": "22kW",
    "socket:type2:voltage": "400",
    "website": "https://www.mobie.pt/"
  }
},
{
  "type": "node",
  "id": 8113069560,
  "lat": 41.3013278,
  "lon": -7.7371001,
  "tags": {
    "access": "permissive",
    "addr:country": "PT",
    "authentication:membership_card": "yes",
    "authentication:none": "no",
    "capacity": "2",
    "disused:amenity": "charging_station",
    "email": "info@evce.pt",
    "fee": "yes",
    "motorcar": "yes",
    "name": "UTAD-00004",
    "network": "Mobi.E",
    "opening_hours": "24/7",
    "operator": "EVCE",
    "parking:fee": "no",
    "phone": "+351 253 623 190",
    "ref": "UTAD-00004",
    "socket:type2": "2",
    "socket:type2:current": "32",
    "socket:type2:output": "22kW",
    "socket:type2:voltage": "400",
    "website": "https://www.mobie.pt/"
  }
},
{
  "type": "node",
  "id": 8116398346,
  "lat": 41.3023877,
  "lon": -7.7392935,
  "tags": {
    "access": "yes",
    "addr:country": "PT",
    "authentication:membership_card": "yes",
    "authentication:none": "no",
    "capacity": "2",
    "disused:amenity": "charging_station",
    "email": "ajuda@powerdot.pt",
    "fee": "yes",
    "motorcar": "yes",
    "name": "VRL-00005",
    "network": "Mobi.E",
    "opening_hours": "24/7",
    "operator": "Powerdot",
    "parking:fee": "no",
    "phone": "+351 800 180 292",
    "ref": "VRL-90005",
    "socket:type2": "2",
    "socket:type2:current": "16",
    "socket:type2:output": "3.7kW",
    "socket:type2:voltage": "230",
    "website": "https://www.mobie.pt/"
  }
},
{
  "type": "node",
  "id": 8116398356,
  "lat": 41.2946238,
  "lon": -7.7468278,
  "tags": {
    "access": "yes",
    "addr:country": "PT",
    "authentication:membership_card": "yes",
    "authentication:none": "no",
    "capacity": "2",
    "disused:amenity": "charging_station",
    "fee": "yes",
    "motorcar": "yes",
    "name": "VRL-00006",
    "network": "Mobi.E",
    "opening_hours": "24/7",
    "operator": "EDP Comercial",
    "parking:fee": "no",
    "ref": "VRL-00006",
    "socket:type2": "2",
    "socket:type2:current": "16",
    "socket:type2:output": "3.7kW",
    "socket:type2:voltage": "230",
    "website": "https://www.mobie.pt/"
  }
},
{
  "type": "node",
  "id": 8116398357,
  "lat": 41.2959774,
  "lon": -7.7460286,
  "tags": {
    "access": "yes",
    "addr:country": "PT",
    "authentication:membership_card": "yes",
    "authentication:none": "no",
    "capacity": "2",
    "disused:amenity": "charging_station",
    "fee": "yes",
    "motorcar": "yes",
    "name": "VRL-00002",
    "network": "Mobi.E",
    "opening_hours": "24/7",
    "operator": "Galp Power",
    "parking:fee": "no",
    "ref": "VRL-90002",
    "socket:type2": "2",
    "socket:type2:current": "16",
    "socket:type2:output": "3.7kW",
    "socket:type2:voltage": "230",
    "website": "https://www.mobie.pt/"
  }
},
{
  "type": "node",
  "id": 8119362926,
  "lat": 38.6815478,
  "lon": -9.1595765,
  "tags": {
    "access": "yes",
    "addr:country": "PT",
    "authentication:membership_card": "yes",
    "authentication:none": "no",
    "capacity": "2",
    "disused:amenity": "charging_station",
    "fee": "yes",
    "motorcar": "yes",
    "name": "ALM-00004",
    "network": "Mobi.E",
    "opening_hours": "24/7",
    "operator": "Powerdot",
    "parking:fee": "yes",
    "ref": "ALM-00004",
    "socket:type2": "2",
    "socket:type2:current": "16",
    "socket:type2:output": "3.7kW",
    "socket:type2:voltage": "230",
    "website": "https://www.mobie.pt/"
  }
},
{
  "type": "node",
  "id": 8119362927,
  "lat": 38.6693540,
  "lon": -9.1654864,
  "tags": {
    "access": "yes",
    "addr:country": "PT",
    "authentication:membership_card": "yes",
    "authentication:none": "no",
    "capacity": "2",
    "disused:amenity": "charging_station",
    "fee": "yes",
    "location": "underground",
    "motorcar": "yes",
    "name": "ALM-00007",
    "network": "Mobi.E",
    "opening_hours": "24/7",
    "operator": "KLC",
    "parking:fee": "yes",
    "ref": "ALM-00007",
    "socket:type2": "2",
    "socket:type2:current": "16",
    "socket:type2:output": "3.7kW",
    "socket:type2:voltage": "230",
    "website": "https://www.mobie.pt/"
  }
},
{
  "type": "node",
  "id": 8119362928,
  "lat": 38.6545749,
  "lon": -9.1529471,
  "tags": {
    "access": "yes",
    "addr:country": "PT",
    "authentication:membership_card": "yes",
    "authentication:none": "no",
    "capacity": "2",
    "disused:amenity": "charging_station",
    "fee": "yes",
    "location": "underground",
    "motorcar": "yes",
    "name": "ALM-00008",
    "network": "Mobi.E",
    "opening_hours": "24/7",
    "operator": "Galp Power",
    "parking:fee": "yes",
    "ref": "ALM-00008",
    "socket:type2": "2",
    "socket:type2:current": "16",
    "socket:type2:output": "3.7kW",
    "socket:type2:voltage": "230",
    "website": "https://www.mobie.pt/"
  }
},
{
  "type": "node",
  "id": 8121815336,
  "lat": 38.7985299,
  "lon": -9.3866104,
  "tags": {
    "access": "yes",
    "addr:country": "PT",
    "authentication:membership_card": "yes",
    "authentication:none": "no",
    "capacity": "2",
    "disused:amenity": "charging_station",
    "fee": "yes",
    "motorcar": "yes",
    "name": "SNT-00001",
    "network": "Mobi.E",
    "opening_hours": "24/7",
    "operator": "EDP Comercial",
    "parking:fee": "yes",
    "ref": "SNT-00001",
    "socket:type2": "2",
    "socket:type2:current": "32",
    "socket:type2:output": "7.4kW",
    "socket:type2:voltage": "230",
    "website": "https://www.mobie.pt/"
  }
},
{
  "type": "node",
  "id": 8121815340,
  "lat": 38.7881598,
  "lon": -9.3876410,
  "tags": {
    "access": "yes",
    "addr:country": "PT",
    "authentication:membership_card": "yes",
    "authentication:none": "no",
    "capacity": "2",
    "disused:amenity": "charging_station",
    "email": "ajuda@powerdot.pt",
    "fee": "yes",
    "motorcar": "yes",
    "name": "SNT-00025",
    "network": "Mobi.E",
    "opening_hours": "24/7",
    "operator": "Powerdot",
    "parking:fee": "no",
    "phone": "+351 800 180 292",
    "ref": "SNT-90025",
    "socket:type2": "2",
    "socket:type2:current": "16",
    "socket:type2:output": "3.7kW",
    "socket:type2:voltage": "230",
    "website": "https://www.mobie.pt/"
  }
},
{
  "type": "node",
  "id": 8121833986,
  "lat": 38.7747818,
  "lon": -9.3438218,
  "tags": {
    "access": "customers",
    "addr:country": "PT",
    "authentication:membership_card": "yes",
    "authentication:none": "no",
    "capacity": "2",
    "disused:amenity": "charging_station",
    "fee": "yes",
    "motorcar": "yes",
    "name": "SNT-00020",
    "network": "Mobi.E",
    "opening_hours": "24/7",
    "operator": "Prio.E",
    "parking:fee": "no",
    "ref": "SNT-00020",
    "socket:type2": "2",
    "socket:type2:current": "16",
    "socket:type2:output": "3.7kW",
    "socket:type2:voltage": "230",
    "website": "https://www.mobie.pt/"
  }
},
{
  "type": "node",
  "id": 8121969369,
  "lat": 38.7484491,
  "lon": -9.2142396,
  "tags": {
    "access": "yes",
    "addr:country": "PT",
    "authentication:membership_card": "yes",
    "authentication:none": "no",
    "capacity": "2",
    "disused:amenity": "charging_station",
    "email": "electric@prioenergy.com",
    "fee": "yes",
    "location": "underground",
    "motorcar": "yes",
    "name": "AMD-00002",
    "network": "Mobi.E",
    "opening_hours": "24/7",
    "operator": "Prio.E",
    "parking:fee": "yes",
    "phone": "+351 800 450 111",
    "ref": "AMD-00002",
    "socket:type2": "2",
    "socket:type2:current": "16",
    "socket:type2:output": "3.7kW",
    "socket:type2:voltage": "230",
    "website": "https://www.mobie.pt/"
  }
},
{
  "type": "node",
  "id": 8126753542,
  "lat": 38.7940945,
  "lon": -9.1072744,
  "tags": {
    "access": "yes",
    "addr:country": "PT",
    "authentication:membership_card": "yes",
    "authentication:none": "no",
    "capacity": "2",
    "disused:amenity": "charging_station",
    "email": "apoio.cliente@kmlowcost.com",
    "fee": "yes",
    "motorcar": "yes",
    "name": "LRS-00020",
    "network": "Mobi.E",
    "opening_hours": "24/7",
    "operator": "KLC",
    "parking:fee": "no",
    "phone": "+351 800 296 929",
    "ref": "LRS-90020",
    "socket:type2": "2",
    "socket:type2:current": "16",
    "socket:type2:output": "3.7kW",
    "socket:type2:voltage": "230",
    "website": "https://www.mobie.pt/"
  }
},
{
  "type": "node",
  "id": 8127217938,
  "lat": 38.8260013,
  "lon": -9.1616951,
  "tags": {
    "access": "yes",
    "addr:country": "PT",
    "authentication:membership_card": "yes",
    "authentication:none": "no",
    "capacity": "2",
    "disused:amenity": "charging_station",
    "email": "apoio.cliente@kmlowcost.com",
    "fee": "yes",
    "motorcar": "yes",
    "name": "LRS-00007",
    "network": "Mobi.E",
    "opening_hours": "24/7",
    "operator": "KLC",
    "parking:fee": "no",
    "phone": "+351 800 296 929",
    "ref": "LRS-90007",
    "socket:type2": "2",
    "socket:type2:current": "32",
    "socket:type2:output": "7.4kW",
    "socket:type2:voltage": "230",
    "website": "https://www.mobie.pt/"
  }
},
{
  "type": "node",
  "id": 8132374182,
  "lat": 39.4142109,
  "lon": -8.8205529,
  "tags": {
    "access": "yes",
    "addr:country": "PT",
    "authentication:membership_card": "yes",
    "authentication:none": "no",
    "capacity": "2",
    "disused:amenity": "charging_station",
    "email": "ajuda@powerdot.pt",
    "fee": "yes",
    "motorcar": "yes",
    "name": "STR-00010",
    "network": "Mobi.E",
    "opening_hours": "24/7",
    "operator": "Powerdot",
    "parking:fee": "no",
    "phone": "+351 800 180 292",
    "ref": "STR-90010",
    "socket:type2": "2",
    "socket:type2:current": "16",
    "socket:type2:output": "3.7kW",
    "socket:type2:voltage": "230",
    "website": "https://www.mobie.pt/"
  }
},
{
  "type": "node",
  "id": 8132583522,
  "lat": 40.6260722,
  "lon": -7.4025281,
  "tags": {
    "access": "yes",
    "addr:country": "PT",
    "authentication:membership_card": "yes",
    "authentication:none": "no",
    "capacity": "3",
    "disused:amenity": "charging_station",
    "email": "apoio.cliente@kmlowcost.com",
    "fee": "yes",
    "motorcar": "yes",
    "name": "CLB-00004/5/6 - Muito Menos",
    "network": "Mobi.E",
    "note": "No parque de estacionamento. Se estiver fechado pedir na recepção para abrir.",
    "opening_hours": "Mo-Su 09:00-21:00",
    "operator": "KLC",
    "parking:fee": "no",
    "phone": "+351 800 296 929",
    "ref": "CLB-00004;CLB-00005;CLB-00006",
    "socket:type2": "3",
    "socket:type2:current": "32",
    "socket:type2:output": "7.4kW",
    "socket:type2:voltage": "230",
    "website": "https://www.mobie.pt/"
  }
},
{
  "type": "node",
  "id": 8132600675,
  "lat": 41.0942323,
  "lon": -7.8113651,
  "tags": {
    "access": "yes",
    "addr:country": "PT",
    "authentication:membership_card": "yes",
    "authentication:none": "no",
    "capacity": "2",
    "disused:amenity": "charging_station",
    "fee": "yes",
    "motorcar": "yes",
    "name": "LMG-00001",
    "network": "Mobi.E",
    "opening_hours": "24/7",
    "operator": "Mobi.E",
    "parking:fee": "no",
    "ref": "LMG-00001",
    "socket:type2": "2",
    "socket:type2:current": "16",
    "socket:type2:output": "3.7kW",
    "socket:type2:voltage": "230",
    "website": "https://www.mobie.pt/"
  }
},
{
  "type": "node",
  "id": 8143027997,
  "lat": 40.5375451,
  "lon": -7.2770905,
  "tags": {
    "access": "yes",
    "addr:country": "PT",
    "authentication:membership_card": "yes",
    "authentication:none": "no",
    "capacity": "2",
    "disused:amenity": "charging_station",
    "fee": "yes",
    "motorcar": "yes",
    "name": "GRD-00003",
    "network": "Mobi.E",
    "opening_hours": "24/7",
    "operator": "KLC",
    "parking:fee": "no",
    "ref": "GRD-90003",
    "socket:type2": "2",
    "socket:type2:current": "16",
    "socket:type2:output": "3.7kW",
    "socket:type2:voltage": "230",
    "website": "https://www.mobie.pt/"
  }
},
{
  "type": "node",
  "id": 8144003487,
  "lat": 41.1638123,
  "lon": -8.5843170,
  "tags": {
    "access": "yes",
    "addr:country": "PT",
    "authentication:membership_card": "yes",
    "authentication:none": "no",
    "capacity": "2",
    "disused:amenity": "charging_station",
    "email": "electric@prioenergy.com",
    "fee": "yes",
    "motorcar": "yes",
    "name": "PRT-00103 - Alameda Shopping",
    "network": "Mobi.E",
    "opening_hours": "Mo-Su 09:00-21:00",
    "operator": "Prio.E",
    "parking:fee": "yes",
    "phone": "+351 800 450 111",
    "ref": "PRT-00103",
    "socket:type2": "2",
    "socket:type2:current": "16",
    "socket:type2:output": "3.7kW",
    "socket:type2:voltage": "230",
    "website": "https://www.mobie.pt/"
  }
},
{
  "type": "node",
  "id": 8147485651,
  "lat": 38.6948541,
  "lon": -9.2151028,
  "tags": {
    "access": "yes",
    "addr:country": "PT",
    "authentication:membership_card": "yes",
    "authentication:none": "no",
    "capacity": "2",
    "disused:amenity": "charging_station",
    "email": "apoio.cliente@kmlowcost.com",
    "fee": "yes",
    "motorcar": "yes",
    "name": "LSB-00001",
    "network": "Mobi.E",
    "opening_hours": "24/7",
    "operator": "KLC",
    "parking:fee": "no",
    "phone": "+351 800 296 929",
    "ref": "LSB-90001",
    "socket:type2": "2",
    "socket:type2:current": "16",
    "socket:type2:output": "3.7kW",
    "socket:type2:voltage": "230",
    "website": "https://www.mobie.pt/"
  }
},
{
  "type": "node",
  "id": 8147502166,
  "lat": 38.6972865,
  "lon": -9.2041193,
  "tags": {
    "access": "yes",
    "addr:country": "PT",
    "authentication:membership_card": "yes",
    "authentication:none": "no",
    "capacity": "6",
    "disused:amenity": "charging_station",
    "fee": "yes",
    "motorcar": "yes",
    "name": "LSB-00510",
    "network": "Mobi.E",
    "opening_hours": "24/7",
    "operator": "Mobi.E",
    "parking:fee": "yes",
    "ref": "LSB-00510",
    "socket:type2": "6",
    "socket:type2:current": "16",
    "socket:type2:output": "3.7kW",
    "socket:type2:voltage": "230",
    "website": "https://www.mobie.pt/"
  }
},
{
  "type": "node",
  "id": 8147539578,
  "lat": 38.7124020,
  "lon": -9.1350940,
  "tags": {
    "access": "yes",
    "addr:country": "PT",
    "authentication:membership_card": "yes",
    "authentication:none": "no",
    "capacity": "6",
    "disused:amenity": "charging_station",
    "fee": "yes",
    "motorcar": "yes",
    "name": "LSB-01131",
    "network": "Mobi.E",
    "opening_hours": "24/7",
    "operator": "Mobi.E",
    "parking:fee": "yes",
    "ref": "LSB-01131",
    "socket:type2": "6",
    "socket:type2:current": "16",
    "socket:type2:output": "3.7kW",
    "socket:type2:voltage": "230",
    "website": "https://www.mobie.pt/"
  }
},
{
  "type": "node",
  "id": 8147608430,
  "lat": 38.7651140,
  "lon": -9.1194865,
  "tags": {
    "access": "yes",
    "addr:country": "PT",
    "authentication:membership_card": "yes",
    "authentication:none": "no",
    "capacity": "2",
    "disused:amenity": "charging_station",
    "email": "ajuda@powerdot.pt",
    "fee": "yes",
    "motorcar": "yes",
    "name": "LSB-00136",
    "network": "Mobi.E",
    "opening_hours": "24/7",
    "operator": "Powerdot",
    "parking:fee": "no",
    "phone": "+351 800 180 292",
    "ref": "LSB-90136",
    "socket:type2": "2",
    "socket:type2:current": "16",
    "socket:type2:output": "3.7kW",
    "socket:type2:voltage": "230",
    "website": "https://www.mobie.pt/"
  }
},
{
  "type": "node",
  "id": 8231184246,
  "lat": 41.4538211,
  "lon": -8.2694529,
  "tags": {
    "access": "yes",
    "addr:city": "Guimarães",
    "addr:country": "PT",
    "addr:street": "Rua Cruz da Argola",
    "authentication:membership_card": "yes",
    "authentication:none": "no",
    "capacity": "2",
    "disused:amenity": "charging_station",
    "email": "mobilidade.electricacrc@galp.com",
    "fee": "yes",
    "motorcar": "yes",
    "name": "GMR-00009",
    "network": "Mobi.E",
    "opening_hours": "24/7",
    "operator": "Galp Power",
    "parking:fee": "no",
    "phone": "+351 800 249 249",
    "ref": "GMR-00009",
    "socket:chademo": "1",
    "socket:chademo:current": "120",
    "socket:chademo:output": "50kW",
    "socket:chademo:voltage": "500",
    "socket:type2_cable": "1",
    "socket:type2_cable:current": "63",
    "socket:type2_cable:output": "43kW",
    "socket:type2_cable:voltage": "400",
    "socket:type2_combo": "1",
    "socket:type2_combo:current": "125",
    "socket:type2_combo:output": "50kW",
    "socket:type2_combo:voltage": "500",
    "website": "https://www.mobie.pt/"
  }
},
{
  "type": "node",
  "id": 8289566369,
  "lat": 38.6813662,
  "lon": -9.1608509,
  "tags": {
    "access": "yes",
    "addr:country": "PT",
    "authentication:membership_card": "yes",
    "authentication:none": "no",
    "capacity": "2",
    "disused:amenity": "charging_station",
    "fee": "yes",
    "location": "underground",
    "motorcar": "yes",
    "name": "ALM-00005",
    "network": "Mobi.E",
    "opening_hours": "24/7",
    "operator": "EDP Comercial",
    "parking:fee": "no",
    "ref": "ALM-00005",
    "socket:type2": "2",
    "socket:type2:current": "16",
    "socket:type2:output": "3.7kW",
    "socket:type2:voltage": "230",
    "website": "https://www.mobie.pt/"
  }
},
{
  "type": "node",
  "id": 8298178589,
  "lat": 38.7506926,
  "lon": -9.1810298,
  "tags": {
    "access": "yes",
    "addr:country": "PT",
    "authentication:membership_card": "yes",
    "authentication:none": "no",
    "capacity": "8",
    "disused:amenity": "charging_station",
    "email": "mobilidade-eletrica@edp.pt",
    "fee": "yes",
    "location": "underground",
    "motorcar": "yes",
    "name": "LSB-00065/66/68/72 - Estacionamento P8 Benfica",
    "network": "Mobi.E",
    "opening_hours": "24/7",
    "operator": "EDP Comercial",
    "parking:fee": "yes",
    "phone": "+351 800 222 222",
    "ref": "LSB-00065;LSB-00066;LSB-00068;LSB-00072",
    "socket:type2": "8",
    "socket:type2:current": "32",
    "socket:type2:output": "7.4kW",
    "socket:type2:voltage": "230",
    "website": "https://www.mobie.pt/"
  }
},
{
  "type": "node",
  "id": 8301174324,
  "lat": 38.7162936,
  "lon": -9.1418528,
  "tags": {
    "access": "yes",
    "addr:country": "PT",
    "authentication:membership_card": "yes",
    "authentication:none": "no",
    "capacity": "2",
    "disused:amenity": "charging_station",
    "fee": "yes",
    "location": "underground",
    "motorcar": "yes",
    "name": "LSB-01505",
    "network": "Mobi.E",
    "opening_hours": "24/7",
    "operator": "Prio.E",
    "parking:fee": "no",
    "ref": "LSB-01505",
    "socket:type2": "2",
    "socket:type2:current": "16",
    "socket:type2:output": "3.7kW",
    "socket:type2:voltage": "230",
    "website": "https://www.mobie.pt/"
  }
},
{
  "type": "node",
  "id": 8304313522,
  "lat": 38.7123837,
  "lon": -9.1350601,
  "tags": {
    "access": "yes",
    "addr:country": "PT",
    "authentication:membership_card": "yes",
    "authentication:none": "no",
    "capacity": "6",
    "disused:amenity": "charging_station",
    "fee": "yes",
    "motorcar": "yes",
    "name": "LSB-01135",
    "network": "Mobi.E",
    "opening_hours": "24/7",
    "operator": "Mobi.E",
    "parking:fee": "yes",
    "ref": "LSB-01135",
    "socket:type2": "6",
    "socket:type2:current": "16",
    "socket:type2:output": "3.7kW",
    "socket:type2:voltage": "230",
    "website": "https://www.mobie.pt/"
  }
},
{
  "type": "node",
  "id": 8307422351,
  "lat": 41.2873195,
  "lon": -7.7411845,
  "tags": {
    "access": "private",
    "addr:country": "PT",
    "authentication:membership_card": "yes",
    "authentication:none": "no",
    "capacity": "2",
    "disused:amenity": "charging_station",
    "fee": "yes",
    "motorcar": "yes",
    "name": "UTAD-00002",
    "network": "Mobi.E",
    "opening_hours": "24/7",
    "operator": "EVCE",
    "parking:fee": "no",
    "ref": "UTAD-00002",
    "socket:type2": "2",
    "socket:type2:current": "32",
    "socket:type2:output": "22kW",
    "socket:type2:voltage": "400",
    "website": "https://www.mobie.pt/"
  }
},
{
  "type": "node",
  "id": 8307422352,
  "lat": 41.2871339,
  "lon": -7.7410581,
  "tags": {
    "access": "private",
    "addr:country": "PT",
    "authentication:membership_card": "yes",
    "authentication:none": "no",
    "capacity": "2",
    "disused:amenity": "charging_station",
    "email": "info@evce.pt",
    "fee": "yes",
    "motorcar": "yes",
    "name": "UTAD-00001",
    "network": "Mobi.E",
    "opening_hours": "24/7",
    "operator": "EVCE",
    "parking:fee": "no",
    "phone": "+351 253 623 190",
    "ref": "UTAD-00001",
    "socket:type2": "2",
    "socket:type2:current": "32",
    "socket:type2:output": "22kW",
    "socket:type2:voltage": "400",
    "website": "https://www.mobie.pt/"
  }
},
{
  "type": "node",
  "id": 8307422353,
  "lat": 41.2868002,
  "lon": -7.7415368,
  "tags": {
    "access": "private",
    "addr:country": "PT",
    "authentication:membership_card": "yes",
    "authentication:none": "no",
    "capacity": "2",
    "disused:amenity": "charging_station",
    "fee": "yes",
    "motorcar": "yes",
    "name": "UTAD-00003",
    "network": "Mobi.E",
    "opening_hours": "24/7",
    "operator": "EVCE",
    "parking:fee": "no",
    "ref": "UTAD-00003",
    "socket:type2": "2",
    "socket:type2:current": "32",
    "socket:type2:output": "22kW",
    "socket:type2:voltage": "400",
    "website": "https://www.mobie.pt/"
  }
},
{
  "type": "node",
  "id": 8308408967,
  "lat": 41.5371602,
  "lon": -8.6281796,
  "tags": {
    "access": "private",
    "addr:country": "PT",
    "authentication:membership_card": "yes",
    "authentication:none": "no",
    "capacity": "2",
    "disused:amenity": "charging_station",
    "fee": "yes",
    "motorcar": "yes",
    "name": "IPCA-00002",
    "network": "Mobi.E",
    "opening_hours": "24/7",
    "operator": "Petroassist",
    "parking:fee": "no",
    "ref": "IPCA-00002",
    "socket:type2": "2",
    "socket:type2:current": "32",
    "socket:type2:output": "22kW",
    "socket:type2:voltage": "400",
    "website": "https://www.mobie.pt/"
  }
},
{
  "type": "node",
  "id": 8308408968,
  "lat": 41.5370909,
  "lon": -8.6281756,
  "tags": {
    "access": "private",
    "addr:country": "PT",
    "authentication:membership_card": "yes",
    "authentication:none": "no",
    "capacity": "2",
    "disused:amenity": "charging_station",
    "fee": "yes",
    "motorcar": "yes",
    "name": "IPCA-00001",
    "network": "Mobi.E",
    "opening_hours": "24/7",
    "operator": "Petroassist",
    "parking:fee": "no",
    "ref": "IPCA-00001",
    "socket:type2": "2",
    "socket:type2:current": "32",
    "socket:type2:output": "22kW",
    "socket:type2:voltage": "400",
    "website": "https://www.mobie.pt/"
  }
},
{
  "type": "node",
  "id": 8308438527,
  "lat": 41.3326658,
  "lon": -8.6855882,
  "tags": {
    "access": "private",
    "addr:country": "PT",
    "authentication:membership_card": "yes",
    "authentication:none": "no",
    "capacity": "2",
    "disused:amenity": "charging_station",
    "fee": "yes",
    "motorcar": "yes",
    "name": "INIAV-00003",
    "network": "Mobi.E",
    "opening_hours": "24/7",
    "operator": "KLC",
    "parking:fee": "no",
    "ref": "INIAV-00003",
    "socket:type2": "2",
    "socket:type2:current": "32",
    "socket:type2:output": "22kW",
    "socket:type2:voltage": "400",
    "website": "https://www.mobie.pt/"
  }
},
{
  "type": "node",
  "id": 8418708474,
  "lat": 38.6755598,
  "lon": -9.1659048,
  "tags": {
    "access": "yes",
    "addr:country": "PT",
    "authentication:membership_card": "yes",
    "authentication:none": "no",
    "capacity": "2",
    "disused:amenity": "charging_station",
    "fee": "yes",
    "motorcar": "yes",
    "name": "ALM-00006",
    "network": "Mobi.E",
    "opening_hours": "Mo-Su 08:00-20:00",
    "operator": "Mobi.E",
    "parking:fee": "yes",
    "ref": "ALM-00006",
    "socket:type2": "2",
    "socket:type2:current": "16",
    "socket:type2:output": "3.7kW",
    "socket:type2:voltage": "230",
    "website": "https://www.mobie.pt/"
  }
},
{
  "type": "node",
  "id": 8464696457,
  "lat": 40.6033556,
  "lon": -7.7522472,
  "tags": {
    "access": "yes",
    "addr:country": "PT",
    "authentication:membership_card": "yes",
    "authentication:none": "no",
    "capacity": "2",
    "disused:amenity": "charging_station",
    "fee": "yes",
    "motorcar": "yes",
    "name": "MGL-00002",
    "network": "Mobi.E",
    "opening_hours": "24/7",
    "operator": "Mobi.E",
    "parking:fee": "no",
    "ref": "MGL-00002",
    "socket:type2": "2",
    "socket:type2:current": "16",
    "socket:type2:output": "3.7kW",
    "socket:type2:voltage": "230",
    "website": "https://www.mobie.pt/"
  }
}

  ]
}
