{
"type": "FeatureCollection",
"features": [
{
  "type": "Feature",
  "id": "node/2893492870",
  "properties": {
    "access": "yes",
    "amenity": "charging_station",
    "authentication:none": "yes",
    "capacity": "1",
    "fee": "no",
    "name": "Ponto de Carga do Centro Ciência Viva da Floresta",
    "network": "none",
    "note": "Ponto de carga gratuito equipado com uma ficha normal - tipo \"Schuko\".",
    "operator": "Centro Ciência Viva da Floresta",
    "phone": "+351274670220",
    "socket:schuko": "1",
    "socket:schuko:voltage": "230",
    "website": "http://www.ccvfloresta.com/o-centro/servicos/130-ponto-de-carregamento-para-veiculos-eletricos",
    "wheelchair": "yes",
    "id": "node/2893492870"
  },
  "geometry": {
    "type": "Point",
    "coordinates": [
      -7.8755008,
      39.7334231
    ]
  }
},
{
  "type": "Feature",
  "id": "node/3341738489",
  "properties": {
    "access": "customers",
    "amenity": "charging_station",
    "authentication:none": "yes",
    "capacity": "3",
    "fee": "no",
    "level": "-1",
    "name": "Parque Nascente",
    "network": "none",
    "operator": "Parque Nascente",
    "socket:cee_blue": "3",
    "socket:cee_blue:current": "16",
    "socket:cee_blue:output": "3.7kW",
    "socket:cee_blue:voltage": "230",
    "id": "node/3341738489"
  },
  "geometry": {
    "type": "Point",
    "coordinates": [
      -8.5668247,
      41.174083
    ]
  }
},
{
  "type": "Feature",
  "id": "node/6557043974",
  "properties": {
    "access": "customers",
    "amenity": "charging_station",
    "motorcar": "yes",
    "name": "Renault Ílhavo",
    "network": "Renault",
    "operator": "Renault",
    "id": "node/6557043974"
  },
  "geometry": {
    "type": "Point",
    "coordinates": [
      -8.6749881,
      40.6070944
    ]
  }
},
{
  "type": "Feature",
  "id": "node/6635524350",
  "properties": {
    "access": "customers",
    "amenity": "charging_station",
    "fee": "yes",
    "name": "Pingo Doce",
    "network": "none",
    "operator": "Pingo Doce",
    "id": "node/6635524350"
  },
  "geometry": {
    "type": "Point",
    "coordinates": [
      -7.9139509,
      40.6529497
    ]
  }
},
{
  "type": "Feature",
  "id": "node/8085492052",
  "properties": {
    "access": "customers",
    "addr:country": "PT",
    "addr:street": "Mar Shopping Algarve, Avenida Algarve",
    "amenity": "charging_station",
    "authentication:none": "yes",
    "capacity": "8",
    "fee": "no",
    "motorcar": "yes",
    "name": "Mar Shopping Algarve",
    "network": "none",
    "opening_hours": "Mo-Su 10:00-23:00",
    "operator": "Mar Shopping",
    "parking:fee": "no",
    "socket:cee_red_16a": "8",
    "socket:cee_red_16a:output": "11kW",
    "socket:schuko": "8",
    "socket:schuko:output": "2kW",
    "id": "node/8085492052"
  },
  "geometry": {
    "type": "Point",
    "coordinates": [
      -7.9977143,
      37.097959
    ]
  }
},
{
  "type": "Feature",
  "id": "node/8226584568",
  "properties": {
    "access": "private",
    "amenity": "charging_station",
    "bicycle": "no",
    "motorcar": "no",
    "name": "Golfcarts",
    "network": "none",
    "operator": "Hotel Pestana Blue Alvor",
    "id": "node/8226584568"
  },
  "geometry": {
    "type": "Point",
    "coordinates": [
      -8.5778575,
      37.1249797
    ]
  }
},
{
  "type": "Feature",
  "id": "node/8432045101",
  "properties": {
    "access": "customers",
    "addr:country": "PT",
    "amenity": "charging_station",
    "capacity": "1",
    "name": "Electrocostura",
    "network": "none",
    "operator": "Electrocostura",
    "socket:cee_red_16a": "1",
    "socket:cee_red_16a:output": "11kW",
    "id": "node/8432045101"
  },
  "geometry": {
    "type": "Point",
    "coordinates": [
      -8.48462,
      40.902628
    ]
  }
},
{
  "type": "Feature",
  "id": "node/8891759742",
  "properties": {
    "access": "private",
    "amenity": "charging_station",
    "bicycle": "yes",
    "capacity": "1",
    "image": "https://i.imgur.com/d96Z6wi.jpg",
    "motorcar": "yes",
    "network": "private (call ahoxus for emergencies)",
    "no:network": "yes",
    "opening_hours": "24/7",
    "id": "node/8891759742"
  },
  "geometry": {
    "type": "Point",
    "coordinates": [
      -7.6742113,
      41.270683
    ]
  }
},
{
  "type": "Feature",
  "id": "node/9006617400",
  "properties": {
    "amenity": "charging_station",
    "id": "node/9006617400"
  },
  "geometry": {
    "type": "Point",
    "coordinates": [
      -9.2065713,
      38.7034735
    ]
  }
}
]
}
