{
"type": "FeatureCollection",
"features": [
{
  "type": "Feature",
  "id": "node/6399252557",
  "properties": {
    "access": "customers",
    "amenity": "charging_station",
    "name": "Magnum Cap",
    "network": "none",
    "operator": "Magnum Cap",
    "socket:chademo": "1",
    "socket:chademo:current": "120",
    "socket:chademo:output": "50kW",
    "socket:chademo:voltage": "500",
    "socket:type2_cable": "1",
    "socket:type2_cable:current": "32",
    "socket:type2_cable:output": "22kW",
    "socket:type2_cable:voltage": "400",
    "socket:type2_combo": "1",
    "socket:type2_combo:current": "125",
    "socket:type2_combo:output": "50kW",
    "socket:type2_combo:voltage": "500",
    "id": "node/6399252557"
  },
  "geometry": {
    "type": "Point",
    "coordinates": [
      -8.6076708,
      40.6480784
    ]
  }
},
{
  "type": "Feature",
  "id": "node/6506375214",
  "properties": {
    "access": "customers",
    "addr:country": "PT",
    "amenity": "charging_station",
    "capacity": "2",
    "fee": "no",
    "motorcar": "yes",
    "name": "Restaurante Colher de Pau Tesla Destination Charger",
    "network": "Tesla",
    "operator": "Tesla",
    "parking:fee": "no",
    "phone": "+351 251 792 016",
    "ref": "dc63457",
    "socket:tesla_destination": "1",
    "socket:tesla_destination:output": "11kW",
    "socket:type2_cable": "1",
    "socket:type2_cable:output": "11kW",
    "website": "https://www.tesla.com/pt_PT/findus/list/chargers/Portugal",
    "id": "node/6506375214"
  },
  "geometry": {
    "type": "Point",
    "coordinates": [
      -8.7269249,
      41.957104
    ]
  }
},
{
  "type": "Feature",
  "id": "node/6966002198",
  "properties": {
    "access": "customers",
    "addr:country": "PT",
    "addr:postcode": "8005-502 Faro",
    "amenity": "charging_station",
    "capacity": "2",
    "fee": "no",
    "motorcar": "yes",
    "name": "Mercedes Country House Tesla Destination Charger",
    "network": "Tesla",
    "operator": "Tesla",
    "phone": "+351 289 790 790",
    "ref": "dc43791",
    "socket:tesla_destination": "1",
    "socket:tesla_destination:output": "22kW",
    "socket:type2_cable": "1",
    "socket:type2_cable:output": "22kW",
    "website": "https://www.tesla.com/pt_PT/findus/list/chargers/Portugal",
    "id": "node/6966002198"
  },
  "geometry": {
    "type": "Point",
    "coordinates": [
      -7.9450116,
      37.0852534
    ]
  }
},
{
  "type": "Feature",
  "id": "node/6966002231",
  "properties": {
    "access": "customers",
    "addr:country": "PT",
    "addr:postcode": "8700-069 Moncarapacho",
    "amenity": "charging_station",
    "capacity": "2",
    "fee": "no",
    "motorcar": "yes",
    "name": "Hotel Vila Monte Tesla Destination Charger",
    "network": "Tesla",
    "opening_hours": "24/7",
    "operator": "Tesla",
    "phone": "+351 289 790 790",
    "ref": "dc29184",
    "socket:tesla_destination": "1",
    "socket:tesla_destination:output": "22kW",
    "socket:type2_cable": "1",
    "socket:type2_cable:output": "22kW",
    "website": "https://www.tesla.com/pt_PT/findus/list/chargers/Portugal",
    "id": "node/6966002231"
  },
  "geometry": {
    "type": "Point",
    "coordinates": [
      -7.7932998,
      37.0985676
    ]
  }
},
{
  "type": "Feature",
  "id": "node/6966002232",
  "properties": {
    "access": "customers",
    "addr:country": "PT",
    "addr:place": "Praia Verde",
    "addr:postcode": "8950-434 Castro Marim",
    "amenity": "charging_station",
    "capacity": "2",
    "fee": "no",
    "motorcar": "yes",
    "name": "Praia Verde Boutique Hotel Tesla Destination Charger",
    "network": "Tesla",
    "operator": "Tesla",
    "phone": "+351 281 530 600",
    "ref": "dc60198",
    "socket:tesla_destination": "1",
    "socket:tesla_destination:output": "11kW",
    "socket:type2_cable": "1",
    "socket:type2_cable:output": "11kW",
    "website": "https://www.tesla.com/pt_PT/findus/list/chargers/Portugal",
    "id": "node/6966002232"
  },
  "geometry": {
    "type": "Point",
    "coordinates": [
      -7.4823573,
      37.1801999
    ]
  }
},
{
  "type": "Feature",
  "id": "node/6966131935",
  "properties": {
    "access": "customers",
    "addr:country": "PT",
    "addr:postcode": "8000-168 Faro",
    "amenity": "charging_station",
    "capacity": "4",
    "fee": "no",
    "motorcar": "yes",
    "name": "Hotel Faro Tesla Destination Charger",
    "network": "Tesla",
    "operator": "Tesla",
    "phone": "+351 289 830 830",
    "ref": "dc40070",
    "socket:tesla_destination": "2",
    "socket:tesla_destination:output": "22kW",
    "socket:type2_cable": "2",
    "socket:type2_cable:output": "22kW",
    "website": "https://www.tesla.com/pt_PT/findus/list/chargers/Portugal",
    "id": "node/6966131935"
  },
  "geometry": {
    "type": "Point",
    "coordinates": [
      -7.9345416,
      37.0167049
    ]
  }
},
{
  "type": "Feature",
  "id": "node/6966204428",
  "properties": {
    "access": "customers",
    "addr:country": "PT",
    "addr:postcode": "8135-162 Almancil",
    "amenity": "charging_station",
    "capacity": "2",
    "fee": "no",
    "motorcar": "yes",
    "name": "Martinhal Quinta do Lago Tesla Destination Charger",
    "network": "Tesla",
    "operator": "Tesla",
    "phone": "+351 289 008 300",
    "ref": "dc71612",
    "socket:tesla_destination": "1",
    "socket:tesla_destination:output": "22kW",
    "socket:type2_cable": "1",
    "socket:type2_cable:output": "22kW",
    "website": "https://www.tesla.com/pt_PT/findus/list/chargers/Portugal",
    "id": "node/6966204428"
  },
  "geometry": {
    "type": "Point",
    "coordinates": [
      -8.0110744,
      37.0387177
    ]
  }
},
{
  "type": "Feature",
  "id": "node/6966252892",
  "properties": {
    "access": "customers",
    "addr:country": "PT",
    "addr:postcode": "8125-478 Vilamoura",
    "amenity": "charging_station",
    "capacity": "2",
    "fee": "no",
    "motorcar": "yes",
    "name": "Crowne Plaza Vilamoura Tesla Destination Charger",
    "network": "Tesla",
    "operator": "Tesla",
    "phone": "+351 289 381 600",
    "ref": "dc34091",
    "socket:tesla_destination": "1",
    "socket:tesla_destination:output": "22kW",
    "socket:type2_cable": "1",
    "socket:type2_cable:output": "22kW",
    "website": "https://www.tesla.com/pt_PT/findus/list/chargers/Portugal",
    "id": "node/6966252892"
  },
  "geometry": {
    "type": "Point",
    "coordinates": [
      -8.1145298,
      37.0731299
    ]
  }
},
{
  "type": "Feature",
  "id": "node/6966252911",
  "properties": {
    "access": "customers",
    "addr:country": "PT",
    "addr:postcode": "8125-909 Quarteira",
    "amenity": "charging_station",
    "capacity": "4",
    "fee": "no",
    "motorcar": "yes",
    "name": "Casino Vilamoura Tesla Destination Charger",
    "network": "Tesla",
    "operator": "Tesla",
    "phone": "+351 289 310 000",
    "ref": "dc58354",
    "socket:tesla_destination": "2",
    "socket:tesla_destination:output": "22kW",
    "socket:type2_cable": "2",
    "socket:type2_cable:output": "22kW",
    "website": "https://www.tesla.com/pt_PT/findus/list/chargers/Portugal",
    "id": "node/6966252911"
  },
  "geometry": {
    "type": "Point",
    "coordinates": [
      -8.1161056,
      37.0738062
    ]
  }
},
{
  "type": "Feature",
  "id": "node/6968737908",
  "properties": {
    "access": "customers",
    "addr:country": "PT",
    "addr:postcode": "8100-337 Loul√©",
    "amenity": "charging_station",
    "capacity": "2",
    "fee": "no",
    "motorcar": "yes",
    "name": "B&B Casa Mocho Branco Tesla Destination Charger",
    "network": "Tesla",
    "operator": "Tesla",
    "phone": "+351 933 133 823",
    "ref": "dc38955",
    "socket:tesla_destination": "1",
    "socket:tesla_destination:output": "22kW",
    "socket:type2_cable": "1",
    "socket:type2_cable:output": "22kW",
    "website": "https://www.tesla.com/pt_PT/findus/list/chargers/Portugal",
    "id": "node/6968737908"
  },
  "geometry": {
    "type": "Point",
    "coordinates": [
      -8.0954084,
      37.1570075
    ]
  }
},
{
  "type": "Feature",
  "id": "node/6969121785",
  "properties": {
    "access": "customers",
    "addr:country": "PT",
    "addr:postcode": "8125-309 Vilamoura",
    "amenity": "charging_station",
    "capacity": "2",
    "fee": "no",
    "motorcar": "yes",
    "name": "Hotel Anantara Vilamoura Tesla Destination Charger",
    "network": "Tesla",
    "operator": "Tesla",
    "phone": "+351 289 317 000",
    "ref": "dc29944",
    "socket:tesla_destination": "1",
    "socket:tesla_destination:output": "22kW",
    "socket:type2_cable": "1",
    "socket:type2_cable:output": "22kW",
    "website": "https://www.tesla.com/pt_PT/findus/list/chargers/Portugal",
    "id": "node/6969121785"
  },
  "geometry": {
    "type": "Point",
    "coordinates": [
      -8.1418857,
      37.1032943
    ]
  }
},
{
  "type": "Feature",
  "id": "node/6969803666",
  "properties": {
    "access": "customers",
    "addr:country": "PT",
    "addr:postcode": "8125-300 Vilamoura",
    "amenity": "charging_station",
    "capacity": "4",
    "fee": "no",
    "motorcar": "yes",
    "name": "Longevity Cegonha Country Club Tesla Destination Charger",
    "network": "Tesla",
    "operator": "Tesla",
    "phone": "+351 967 108 244",
    "ref": "dc28645",
    "socket:tesla_destination": "2",
    "socket:tesla_destination:output": "22kW",
    "socket:type2_cable": "2",
    "socket:type2_cable:output": "22kW",
    "website": "https://www.tesla.com/pt_PT/findus/list/chargers/Portugal",
    "id": "node/6969803666"
  },
  "geometry": {
    "type": "Point",
    "coordinates": [
      -8.1507853,
      37.1123725
    ]
  }
},
{
  "type": "Feature",
  "id": "node/6971366957",
  "properties": {
    "access": "customers",
    "addr:country": "PT",
    "addr:postcode": "8200-909 Albufeira",
    "amenity": "charging_station",
    "capacity": "2",
    "fee": "no",
    "motorcar": "yes",
    "name": "Pine Cliffs Resort Tesla Destination Charger",
    "network": "Tesla",
    "operator": "Tesla",
    "phone": "+351 289 500 300",
    "ref": "dc55313",
    "socket:tesla_destination": "1",
    "socket:tesla_destination:output": "22kW",
    "socket:type2_cable": "1",
    "socket:type2_cable:output": "22kW",
    "website": "https://www.tesla.com/pt_PT/findus/list/chargers/Portugal",
    "id": "node/6971366957"
  },
  "geometry": {
    "type": "Point",
    "coordinates": [
      -8.1786199,
      37.0933346
    ]
  }
},
{
  "type": "Feature",
  "id": "node/6971573781",
  "properties": {
    "access": "customers",
    "addr:country": "PT",
    "addr:postcode": "8200-161 Albufeira",
    "amenity": "charging_station",
    "capacity": "2",
    "fee": "no",
    "motorcar": "yes",
    "name": "Para√≠so de Albufeira Tesla Destination Charger",
    "network": "Tesla",
    "operator": "Tesla",
    "phone": "+351 289 590 000",
    "ref": "dc33214",
    "socket:tesla_destination": "2",
    "socket:tesla_destination:output": "17kW",
    "socket:type2_cable": "2",
    "socket:type2_cable:output": "17kW",
    "website": "https://www.tesla.com/pt_PT/findus/list/chargers/Portugal",
    "id": "node/6971573781"
  },
  "geometry": {
    "type": "Point",
    "coordinates": [
      -8.2380597,
      37.0917455
    ]
  }
},
{
  "type": "Feature",
  "id": "node/6973556961",
  "properties": {
    "access": "customers",
    "addr:country": "PT",
    "addr:postcode": "8200-385 Albufeira",
    "amenity": "charging_station",
    "capacity": "2",
    "fee": "no",
    "motorcar": "yes",
    "name": "Hotel Baia Grande Tesla Destination Charger",
    "network": "Tesla",
    "operator": "Tesla",
    "phone": "+351 289 583 500",
    "ref": "dc70980",
    "socket:tesla_destination": "1",
    "socket:tesla_destination:output": "22kW",
    "socket:type2_cable": "1",
    "socket:type2_cable:output": "22kW",
    "website": "https://www.tesla.com/pt_PT/findus/list/chargers/Portugal",
    "id": "node/6973556961"
  },
  "geometry": {
    "type": "Point",
    "coordinates": [
      -8.2896714,
      37.0785152
    ]
  }
},
{
  "type": "Feature",
  "id": "node/6979846143",
  "properties": {
    "access": "customers",
    "addr:country": "PT",
    "addr:postcode": "8400-385 Albufeira",
    "amenity": "charging_station",
    "capacity": "2",
    "fee": "no",
    "motorcar": "yes",
    "name": "Vilalara Thalassa Resort Tesla Destination Charger",
    "network": "Tesla",
    "operator": "Tesla",
    "phone": "+351 282 320 000",
    "ref": "dc81856",
    "socket:tesla_destination": "1",
    "socket:tesla_destination:output": "22kW",
    "socket:type2_cable": "1",
    "socket:type2_cable:output": "22kW",
    "website": "https://www.tesla.com/pt_PT/findus/list/chargers/Portugal",
    "id": "node/6979846143"
  },
  "geometry": {
    "type": "Point",
    "coordinates": [
      -8.3795955,
      37.1004368
    ]
  }
},
{
  "type": "Feature",
  "id": "node/6979858406",
  "properties": {
    "access": "customers",
    "addr:country": "PT",
    "addr:postcode": "8400-525 Lagoa",
    "amenity": "charging_station",
    "capacity": "2",
    "fee": "no",
    "motorcar": "yes",
    "name": "Hotel Baia Cristal Tesla Destination Charger",
    "network": "Tesla",
    "operator": "Tesla",
    "phone": "+351 282 358 601",
    "ref": "dc70983",
    "socket:schuko": "1",
    "socket:schuko:output": "3kW",
    "socket:tesla_destination": "1",
    "socket:tesla_destination:output": "22kW",
    "socket:type2_cable": "1",
    "socket:type2_cable:output": "22kW",
    "website": "https://www.tesla.com/pt_PT/findus/list/chargers/Portugal",
    "id": "node/6979858406"
  },
  "geometry": {
    "type": "Point",
    "coordinates": [
      -8.4555191,
      37.0930308
    ]
  }
},
{
  "type": "Feature",
  "id": "node/6989961463",
  "properties": {
    "access": "customers",
    "addr:country": "PT",
    "addr:postcode": "8401-904 Carvoeiro",
    "amenity": "charging_station",
    "capacity": "1",
    "fee": "no",
    "motorcar": "yes",
    "name": "Vale d'Oliveiras Quinta Resort & SPA Tesla Destination Charger",
    "network": "Tesla",
    "operator": "Tesla",
    "phone": "+351 282 380 560",
    "ref": "dc39355",
    "socket:tesla_destination": "1",
    "socket:tesla_destination:output": "22kW",
    "socket:type2_cable": "1",
    "socket:type2_cable:output": "22kW",
    "website": "https://www.tesla.com/pt_PT/findus/list/chargers/Portugal",
    "id": "node/6989961463"
  },
  "geometry": {
    "type": "Point",
    "coordinates": [
      -8.4913386,
      37.1205567
    ]
  }
},
{
  "type": "Feature",
  "id": "node/6990026984",
  "properties": {
    "access": "customers",
    "addr:country": "PT",
    "addr:postcode": "8500-345 Portim√£o",
    "amenity": "charging_station",
    "capacity": "4",
    "fee": "yes",
    "motorcar": "yes",
    "name": "Marina de Portim√£o Tesla Destination Charger",
    "network": "Tesla",
    "operator": "Tesla",
    "phone": "+351 919 385 256",
    "ref": "dc56640",
    "socket:tesla_destination": "2",
    "socket:tesla_destination:output": "22kW",
    "socket:type2_cable": "2",
    "socket:type2_cable:output": "22kW",
    "website": "https://www.tesla.com/pt_PT/findus/list/chargers/Portugal",
    "id": "node/6990026984"
  },
  "geometry": {
    "type": "Point",
    "coordinates": [
      -8.5266211,
      37.1220591
    ]
  }
},
{
  "type": "Feature",
  "id": "node/6992084274",
  "properties": {
    "access": "customers",
    "addr:country": "PT",
    "addr:postcode": "8500-802 Portim√£o",
    "amenity": "charging_station",
    "capacity": "3",
    "fee": "no",
    "motorcar": "yes",
    "name": "Jupiter Algarve Hotel Tesla Destination Charger",
    "network": "Tesla",
    "operator": "Tesla",
    "phone": "+351 282 470 470",
    "ref": "dc39675",
    "socket:schuko": "1",
    "socket:schuko:output": "3kW",
    "socket:tesla_destination": "1",
    "socket:tesla_destination:output": "22kW",
    "socket:type2_cable": "1",
    "socket:type2_cable:output": "22kW",
    "website": "https://www.tesla.com/pt_PT/findus/list/chargers/Portugal",
    "id": "node/6992084274"
  },
  "geometry": {
    "type": "Point",
    "coordinates": [
      -8.5373533,
      37.1196638
    ]
  }
},
{
  "type": "Feature",
  "id": "node/6995101836",
  "properties": {
    "access": "customers",
    "addr:country": "PT",
    "addr:postcode": "8500-804 Portim√£o",
    "amenity": "charging_station",
    "capacity": "2",
    "fee": "no",
    "motorcar": "yes",
    "name": "Jupiter Marina Tesla Destination Charger",
    "network": "Tesla",
    "operator": "Tesla",
    "phone": "+351 282 002 200",
    "ref": "dc39676",
    "socket:tesla_destination": "1",
    "socket:tesla_destination:output": "22kW",
    "socket:type2_cable": "1",
    "socket:type2_cable:output": "22kW",
    "website": "https://www.tesla.com/pt_PT/findus/list/chargers/Portugal",
    "id": "node/6995101836"
  },
  "geometry": {
    "type": "Point",
    "coordinates": [
      -8.533912,
      37.1290864
    ]
  }
},
{
  "type": "Feature",
  "id": "node/7013593502",
  "properties": {
    "access": "customers",
    "addr:country": "PT",
    "addr:postcode": "8500-088 Alvor",
    "amenity": "charging_station",
    "capacity": "2",
    "fee": "no",
    "motorcar": "yes",
    "name": "Pestana Alvor Praia Tesla Destination Charger",
    "network": "Tesla",
    "operator": "Tesla",
    "phone": "+351 282 400 900",
    "ref": "dc75449",
    "socket:tesla_destination": "1",
    "socket:tesla_destination:output": "22kW",
    "socket:type2_cable": "1",
    "socket:type2_cable:output": "22kW",
    "website": "https://www.tesla.com/pt_PT/findus/list/chargers/Portugal",
    "id": "node/7013593502"
  },
  "geometry": {
    "type": "Point",
    "coordinates": [
      -8.5798462,
      37.121409
    ]
  }
},
{
  "type": "Feature",
  "id": "node/7028312084",
  "properties": {
    "access": "customers",
    "addr:country": "PT",
    "addr:postcode": "8650-357 Sagres",
    "amenity": "charging_station",
    "capacity": "2",
    "fee": "no",
    "motorcar": "yes",
    "name": "Memmo Baleeira Hotel Sagres Tesla Destination Charger",
    "network": "Tesla",
    "operator": "Tesla",
    "phone": "+351 282 240 200",
    "ref": "dc39472",
    "socket:tesla_destination": "1",
    "socket:tesla_destination:output": "22kW",
    "socket:type2_cable": "1",
    "socket:type2_cable:output": "22kW",
    "website": "https://www.tesla.com/pt_PT/findus/list/chargers/Portugal",
    "id": "node/7028312084"
  },
  "geometry": {
    "type": "Point",
    "coordinates": [
      -8.9320162,
      37.0105763
    ]
  }
},
{
  "type": "Feature",
  "id": "node/7028317346",
  "properties": {
    "access": "customers",
    "addr:country": "PT",
    "addr:postcode": "8650-908 Sagres",
    "amenity": "charging_station",
    "capacity": "4",
    "fee": "no",
    "motorcar": "yes",
    "name": "Martinhal Sagres Beach Familty Resort Tesla Destination Charger",
    "network": "Tesla",
    "operator": "Tesla",
    "phone": "+351 282 240 200",
    "ref": "dc71608",
    "socket:tesla_destination": "2",
    "socket:tesla_destination:output": "22kW",
    "socket:type2_cable": "2",
    "socket:type2_cable:output": "22kW",
    "website": "https://www.tesla.com/pt_PT/findus/list/chargers/Portugal",
    "id": "node/7028317346"
  },
  "geometry": {
    "type": "Point",
    "coordinates": [
      -8.9261422,
      37.0232997
    ]
  }
},
{
  "type": "Feature",
  "id": "node/7031087647",
  "properties": {
    "access": "customers",
    "addr:country": "PT",
    "addr:postcode": "8600-310 Lagos",
    "amenity": "charging_station",
    "capacity": "2",
    "fee": "no",
    "motorcar": "yes",
    "name": "Villa Monte D'Oiro Tesla Destination Charger",
    "network": "Tesla",
    "operator": "Tesla",
    "phone": "+351 918 734 500",
    "ref": "dc41905",
    "socket:tesla_destination": "1",
    "socket:tesla_destination:output": "11kW",
    "socket:type2_cable": "1",
    "socket:type2_cable:output": "11kW",
    "website": "https://www.tesla.com/pt_PT/findus/list/chargers/Portugal",
    "id": "node/7031087647"
  },
  "geometry": {
    "type": "Point",
    "coordinates": [
      -8.7002398,
      37.1163283
    ]
  }
},
{
  "type": "Feature",
  "id": "node/7031087871",
  "properties": {
    "access": "customers",
    "addr:country": "PT",
    "addr:postcode": "8600-315 Lagos",
    "amenity": "charging_station",
    "capacity": "1",
    "fee": "no",
    "motorcar": "yes",
    "name": "Marina Club Lagos Resort Tesla Destination Charger",
    "network": "Tesla",
    "operator": "Tesla",
    "phone": "+351 282 790 600",
    "ref": "dc47852",
    "socket:tesla_destination": "1",
    "socket:tesla_destination:output": "17kW",
    "socket:type2_cable": "1",
    "socket:type2_cable:output": "17kW",
    "website": "https://www.tesla.com/pt_PT/findus/list/chargers/Portugal",
    "id": "node/7031087871"
  },
  "geometry": {
    "type": "Point",
    "coordinates": [
      -8.6729993,
      37.1106554
    ]
  }
},
{
  "type": "Feature",
  "id": "node/7031340598",
  "properties": {
    "access": "customers",
    "addr:country": "PT",
    "addr:postcode": "8600-619 Lagos",
    "amenity": "charging_station",
    "capacity": "2",
    "fee": "no",
    "motorcar": "yes",
    "name": "Aqualuz Suite Hotel Apartamentos Lagos Tesla Destination Charger",
    "network": "Tesla",
    "operator": "Tesla",
    "phone": "+351 282 770 620",
    "ref": "dc38282",
    "socket:tesla_destination": "1",
    "socket:tesla_destination:output": "22kW",
    "socket:type2_cable": "1",
    "socket:type2_cable:output": "22kW",
    "website": "https://www.tesla.com/pt_PT/findus/list/chargers/Portugal",
    "id": "node/7031340598"
  },
  "geometry": {
    "type": "Point",
    "coordinates": [
      -8.6737409,
      37.0949349
    ]
  }
},
{
  "type": "Feature",
  "id": "node/7031340600",
  "properties": {
    "access": "customers",
    "addr:country": "PT",
    "addr:postcode": "8600-645 Lagos",
    "amenity": "charging_station",
    "capacity": "2",
    "fee": "no",
    "motorcar": "yes",
    "name": "Lagos Avenida Hotel Tesla Destination Charger",
    "network": "Tesla",
    "operator": "Tesla",
    "phone": "+351 282 780 090",
    "ref": "dc41908",
    "socket:tesla_destination": "1",
    "socket:tesla_destination:output": "22kW",
    "socket:type2": "2",
    "socket:type2:output": "7.4kW",
    "socket:type2_cable": "1",
    "socket:type2_cable:output": "22kW",
    "website": "https://www.tesla.com/pt_PT/findus/list/chargers/Portugal",
    "id": "node/7031340600"
  },
  "geometry": {
    "type": "Point",
    "coordinates": [
      -8.6753704,
      37.1071907
    ]
  }
},
{
  "type": "Feature",
  "id": "node/7031489672",
  "properties": {
    "access": "customers",
    "addr:country": "PT",
    "addr:postcode": "8600-310 Lagos",
    "amenity": "charging_station",
    "capacity": "2",
    "fee": "no",
    "motorcar": "yes",
    "name": "Villa Doris Suites Tesla Destination Charger",
    "network": "Tesla",
    "operator": "Tesla",
    "phone": "+351 282 770 620",
    "ref": "dc41907",
    "socket:tesla_destination": "1",
    "socket:tesla_destination:output": "17kW",
    "socket:type2_cable": "1",
    "socket:type2_cable:output": "17kW",
    "website": "https://www.tesla.com/pt_PT/findus/list/chargers/Portugal",
    "id": "node/7031489672"
  },
  "geometry": {
    "type": "Point",
    "coordinates": [
      -8.6712156,
      37.0916519
    ]
  }
},
{
  "type": "Feature",
  "id": "node/7031570579",
  "properties": {
    "access": "customers",
    "addr:country": "PT",
    "addr:postcode": "8600-513 Lagos",
    "amenity": "charging_station",
    "capacity": "2",
    "fee": "no",
    "motorcar": "yes",
    "name": "Villa Mar Azul Tesla Destination Charger",
    "network": "Tesla",
    "operator": "Tesla",
    "phone": "+351 282 760 261",
    "ref": "dc41906",
    "socket:tesla_destination": "1",
    "socket:tesla_destination:output": "11kW",
    "socket:type2_cable": "1",
    "socket:type2_cable:output": "11kW",
    "website": "https://www.tesla.com/pt_PT/findus/list/chargers/Portugal",
    "id": "node/7031570579"
  },
  "geometry": {
    "type": "Point",
    "coordinates": [
      -8.6861891,
      37.0882885
    ]
  }
},
{
  "type": "Feature",
  "id": "node/7031570580",
  "properties": {
    "access": "customers",
    "addr:country": "PT",
    "addr:postcode": "8600-544 Lagos",
    "amenity": "charging_station",
    "capacity": "2",
    "fee": "no",
    "motorcar": "yes",
    "name": "Costa d'Oiro Ambiance Village Tesla Destination Charger",
    "network": "Tesla",
    "operator": "Tesla",
    "phone": "+351 282 760 261",
    "ref": "dc39228",
    "socket:tesla_destination": "1",
    "socket:tesla_destination:output": "11kW",
    "socket:type2_cable": "1",
    "socket:type2_cable:output": "11kW",
    "website": "https://www.tesla.com/pt_PT/findus/list/chargers/Portugal",
    "id": "node/7031570580"
  },
  "geometry": {
    "type": "Point",
    "coordinates": [
      -8.6729202,
      37.089185
    ]
  }
},
{
  "type": "Feature",
  "id": "node/8085492051",
  "properties": {
    "access": "customers",
    "addr:country": "PT",
    "addr:street": "Mar Shopping Algarve, Avenida Algarve",
    "amenity": "charging_station",
    "authentication:none": "yes",
    "capacity": "2",
    "fee": "no",
    "motorcar": "yes",
    "name": "Porsche Destination Charging",
    "network": "Porsche",
    "opening_hours": "Mo-Su 10:00-23:00",
    "operator": "Porsche",
    "parking:fee": "no",
    "socket:type2_cable": "2",
    "socket:type2_cable:current": "16",
    "socket:type2_cable:output": "11kW",
    "socket:type2_cable:voltage": "400",
    "id": "node/8085492051"
  },
  "geometry": {
    "type": "Point",
    "coordinates": [
      -7.9976405,
      37.0978991
    ]
  }
},
{
  "type": "Feature",
  "id": "node/8162483944",
  "properties": {
    "access": "customers",
    "addr:country": "PT",
    "amenity": "charging_station",
    "capacity": "2",
    "fee": "no",
    "motorcar": "yes",
    "name": "Paraiso Escondido - Living in Harmony Tesla Destination Charger",
    "network": "Tesla",
    "operator": "Tesla",
    "ref": "dc28536",
    "socket:tesla_destination": "1",
    "socket:tesla_destination:output": "11kW",
    "socket:type2_cable": "1",
    "socket:type2_cable:output": "11kW",
    "website": "https://www.tesla.com/pt_PT/findus/list/chargers/Portugal",
    "id": "node/8162483944"
  },
  "geometry": {
    "type": "Point",
    "coordinates": [
      -8.6543919,
      37.4951679
    ]
  }
},
{
  "type": "Feature",
  "id": "node/8162483945",
  "properties": {
    "access": "customers",
    "addr:country": "PT",
    "amenity": "charging_station",
    "capacity": "2",
    "fee": "no",
    "motorcar": "yes",
    "name": "Craveiral Farmhouse Tesla Destination Charger",
    "network": "Tesla",
    "operator": "Tesla",
    "ref": "dc56832",
    "socket:tesla_destination": "1",
    "socket:tesla_destination:output": "22kW",
    "socket:type2_cable": "1",
    "socket:type2_cable:output": "22kW",
    "website": "https://www.tesla.com/pt_PT/findus/list/chargers/Portugal",
    "id": "node/8162483945"
  },
  "geometry": {
    "type": "Point",
    "coordinates": [
      -8.6675373,
      37.4845673
    ]
  }
},
{
  "type": "Feature",
  "id": "node/8162484137",
  "properties": {
    "access": "customers",
    "addr:country": "PT",
    "amenity": "charging_station",
    "capacity": "2",
    "fee": "no",
    "motorcar": "yes",
    "name": "Quinta do Chocalhinho Tesla Destination Charger",
    "network": "Tesla",
    "operator": "Tesla",
    "ref": "dc80210",
    "socket:tesla_destination": "1",
    "socket:tesla_destination:output": "22kW",
    "socket:type2_cable": "1",
    "socket:type2_cable:output": "22kW",
    "website": "https://www.tesla.com/pt_PT/findus/list/chargers/Portugal",
    "id": "node/8162484137"
  },
  "geometry": {
    "type": "Point",
    "coordinates": [
      -8.6214072,
      37.600557
    ]
  }
},
{
  "type": "Feature",
  "id": "node/8162519167",
  "properties": {
    "access": "customers",
    "addr:country": "PT",
    "amenity": "charging_station",
    "capacity": "2",
    "fee": "no",
    "motorcar": "yes",
    "name": "Herdade dos Grous Tesla Destination Charger",
    "network": "Tesla",
    "operator": "Tesla",
    "ref": "dc514630",
    "socket:tesla_destination": "1",
    "socket:tesla_destination:output": "11kW",
    "socket:type2_cable": "1",
    "socket:type2_cable:output": "11kW",
    "website": "https://www.tesla.com/pt_PT/findus/list/chargers/Portugal",
    "id": "node/8162519167"
  },
  "geometry": {
    "type": "Point",
    "coordinates": [
      -7.9410633,
      37.8790962
    ]
  }
},
{
  "type": "Feature",
  "id": "node/8162519168",
  "properties": {
    "access": "customers",
    "addr:country": "PT",
    "amenity": "charging_station",
    "capacity": "2",
    "fee": "no",
    "motorcar": "yes",
    "name": "NATURARTE - Boutique Hotel Tesla Destination Charger",
    "network": "Tesla",
    "operator": "Tesla",
    "ref": "dc50395",
    "socket:tesla_destination": "1",
    "socket:tesla_destination:output": "11kW",
    "socket:type2_cable": "1",
    "socket:type2_cable:output": "11kW",
    "website": "https://www.tesla.com/pt_PT/findus/list/chargers/Portugal",
    "id": "node/8162519168"
  },
  "geometry": {
    "type": "Point",
    "coordinates": [
      -8.6751038,
      37.7214386
    ]
  }
},
{
  "type": "Feature",
  "id": "node/8162525918",
  "properties": {
    "access": "customers",
    "addr:country": "PT",
    "amenity": "charging_station",
    "capacity": "2",
    "fee": "no",
    "motorcar": "yes",
    "name": "Monte Xisto Hotel Rural Tesla Destination Charger",
    "network": "Tesla",
    "operator": "Tesla",
    "ref": "dc40386",
    "socket:tesla_destination": "1",
    "socket:tesla_destination:output": "17kW",
    "socket:type2_cable": "1",
    "socket:type2_cable:output": "17kW",
    "website": "https://www.tesla.com/pt_PT/findus/list/chargers/Portugal",
    "id": "node/8162525918"
  },
  "geometry": {
    "type": "Point",
    "coordinates": [
      -8.6428365,
      37.9052312
    ]
  }
},
{
  "type": "Feature",
  "id": "node/8167648651",
  "properties": {
    "access": "customers",
    "addr:country": "PT",
    "amenity": "charging_station",
    "capacity": "2",
    "fee": "no",
    "motorcar": "yes",
    "name": "Hotel Rural Santa Barbara dos Mineiros Tesla Destination Charger",
    "network": "Tesla",
    "operator": "Tesla",
    "parking:fee": "no",
    "ref": "dc71545",
    "socket:tesla_destination": "1",
    "socket:tesla_destination:output": "14kW",
    "socket:type2_cable": "1",
    "socket:type2_cable:output": "14kW",
    "website": "https://www.tesla.com/pt_PT/findus/list/chargers/Portugal",
    "id": "node/8167648651"
  },
  "geometry": {
    "type": "Point",
    "coordinates": [
      -8.4273049,
      38.0367497
    ]
  }
},
{
  "type": "Feature",
  "id": "node/8167692143",
  "properties": {
    "access": "customers",
    "addr:country": "PT",
    "amenity": "charging_station",
    "capacity": "2",
    "fee": "no",
    "motorcar": "yes",
    "name": "Monte Lusitano I Tesla Destination Charger",
    "network": "Tesla",
    "operator": "Tesla",
    "parking:fee": "no",
    "ref": "dc75407",
    "socket:tesla_destination": "1",
    "socket:tesla_destination:output": "22kW",
    "socket:type2_cable": "1",
    "socket:type2_cable:output": "22kW",
    "website": "https://www.tesla.com/pt_PT/findus/list/chargers/Portugal",
    "id": "node/8167692143"
  },
  "geometry": {
    "type": "Point",
    "coordinates": [
      -8.5443297,
      38.1915243
    ]
  }
},
{
  "type": "Feature",
  "id": "node/8167692144",
  "properties": {
    "access": "customers",
    "addr:country": "PT",
    "amenity": "charging_station",
    "capacity": "2",
    "fee": "no",
    "motorcar": "yes",
    "name": "Monte Lusitano II Tesla Destination Charger",
    "network": "Tesla",
    "operator": "Tesla",
    "parking:fee": "no",
    "ref": "dc79036",
    "socket:tesla_destination": "1",
    "socket:tesla_destination:output": "22kW",
    "socket:type2_cable": "1",
    "socket:type2_cable:output": "22kW",
    "website": "https://www.tesla.com/pt_PT/findus/list/chargers/Portugal",
    "id": "node/8167692144"
  },
  "geometry": {
    "type": "Point",
    "coordinates": [
      -8.5428894,
      38.1915391
    ]
  }
},
{
  "type": "Feature",
  "id": "node/8168688307",
  "properties": {
    "access": "customers",
    "addr:country": "PT",
    "amenity": "charging_station",
    "capacity": "2",
    "fee": "no",
    "motorcar": "yes",
    "name": "Troia Design Hotel Tesla Destination Charger",
    "network": "Tesla",
    "operator": "Tesla",
    "parking:fee": "no",
    "ref": "dc81851",
    "socket:tesla_destination": "1",
    "socket:tesla_destination:output": "22kW",
    "socket:type2_cable": "1",
    "socket:type2_cable:output": "22kW",
    "website": "https://www.tesla.com/pt_PT/findus/list/chargers/Portugal",
    "id": "node/8168688307"
  },
  "geometry": {
    "type": "Point",
    "coordinates": [
      -8.902992,
      38.4930961
    ]
  }
},
{
  "type": "Feature",
  "id": "node/8168695028",
  "properties": {
    "access": "customers",
    "addr:country": "PT",
    "amenity": "charging_station",
    "capacity": "2",
    "fee": "no",
    "motorcar": "yes",
    "name": "Sublime Comporta - Hotel and Spa Tesla Destination Charger",
    "network": "Tesla",
    "operator": "Tesla",
    "parking:fee": "no",
    "ref": "dc46181",
    "socket:tesla_destination": "1",
    "socket:tesla_destination:output": "22kW",
    "socket:type2_cable": "1",
    "socket:type2_cable:output": "22kW",
    "website": "https://www.tesla.com/pt_PT/findus/list/chargers/Portugal",
    "id": "node/8168695028"
  },
  "geometry": {
    "type": "Point",
    "coordinates": [
      -8.6990838,
      38.2810046
    ]
  }
},
{
  "type": "Feature",
  "id": "node/8168729215",
  "properties": {
    "access": "customers",
    "addr:country": "PT",
    "amenity": "charging_station",
    "capacity": "4",
    "fee": "no",
    "motorcar": "yes",
    "name": "Four Points by Sheraton Sesimbra Tesla Destination Charger",
    "network": "Tesla",
    "operator": "Tesla",
    "parking:fee": "yes",
    "socket:tesla_destination": "2",
    "socket:tesla_destination:output": "22kW",
    "socket:type2_cable": "2",
    "socket:type2_cable:output": "22kW",
    "website": "https://www.tesla.com/pt_PT/findus/list/chargers/Portugal",
    "id": "node/8168729215"
  },
  "geometry": {
    "type": "Point",
    "coordinates": [
      -9.1069428,
      38.447417
    ]
  }
},
{
  "type": "Feature",
  "id": "node/8168730333",
  "properties": {
    "access": "customers",
    "addr:country": "PT",
    "amenity": "charging_station",
    "capacity": "2",
    "fee": "no",
    "motorcar": "yes",
    "name": "Quinta do Miguel Tesla Destination Charger",
    "network": "Tesla",
    "operator": "Tesla",
    "parking:fee": "no",
    "ref": "dc85336",
    "socket:tesla_destination": "1",
    "socket:tesla_destination:output": "22kW",
    "socket:type2_cable": "1",
    "socket:type2_cable:output": "22kW",
    "website": "https://www.tesla.com/pt_PT/findus/list/chargers/Portugal",
    "id": "node/8168730333"
  },
  "geometry": {
    "type": "Point",
    "coordinates": [
      -9.1732138,
      38.4595139
    ]
  }
},
{
  "type": "Feature",
  "id": "node/8168743190",
  "properties": {
    "access": "customers",
    "addr:country": "PT",
    "amenity": "charging_station",
    "capacity": "2",
    "fee": "no",
    "motorcar": "yes",
    "name": "Hotel Laitau Setubal Tesla Destination Charger",
    "network": "Tesla",
    "operator": "Tesla",
    "parking:fee": "no",
    "ref": "dc39383",
    "socket:tesla_destination": "1",
    "socket:tesla_destination:output": "22kW",
    "socket:type2_cable": "1",
    "socket:type2_cable:output": "22kW",
    "website": "https://www.tesla.com/pt_PT/findus/list/chargers/Portugal",
    "id": "node/8168743190"
  },
  "geometry": {
    "type": "Point",
    "coordinates": [
      -8.8987541,
      38.5290517
    ]
  }
},
{
  "type": "Feature",
  "id": "node/8168773229",
  "properties": {
    "access": "customers",
    "addr:country": "PT",
    "amenity": "charging_station",
    "capacity": "4",
    "fee": "no",
    "motorcar": "yes",
    "name": "Hotel do Sado Business & Nature Tesla Destination Charger",
    "network": "Tesla",
    "operator": "Tesla",
    "parking:fee": "no",
    "ref": "dc50393",
    "socket:tesla_destination": "2",
    "socket:tesla_destination:output": "11kW",
    "socket:type2_cable": "2",
    "socket:type2_cable:output": "11kW",
    "website": "https://www.tesla.com/pt_PT/findus/list/chargers/Portugal",
    "id": "node/8168773229"
  },
  "geometry": {
    "type": "Point",
    "coordinates": [
      -8.9022893,
      38.5308824
    ]
  }
},
{
  "type": "Feature",
  "id": "node/8186942169",
  "properties": {
    "access": "customers",
    "addr:country": "PT",
    "amenity": "charging_station",
    "capacity": "2",
    "fee": "no",
    "motorcar": "yes",
    "name": "Biovilla Tesla Destination Charger",
    "network": "Tesla",
    "operator": "Tesla",
    "parking:fee": "no",
    "ref": "dc24390",
    "socket:tesla_destination": "1",
    "socket:tesla_destination:output": "22kW",
    "socket:type2_cable": "1",
    "socket:type2_cable:output": "22kW",
    "website": "https://www.tesla.com/pt_PT/findus/list/chargers/Portugal",
    "id": "node/8186942169"
  },
  "geometry": {
    "type": "Point",
    "coordinates": [
      -8.9407213,
      38.5392345
    ]
  }
},
{
  "type": "Feature",
  "id": "node/8187028269",
  "properties": {
    "access": "customers",
    "addr:country": "PT",
    "amenity": "charging_station",
    "capacity": "4",
    "fee": "no",
    "motorcar": "yes",
    "name": "Casa Ermelinda Freitas Tesla Destination Charger",
    "network": "Tesla",
    "operator": "Tesla",
    "parking:fee": "no",
    "ref": "dc63316",
    "socket:tesla_destination": "2",
    "socket:tesla_destination:output": "22kW",
    "socket:type2_cable": "2",
    "socket:type2_cable:output": "22kW",
    "website": "https://www.tesla.com/pt_PT/findus/list/chargers/Portugal",
    "id": "node/8187028269"
  },
  "geometry": {
    "type": "Point",
    "coordinates": [
      -8.6944128,
      38.6356261
    ]
  }
},
{
  "type": "Feature",
  "id": "node/8187046416",
  "properties": {
    "access": "customers",
    "addr:country": "PT",
    "amenity": "charging_station",
    "capacity": "4",
    "fee": "no",
    "motorcar": "yes",
    "name": "Tivoli √âvora Ecoresort Tesla Destination Charger",
    "network": "Tesla",
    "operator": "Tesla",
    "parking:fee": "no",
    "ref": "dc33179",
    "socket:tesla_destination": "2",
    "socket:tesla_destination:output": "22kW",
    "socket:type2_cable": "2",
    "socket:type2_cable:output": "22kW",
    "website": "https://www.tesla.com/pt_PT/findus/list/chargers/Portugal",
    "id": "node/8187046416"
  },
  "geometry": {
    "type": "Point",
    "coordinates": [
      -7.970107,
      38.5533545
    ]
  }
},
{
  "type": "Feature",
  "id": "node/8194489196",
  "properties": {
    "access": "customers",
    "addr:country": "PT",
    "amenity": "charging_station",
    "capacity": "2",
    "fee": "no",
    "motorcar": "yes",
    "name": "Gra√ßa Hotel √âvora Tesla Destination Charger",
    "network": "Tesla",
    "operator": "Tesla",
    "parking:fee": "no",
    "ref": "dc57791",
    "socket:tesla_destination": "1",
    "socket:tesla_destination:output": "22kW",
    "socket:type2_cable": "1",
    "socket:type2_cable:output": "22kW",
    "website": "https://www.tesla.com/pt_PT/findus/list/chargers/Portugal",
    "id": "node/8194489196"
  },
  "geometry": {
    "type": "Point",
    "coordinates": [
      -7.8863972,
      38.5695075
    ]
  }
},
{
  "type": "Feature",
  "id": "node/8194571742",
  "properties": {
    "access": "customers",
    "addr:country": "PT",
    "amenity": "charging_station",
    "capacity": "4",
    "fee": "no",
    "motorcar": "yes",
    "name": "Convento do Espinheiro - Hotel & SPA Tesla Destination Charger",
    "network": "Tesla",
    "operator": "Tesla",
    "parking:fee": "no",
    "ref": "dc71519",
    "socket:tesla_destination": "2",
    "socket:tesla_destination:output": "22kW",
    "socket:type2_cable": "2",
    "socket:type2_cable:output": "22kW",
    "website": "https://www.tesla.com/pt_PT/findus/list/chargers/Portugal",
    "id": "node/8194571742"
  },
  "geometry": {
    "type": "Point",
    "coordinates": [
      -7.8884666,
      38.6010964
    ]
  }
},
{
  "type": "Feature",
  "id": "node/8194606324",
  "properties": {
    "access": "customers",
    "addr:country": "PT",
    "amenity": "charging_station",
    "capacity": "2",
    "fee": "no",
    "motorcar": "yes",
    "name": "Alentejo Marmoris Hotel and Spa Tesla Destination Charger",
    "network": "Tesla",
    "operator": "Tesla",
    "parking:fee": "no",
    "ref": "dc23951",
    "socket:tesla_destination": "1",
    "socket:tesla_destination:output": "22kW",
    "socket:type2_cable": "1",
    "socket:type2_cable:output": "22kW",
    "website": "https://www.tesla.com/pt_PT/findus/list/chargers/Portugal",
    "id": "node/8194606324"
  },
  "geometry": {
    "type": "Point",
    "coordinates": [
      -7.4201998,
      38.7772126
    ]
  }
},
{
  "type": "Feature",
  "id": "node/8194701121",
  "properties": {
    "access": "customers",
    "addr:country": "PT",
    "amenity": "charging_station",
    "capacity": "2",
    "fee": "no",
    "motorcar": "yes",
    "name": "Eco Hotel Rural Monte da Provenca Tesla Destination Charger",
    "network": "Tesla",
    "operator": "Tesla",
    "ref": "dc22047",
    "socket:tesla_destination": "1",
    "socket:tesla_destination:output": "22kW",
    "socket:type2_cable": "1",
    "socket:type2_cable:output": "22kW",
    "website": "https://www.tesla.com/pt_PT/findus/list/chargers/Portugal",
    "id": "node/8194701121"
  },
  "geometry": {
    "type": "Point",
    "coordinates": [
      -7.1718259,
      38.9209033
    ]
  }
},
{
  "type": "Feature",
  "id": "node/8194701122",
  "properties": {
    "access": "customers",
    "addr:country": "PT",
    "amenity": "charging_station",
    "capacity": "2",
    "fee": "no",
    "motorcar": "yes",
    "name": "Pateo dos Solares Charm Hotel Tesla Destination Charger",
    "network": "Tesla",
    "operator": "Tesla",
    "ref": "dc51406",
    "socket:tesla_destination": "1",
    "socket:tesla_destination:output": "11kW",
    "socket:type2_cable": "1",
    "socket:type2_cable:output": "11kW",
    "website": "https://www.tesla.com/pt_PT/findus/list/chargers/Portugal",
    "id": "node/8194701122"
  },
  "geometry": {
    "type": "Point",
    "coordinates": [
      -7.5887458,
      38.8394099
    ]
  }
},
{
  "type": "Feature",
  "id": "node/8194708438",
  "properties": {
    "access": "customers",
    "addr:country": "PT",
    "amenity": "charging_station",
    "capacity": "2",
    "fee": "no",
    "motorcar": "yes",
    "name": "Quinta da Saimeira Tesla Destination Charger",
    "network": "Tesla",
    "operator": "Tesla",
    "ref": "dc78778",
    "socket:tesla_destination": "1",
    "socket:tesla_destination:output": "11kW",
    "socket:type2_cable": "1",
    "socket:type2_cable:output": "11kW",
    "website": "https://www.tesla.com/pt_PT/findus/list/chargers/Portugal",
    "id": "node/8194708438"
  },
  "geometry": {
    "type": "Point",
    "coordinates": [
      -7.4043989,
      39.4085208
    ]
  }
},
{
  "type": "Feature",
  "id": "node/8194708439",
  "properties": {
    "access": "customers",
    "addr:country": "PT",
    "amenity": "charging_station",
    "capacity": "2",
    "fee": "no",
    "motorcar": "yes",
    "name": "Torre de Palma Wine Hotel Tesla Destination Charger",
    "network": "Tesla",
    "operator": "Tesla",
    "ref": "dc28756",
    "socket:tesla_destination": "1",
    "socket:tesla_destination:output": "11kW",
    "socket:type2_cable": "1",
    "socket:type2_cable:output": "11kW",
    "website": "https://www.tesla.com/pt_PT/findus/list/chargers/Portugal",
    "id": "node/8194708439"
  },
  "geometry": {
    "type": "Point",
    "coordinates": [
      -7.4891594,
      39.0683071
    ]
  }
},
{
  "type": "Feature",
  "id": "node/8198479998",
  "properties": {
    "access": "customers",
    "addr:country": "PT",
    "amenity": "charging_station",
    "capacity": "4",
    "fee": "no",
    "motorcar": "yes",
    "name": "Martinhal Family Hotels & Resorts - Cascais Tesla Destination Charger",
    "network": "Tesla",
    "operator": "Tesla",
    "ref": "dc71611",
    "socket:tesla_destination": "2",
    "socket:tesla_destination:output": "22kW",
    "socket:type2_cable": "2",
    "socket:type2_cable:output": "22kW",
    "website": "https://www.tesla.com/pt_PT/findus/list/chargers/Portugal",
    "id": "node/8198479998"
  },
  "geometry": {
    "type": "Point",
    "coordinates": [
      -9.4576152,
      38.7018963
    ]
  }
},
{
  "type": "Feature",
  "id": "node/8198482850",
  "properties": {
    "access": "customers",
    "addr:country": "PT",
    "amenity": "charging_station",
    "capacity": "6",
    "fee": "no",
    "motorcar": "yes",
    "name": "MS Aparthotel Tesla Destination Charger",
    "network": "Tesla",
    "operator": "Tesla",
    "ref": "dc36502",
    "socket:tesla_destination": "3",
    "socket:tesla_destination:output": "22kW",
    "socket:type2_cable": "3",
    "socket:type2_cable:output": "22kW",
    "website": "https://www.tesla.com/pt_PT/findus/list/chargers/Portugal",
    "id": "node/8198482850"
  },
  "geometry": {
    "type": "Point",
    "coordinates": [
      -9.2442763,
      38.7056316
    ]
  }
},
{
  "type": "Feature",
  "id": "node/8198482851",
  "properties": {
    "access": "customers",
    "addr:country": "PT",
    "amenity": "charging_station",
    "capacity": "2",
    "fee": "no",
    "motorcar": "yes",
    "name": "Casa do Valle Tesla Destination Charger",
    "network": "Tesla",
    "operator": "Tesla",
    "ref": "dc38278",
    "socket:tesla_destination": "1",
    "socket:tesla_destination:output": "17kW",
    "socket:type2_cable": "1",
    "socket:type2_cable:output": "17kW",
    "website": "https://www.tesla.com/pt_PT/findus/list/chargers/Portugal",
    "id": "node/8198482851"
  },
  "geometry": {
    "type": "Point",
    "coordinates": [
      -9.39391,
      38.8003386
    ]
  }
},
{
  "type": "Feature",
  "id": "node/8198482852",
  "properties": {
    "access": "customers",
    "addr:country": "PT",
    "amenity": "charging_station",
    "capacity": "2",
    "fee": "no",
    "motorcar": "yes",
    "name": "Penha Longa Resort Tesla Destination Charger",
    "network": "Tesla",
    "operator": "Tesla",
    "ref": "dc13862",
    "socket:tesla_destination": "1",
    "socket:tesla_destination:output": "11kW",
    "socket:type2_cable": "1",
    "socket:type2_cable:output": "11kW",
    "website": "https://www.tesla.com/pt_PT/findus/list/chargers/Portugal",
    "id": "node/8198482852"
  },
  "geometry": {
    "type": "Point",
    "coordinates": [
      -9.3966982,
      38.7613202
    ]
  }
},
{
  "type": "Feature",
  "id": "node/8198508190",
  "properties": {
    "access": "customers",
    "addr:country": "PT",
    "amenity": "charging_station",
    "capacity": "2",
    "fee": "no",
    "motorcar": "yes",
    "name": "Hotel Cascais Miragem Tesla Destination Charger",
    "network": "Tesla",
    "operator": "Tesla",
    "ref": "dc39779",
    "socket:tesla_destination": "1",
    "socket:tesla_destination:output": "22kW",
    "socket:type2_cable": "1",
    "socket:type2_cable:output": "22kW",
    "website": "https://www.tesla.com/pt_PT/findus/list/chargers/Portugal",
    "id": "node/8198508190"
  },
  "geometry": {
    "type": "Point",
    "coordinates": [
      -9.4105437,
      38.7024678
    ]
  }
},
{
  "type": "Feature",
  "id": "node/8198508191",
  "properties": {
    "access": "customers",
    "addr:country": "PT",
    "amenity": "charging_station",
    "capacity": "2",
    "fee": "no",
    "motorcar": "yes",
    "name": "Hotel Baia Tesla Destination Charger",
    "network": "Tesla",
    "operator": "Tesla",
    "ref": "dc40000",
    "socket:tesla_destination": "1",
    "socket:tesla_destination:output": "17kW",
    "socket:type2_cable": "1",
    "socket:type2_cable:output": "17kW",
    "website": "https://www.tesla.com/pt_PT/findus/list/chargers/Portugal",
    "id": "node/8198508191"
  },
  "geometry": {
    "type": "Point",
    "coordinates": [
      -9.4201072,
      38.6974355
    ]
  }
},
{
  "type": "Feature",
  "id": "node/8198550881",
  "properties": {
    "access": "customers",
    "addr:country": "PT",
    "amenity": "charging_station",
    "capacity": "4",
    "fee": "no",
    "motorcar": "yes",
    "name": "Casa da Alca√ßova Tesla Destination Charger",
    "network": "Tesla",
    "operator": "Tesla",
    "ref": "dc34240",
    "socket:tesla_destination": "2",
    "socket:tesla_destination:output": "22kW",
    "socket:type2_cable": "2",
    "socket:type2_cable:output": "22kW",
    "website": "https://www.tesla.com/pt_PT/findus/list/chargers/Portugal",
    "id": "node/8198550881"
  },
  "geometry": {
    "type": "Point",
    "coordinates": [
      -8.6761851,
      39.2351311
    ]
  }
},
{
  "type": "Feature",
  "id": "node/8198550882",
  "properties": {
    "access": "customers",
    "addr:country": "PT",
    "amenity": "charging_station",
    "capacity": "2",
    "fee": "no",
    "motorcar": "yes",
    "name": "Restaurante O Micas II Tesla Destination Charger",
    "network": "Tesla",
    "operator": "Tesla",
    "ref": "dc49977",
    "socket:tesla_destination": "1",
    "socket:tesla_destination:output": "22kW",
    "socket:type2_cable": "1",
    "socket:type2_cable:output": "22kW",
    "website": "https://www.tesla.com/pt_PT/findus/list/chargers/Portugal",
    "id": "node/8198550882"
  },
  "geometry": {
    "type": "Point",
    "coordinates": [
      -8.683303,
      39.2329221
    ]
  }
},
{
  "type": "Feature",
  "id": "node/8198550883",
  "properties": {
    "access": "customers",
    "addr:country": "PT",
    "amenity": "charging_station",
    "capacity": "2",
    "fee": "no",
    "motorcar": "yes",
    "name": "Hotel Golf Mar Tesla Destination Charger",
    "network": "Tesla",
    "operator": "Tesla",
    "ref": "dc52749",
    "socket:tesla_destination": "1",
    "socket:tesla_destination:output": "22kW",
    "socket:type2_cable": "1",
    "socket:type2_cable:output": "22kW",
    "website": "https://www.tesla.com/pt_PT/findus/list/chargers/Portugal",
    "id": "node/8198550883"
  },
  "geometry": {
    "type": "Point",
    "coordinates": [
      -9.3548785,
      39.1793061
    ]
  }
},
{
  "type": "Feature",
  "id": "node/8198572859",
  "properties": {
    "access": "customers",
    "addr:country": "PT",
    "amenity": "charging_station",
    "capacity": "2",
    "fee": "no",
    "motorcar": "yes",
    "name": "Palacio Estoril Hotel Golf & Spa Tesla Destination Charger",
    "network": "Tesla",
    "operator": "Tesla",
    "ref": "dc9595",
    "socket:tesla_destination": "1",
    "socket:tesla_destination:output": "22kW",
    "socket:type2_cable": "1",
    "socket:type2_cable:output": "22kW",
    "website": "https://www.tesla.com/pt_PT/findus/list/chargers/Portugal",
    "id": "node/8198572859"
  },
  "geometry": {
    "type": "Point",
    "coordinates": [
      -9.396843,
      38.7047378
    ]
  }
},
{
  "type": "Feature",
  "id": "node/8198572860",
  "properties": {
    "access": "customers",
    "addr:country": "PT",
    "amenity": "charging_station",
    "capacity": "2",
    "fee": "no",
    "motorcar": "yes",
    "name": "Intercontinental Estoril Tesla Destination Charger",
    "network": "Tesla",
    "operator": "Tesla",
    "ref": "dc25021",
    "socket:tesla_destination": "1",
    "socket:tesla_destination:output": "11kW",
    "socket:type2_cable": "1",
    "socket:type2_cable:output": "11kW",
    "website": "https://www.tesla.com/pt_PT/findus/list/chargers/Portugal",
    "id": "node/8198572860"
  },
  "geometry": {
    "type": "Point",
    "coordinates": [
      -9.4058391,
      38.7043506
    ]
  }
},
{
  "type": "Feature",
  "id": "node/8198583025",
  "properties": {
    "access": "customers",
    "addr:country": "PT",
    "amenity": "charging_station",
    "capacity": "2",
    "fee": "no",
    "motorcar": "yes",
    "name": "Pestana Palace Lisboa Tesla Destination Charger",
    "network": "Tesla",
    "operator": "Tesla",
    "ref": "dc33017",
    "socket:tesla_destination": "1",
    "socket:tesla_destination:output": "11kW",
    "socket:type2_cable": "1",
    "socket:type2_cable:output": "11kW",
    "website": "https://www.tesla.com/pt_PT/findus/list/chargers/Portugal",
    "id": "node/8198583025"
  },
  "geometry": {
    "type": "Point",
    "coordinates": [
      -9.1866758,
      38.7035332
    ]
  }
},
{
  "type": "Feature",
  "id": "node/8198583026",
  "properties": {
    "access": "customers",
    "addr:country": "PT",
    "amenity": "charging_station",
    "capacity": "2",
    "fee": "no",
    "motorcar": "yes",
    "name": "Altis Belem Hotel & Spa Tesla Destination Charger",
    "network": "Tesla",
    "operator": "Tesla",
    "ref": "dc9590",
    "socket:tesla_destination": "1",
    "socket:tesla_destination:output": "22kW",
    "socket:type2_cable": "1",
    "socket:type2_cable:output": "22kW",
    "website": "https://www.tesla.com/pt_PT/findus/list/chargers/Portugal",
    "id": "node/8198583026"
  },
  "geometry": {
    "type": "Point",
    "coordinates": [
      -9.2108037,
      38.6932581
    ]
  }
},
{
  "type": "Feature",
  "id": "node/8198602709",
  "properties": {
    "access": "customers",
    "addr:country": "PT",
    "amenity": "charging_station",
    "capacity": "4",
    "fee": "no",
    "motorcar": "yes",
    "name": "Hotel Vincci Liberdade Tesla Destination Charger",
    "network": "Tesla",
    "operator": "Tesla",
    "ref": "dc22787",
    "socket:tesla_destination": "2",
    "socket:tesla_destination:output": "11kW",
    "socket:type2_cable": "2",
    "socket:type2_cable:output": "11kW",
    "website": "https://www.tesla.com/pt_PT/findus/list/chargers/Portugal",
    "id": "node/8198602709"
  },
  "geometry": {
    "type": "Point",
    "coordinates": [
      -9.1493341,
      38.72191
    ]
  }
},
{
  "type": "Feature",
  "id": "node/8198602710",
  "properties": {
    "access": "customers",
    "addr:country": "PT",
    "amenity": "charging_station",
    "capacity": "2",
    "fee": "no",
    "motorcar": "yes",
    "name": "BessaHotel Liberdade Tesla Destination Charger",
    "network": "Tesla",
    "operator": "Tesla",
    "ref": "dc14400",
    "socket:tesla_destination": "2",
    "socket:tesla_destination:output": "22kW",
    "socket:type2_cable": "2",
    "socket:type2_cable:output": "22kW",
    "website": "https://www.tesla.com/pt_PT/findus/list/chargers/Portugal",
    "id": "node/8198602710"
  },
  "geometry": {
    "type": "Point",
    "coordinates": [
      -9.1433783,
      38.7169534
    ]
  }
},
{
  "type": "Feature",
  "id": "node/8198602711",
  "properties": {
    "access": "customers",
    "addr:country": "PT",
    "amenity": "charging_station",
    "capacity": "2",
    "fee": "no",
    "motorcar": "yes",
    "name": "Olissippo Lapa Palace Tesla Destination Charger",
    "network": "Tesla",
    "operator": "Tesla",
    "ref": "dc9596",
    "socket:tesla_destination": "1",
    "socket:tesla_destination:output": "22kW",
    "socket:type2_cable": "1",
    "socket:type2_cable:output": "22kW",
    "website": "https://www.tesla.com/pt_PT/findus/list/chargers/Portugal",
    "id": "node/8198602711"
  },
  "geometry": {
    "type": "Point",
    "coordinates": [
      -9.1638295,
      38.7067828
    ]
  }
},
{
  "type": "Feature",
  "id": "node/8198605471",
  "properties": {
    "access": "customers",
    "addr:country": "PT",
    "amenity": "charging_station",
    "capacity": "4",
    "fee": "no",
    "motorcar": "yes",
    "name": "El Corte Ingles Lisboa Tesla Destination Charger",
    "network": "Tesla",
    "operator": "Tesla",
    "ref": "dc33466",
    "socket:tesla_destination": "2",
    "socket:tesla_destination:output": "17kW",
    "socket:type2_cable": "2",
    "socket:type2_cable:output": "17kW",
    "website": "https://www.tesla.com/pt_PT/findus/list/chargers/Portugal",
    "id": "node/8198605471"
  },
  "geometry": {
    "type": "Point",
    "coordinates": [
      -9.1538309,
      38.7338412
    ]
  }
},
{
  "type": "Feature",
  "id": "node/8198605472",
  "properties": {
    "access": "customers",
    "addr:country": "PT",
    "amenity": "charging_station",
    "capacity": "2",
    "fee": "no",
    "motorcar": "yes",
    "name": "H10 Duque de Loule Tesla Destination Charger",
    "network": "Tesla",
    "operator": "Tesla",
    "ref": "dc24156",
    "socket:tesla_destination": "1",
    "socket:tesla_destination:output": "22kW",
    "socket:type2_cable": "1",
    "socket:type2_cable:output": "22kW",
    "website": "https://www.tesla.com/pt_PT/findus/list/chargers/Portugal",
    "id": "node/8198605472"
  },
  "geometry": {
    "type": "Point",
    "coordinates": [
      -9.1471129,
      38.726414
    ]
  }
},
{
  "type": "Feature",
  "id": "node/8198636078",
  "properties": {
    "access": "customers",
    "addr:country": "PT",
    "amenity": "charging_station",
    "capacity": "2",
    "fee": "no",
    "motorcar": "yes",
    "name": "Jupiter Lisboa Hotel Tesla Destination Charger",
    "network": "Tesla",
    "operator": "Tesla",
    "ref": "dc39674",
    "socket:tesla_destination": "1",
    "socket:tesla_destination:output": "11kW",
    "socket:type2_cable": "1",
    "socket:type2_cable:output": "11kW",
    "website": "https://www.tesla.com/pt_PT/findus/list/chargers/Portugal",
    "id": "node/8198636078"
  },
  "geometry": {
    "type": "Point",
    "coordinates": [
      -9.1458607,
      38.7395853
    ]
  }
},
{
  "type": "Feature",
  "id": "node/8198651865",
  "properties": {
    "access": "customers",
    "addr:country": "PT",
    "amenity": "charging_station",
    "capacity": "2",
    "fee": "no",
    "motorcar": "yes",
    "name": "Hotel Tryp Lisboa Aeroporto Tesla Destination Charger",
    "network": "Tesla",
    "operator": "Tesla",
    "ref": "dc25879",
    "socket:tesla_destination": "1",
    "socket:tesla_destination:output": "11kW",
    "socket:type2_cable": "1",
    "socket:type2_cable:output": "11kW",
    "website": "https://www.tesla.com/pt_PT/findus/list/chargers/Portugal",
    "id": "node/8198651865"
  },
  "geometry": {
    "type": "Point",
    "coordinates": [
      -9.1254061,
      38.7702774
    ]
  }
},
{
  "type": "Feature",
  "id": "node/8198651866",
  "properties": {
    "access": "customers",
    "addr:country": "PT",
    "amenity": "charging_station",
    "capacity": "2",
    "fee": "no",
    "motorcar": "yes",
    "name": "Hotel Star inn Lisbon Tesla Destination Charger",
    "network": "Tesla",
    "operator": "Tesla",
    "ref": "dc25880",
    "socket:tesla_destination": "1",
    "socket:tesla_destination:output": "17kW",
    "socket:type2_cable": "1",
    "socket:type2_cable:output": "17kW",
    "website": "https://www.tesla.com/pt_PT/findus/list/chargers/Portugal",
    "id": "node/8198651866"
  },
  "geometry": {
    "type": "Point",
    "coordinates": [
      -9.1252479,
      38.7706643
    ]
  }
},
{
  "type": "Feature",
  "id": "node/8198651867",
  "properties": {
    "access": "customers",
    "addr:country": "PT",
    "amenity": "charging_station",
    "capacity": "2",
    "fee": "no",
    "motorcar": "yes",
    "name": "Olaias Park Hotel Tesla Destination Charger",
    "network": "Tesla",
    "operator": "Tesla",
    "ref": "dc33540",
    "socket:tesla_destination": "1",
    "socket:tesla_destination:output": "22kW",
    "socket:type2_cable": "1",
    "socket:type2_cable:output": "22kW",
    "website": "https://www.tesla.com/pt_PT/findus/list/chargers/Portugal",
    "id": "node/8198651867"
  },
  "geometry": {
    "type": "Point",
    "coordinates": [
      -9.1241696,
      38.7396418
    ]
  }
},
{
  "type": "Feature",
  "id": "node/8198652345",
  "properties": {
    "access": "customers",
    "addr:country": "PT",
    "amenity": "charging_station",
    "capacity": "4",
    "fee": "no",
    "motorcar": "yes",
    "name": "Dolce CampoReal Lisboa Tesla Destination Charger",
    "network": "Tesla",
    "operator": "Tesla",
    "ref": "dc38685",
    "socket:tesla_destination": "2",
    "socket:tesla_destination:output": "22kW",
    "socket:type2_cable": "2",
    "socket:type2_cable:output": "22kW",
    "website": "https://www.tesla.com/pt_PT/findus/list/chargers/Portugal",
    "id": "node/8198652345"
  },
  "geometry": {
    "type": "Point",
    "coordinates": [
      -9.2400934,
      39.0376301
    ]
  }
},
{
  "type": "Feature",
  "id": "node/8198652346",
  "properties": {
    "access": "customers",
    "addr:country": "PT",
    "amenity": "charging_station",
    "capacity": "2",
    "fee": "no",
    "motorcar": "yes",
    "name": "Hotel Tryp Oriente Tesla Destination Charger",
    "network": "Tesla",
    "operator": "Tesla",
    "ref": "dc45846",
    "socket:tesla_destination": "1",
    "socket:tesla_destination:output": "17kW",
    "socket:type2_cable": "1",
    "socket:type2_cable:output": "17kW",
    "website": "https://www.tesla.com/pt_PT/findus/list/chargers/Portugal",
    "id": "node/8198652346"
  },
  "geometry": {
    "type": "Point",
    "coordinates": [
      -9.0982595,
      38.7695136
    ]
  }
},
{
  "type": "Feature",
  "id": "node/8198711839",
  "properties": {
    "access": "customers",
    "addr:country": "PT",
    "amenity": "charging_station",
    "capacity": "2",
    "fee": "no",
    "motorcar": "yes",
    "name": "Ride Resort - Action Resort & SPA Tesla Destination Charger",
    "network": "Tesla",
    "operator": "Tesla",
    "ref": "dc55709",
    "socket:tesla_destination": "1",
    "socket:tesla_destination:output": "22kW",
    "socket:type2_cable": "1",
    "socket:type2_cable:output": "22kW",
    "website": "https://www.tesla.com/pt_PT/findus/list/chargers/Portugal",
    "id": "node/8198711839"
  },
  "geometry": {
    "type": "Point",
    "coordinates": [
      -9.3360642,
      39.3628285
    ]
  }
},
{
  "type": "Feature",
  "id": "node/8198711840",
  "properties": {
    "access": "customers",
    "addr:country": "PT",
    "amenity": "charging_station",
    "capacity": "4",
    "fee": "no",
    "motorcar": "yes",
    "name": "MH Peniche Tesla Destination Charger",
    "network": "Tesla",
    "operator": "Tesla",
    "ref": "dc76495",
    "socket:tesla_destination": "2",
    "socket:tesla_destination:output": "22kW",
    "socket:type2_cable": "2",
    "socket:type2_cable:output": "22kW",
    "website": "https://www.tesla.com/pt_PT/findus/list/chargers/Portugal",
    "id": "node/8198711840"
  },
  "geometry": {
    "type": "Point",
    "coordinates": [
      -9.363074,
      39.3571577
    ]
  }
},
{
  "type": "Feature",
  "id": "node/8198894641",
  "properties": {
    "access": "customers",
    "addr:country": "PT",
    "amenity": "charging_station",
    "capacity": "2",
    "fee": "no",
    "motorcar": "yes",
    "name": "Royal √ìbidos Spa & Golf Resort Tesla Destination Charger",
    "network": "Tesla",
    "operator": "Tesla",
    "ref": "dc61074",
    "socket:tesla_destination": "1",
    "socket:tesla_destination:output": "22kW",
    "socket:type2_cable": "1",
    "socket:type2_cable:output": "22kW",
    "website": "https://www.tesla.com/pt_PT/findus/list/chargers/Portugal",
    "id": "node/8198894641"
  },
  "geometry": {
    "type": "Point",
    "coordinates": [
      -9.2406915,
      39.4050925
    ]
  }
},
{
  "type": "Feature",
  "id": "node/8198894642",
  "properties": {
    "access": "customers",
    "addr:country": "PT",
    "amenity": "charging_station",
    "capacity": "2",
    "fee": "no",
    "motorcar": "yes",
    "name": "Hotel Rio do Prado Tesla Destination Charger",
    "network": "Tesla",
    "operator": "Tesla",
    "ref": "dc33152",
    "socket:tesla_destination": "1",
    "socket:tesla_destination:output": "22kW",
    "socket:type2_cable": "1",
    "socket:type2_cable:output": "22kW",
    "website": "https://www.tesla.com/pt_PT/findus/list/chargers/Portugal",
    "id": "node/8198894642"
  },
  "geometry": {
    "type": "Point",
    "coordinates": [
      -9.1958463,
      39.3860148
    ]
  }
},
{
  "type": "Feature",
  "id": "node/8198894643",
  "properties": {
    "access": "customers",
    "addr:country": "PT",
    "amenity": "charging_station",
    "capacity": "2",
    "fee": "no",
    "motorcar": "yes",
    "name": "Bom Sucesso Resort Tesla Destination Charger",
    "network": "Tesla",
    "operator": "Tesla",
    "ref": "dc48648",
    "socket:tesla_destination": "1",
    "socket:tesla_destination:output": "11kW",
    "socket:type2_cable": "1",
    "socket:type2_cable:output": "11kW",
    "website": "https://www.tesla.com/pt_PT/findus/list/chargers/Portugal",
    "id": "node/8198894643"
  },
  "geometry": {
    "type": "Point",
    "coordinates": [
      -9.2460801,
      39.3821065
    ]
  }
},
{
  "type": "Feature",
  "id": "node/8198894644",
  "properties": {
    "access": "customers",
    "addr:country": "PT",
    "amenity": "charging_station",
    "capacity": "2",
    "fee": "no",
    "motorcar": "yes",
    "name": "Hotel Marriott Praia D'El Rey Tesla Destination Charger",
    "network": "Tesla",
    "operator": "Tesla",
    "ref": "dc31576",
    "socket:tesla_destination": "1",
    "socket:tesla_destination:output": "22kW",
    "socket:type2_cable": "1",
    "socket:type2_cable:output": "22kW",
    "website": "https://www.tesla.com/pt_PT/findus/list/chargers/Portugal",
    "id": "node/8198894644"
  },
  "geometry": {
    "type": "Point",
    "coordinates": [
      -9.287881,
      39.3897716
    ]
  }
},
{
  "type": "Feature",
  "id": "node/8198915433",
  "properties": {
    "access": "customers",
    "addr:country": "PT",
    "amenity": "charging_station",
    "capacity": "2",
    "fee": "no",
    "motorcar": "yes",
    "name": "Restaurante O Bigodes Tesla Destination Charger",
    "network": "Tesla",
    "operator": "Tesla",
    "ref": "dc62260",
    "socket:tesla_destination": "1",
    "socket:tesla_destination:output": "11kW",
    "socket:type2_cable": "1",
    "socket:type2_cable:output": "11kW",
    "website": "https://www.tesla.com/pt_PT/findus/list/chargers/Portugal",
    "id": "node/8198915433"
  },
  "geometry": {
    "type": "Point",
    "coordinates": [
      -8.9629313,
      39.4102678
    ]
  }
},
{
  "type": "Feature",
  "id": "node/8198915434",
  "properties": {
    "access": "customers",
    "addr:country": "PT",
    "amenity": "charging_station",
    "capacity": "2",
    "fee": "no",
    "motorcar": "yes",
    "name": "SALARIUM Sal & Sabores Tesla Destination Charger",
    "network": "Tesla",
    "operator": "Tesla",
    "ref": "dc30217",
    "socket:tesla_destination": "1",
    "socket:tesla_destination:output": "22kW",
    "socket:type2_cable": "1",
    "socket:type2_cable:output": "22kW",
    "website": "https://www.tesla.com/pt_PT/findus/list/chargers/Portugal",
    "id": "node/8198915434"
  },
  "geometry": {
    "type": "Point",
    "coordinates": [
      -8.9460627,
      39.3638992
    ]
  }
},
{
  "type": "Feature",
  "id": "node/8198915435",
  "properties": {
    "access": "customers",
    "addr:country": "PT",
    "amenity": "charging_station",
    "capacity": "2",
    "fee": "no",
    "motorcar": "yes",
    "name": "Casa do Foral Tesla Destination Charger",
    "network": "Tesla",
    "operator": "Tesla",
    "ref": "dc52974",
    "socket:tesla_destination": "1",
    "socket:tesla_destination:output": "17kW",
    "socket:type2_cable": "1",
    "socket:type2_cable:output": "17kW",
    "website": "https://www.tesla.com/pt_PT/findus/list/chargers/Portugal",
    "id": "node/8198915435"
  },
  "geometry": {
    "type": "Point",
    "coordinates": [
      -8.9389339,
      39.3376258
    ]
  }
},
{
  "type": "Feature",
  "id": "node/8198922935",
  "properties": {
    "access": "customers",
    "addr:country": "PT",
    "amenity": "charging_station",
    "capacity": "2",
    "fee": "no",
    "motorcar": "yes",
    "name": "Hotel Eurosol Alcanena Tesla Destination Charger",
    "network": "Tesla",
    "operator": "Tesla",
    "ref": "dc39351",
    "socket:tesla_destination": "1",
    "socket:tesla_destination:output": "11kW",
    "socket:type2_cable": "1",
    "socket:type2_cable:output": "11kW",
    "website": "https://www.tesla.com/pt_PT/findus/list/chargers/Portugal",
    "id": "node/8198922935"
  },
  "geometry": {
    "type": "Point",
    "coordinates": [
      -8.6677972,
      39.4566031
    ]
  }
},
{
  "type": "Feature",
  "id": "node/8198922936",
  "properties": {
    "access": "customers",
    "addr:country": "PT",
    "amenity": "charging_station",
    "capacity": "2",
    "fee": "no",
    "motorcar": "yes",
    "name": "Hotel Lusitano Tesla Destination Charger",
    "network": "Tesla",
    "operator": "Tesla",
    "ref": "dc41349",
    "socket:tesla_destination": "1",
    "socket:tesla_destination:output": "22kW",
    "socket:type2_cable": "1",
    "socket:type2_cable:output": "22kW",
    "website": "https://www.tesla.com/pt_PT/findus/list/chargers/Portugal",
    "id": "node/8198922936"
  },
  "geometry": {
    "type": "Point",
    "coordinates": [
      -8.4881052,
      39.4027614
    ]
  }
},
{
  "type": "Feature",
  "id": "node/8198940839",
  "properties": {
    "access": "customers",
    "addr:country": "PT",
    "amenity": "charging_station",
    "capacity": "4",
    "fee": "no",
    "motorcar": "yes",
    "name": "Palace Hotel Monte Real Tesla Destination Charger",
    "network": "Tesla",
    "operator": "Tesla",
    "ref": "dc33585",
    "socket:tesla_destination": "1",
    "socket:tesla_destination:output": "11kW",
    "socket:type2_cable": "2",
    "socket:type2_cable:output": "11kW",
    "website": "https://www.tesla.com/pt_PT/findus/list/chargers/Portugal",
    "id": "node/8198940839"
  },
  "geometry": {
    "type": "Point",
    "coordinates": [
      -8.8674407,
      39.8518308
    ]
  }
},
{
  "type": "Feature",
  "id": "node/8198940840",
  "properties": {
    "access": "customers",
    "addr:country": "PT",
    "amenity": "charging_station",
    "capacity": "2",
    "fee": "no",
    "motorcar": "yes",
    "name": "Lisotel Hotel & Spa Tesla Destination Charger",
    "network": "Tesla",
    "operator": "Tesla",
    "ref": "dc24817",
    "socket:tesla_destination": "1",
    "socket:tesla_destination:output": "22kW",
    "socket:type2_cable": "1",
    "socket:type2_cable:output": "22kW",
    "website": "https://www.tesla.com/pt_PT/findus/list/chargers/Portugal",
    "id": "node/8198940840"
  },
  "geometry": {
    "type": "Point",
    "coordinates": [
      -8.8426832,
      39.8075378
    ]
  }
},
{
  "type": "Feature",
  "id": "node/8198940841",
  "properties": {
    "access": "customers",
    "addr:country": "PT",
    "amenity": "charging_station",
    "capacity": "2",
    "fee": "no",
    "motorcar": "yes",
    "name": "Hotel Tryp Leiria Tesla Destination Charger",
    "network": "Tesla",
    "operator": "Tesla",
    "ref": "dc51425",
    "socket:tesla_destination": "1",
    "socket:tesla_destination:output": "17kW",
    "socket:type2_cable": "1",
    "socket:type2_cable:output": "17kW",
    "website": "https://www.tesla.com/pt_PT/findus/list/chargers/Portugal",
    "id": "node/8198940841"
  },
  "geometry": {
    "type": "Point",
    "coordinates": [
      -8.8131798,
      39.7537327
    ]
  }
},
{
  "type": "Feature",
  "id": "node/8198947932",
  "properties": {
    "access": "customers",
    "addr:country": "PT",
    "amenity": "charging_station",
    "capacity": "2",
    "fee": "no",
    "motorcar": "yes",
    "name": "Hotel Eurosol Residence Tesla Destination Charger",
    "network": "Tesla",
    "operator": "Tesla",
    "ref": "dc39350",
    "socket:tesla_destination": "1",
    "socket:tesla_destination:output": "11kW",
    "socket:type2_cable": "1",
    "socket:type2_cable:output": "11kW",
    "website": "https://www.tesla.com/pt_PT/findus/list/chargers/Portugal",
    "id": "node/8198947932"
  },
  "geometry": {
    "type": "Point",
    "coordinates": [
      -8.8030831,
      39.745717
    ]
  }
},
{
  "type": "Feature",
  "id": "node/8198947933",
  "properties": {
    "access": "customers",
    "addr:country": "PT",
    "amenity": "charging_station",
    "capacity": "2",
    "fee": "no",
    "motorcar": "yes",
    "name": "Hotel Eurosol LEIRIA & JARDIM - Tesla Destination Charger",
    "network": "Tesla",
    "operator": "Tesla",
    "ref": "dc39353",
    "socket:tesla_destination": "1",
    "socket:tesla_destination:output": "11kW",
    "socket:type2_cable": "1",
    "socket:type2_cable:output": "11kW",
    "website": "https://www.tesla.com/pt_PT/findus/list/chargers/Portugal",
    "id": "node/8198947933"
  },
  "geometry": {
    "type": "Point",
    "coordinates": [
      -8.8101024,
      39.7396756
    ]
  }
},
{
  "type": "Feature",
  "id": "node/8198947934",
  "properties": {
    "access": "customers",
    "addr:country": "PT",
    "amenity": "charging_station",
    "capacity": "2",
    "fee": "no",
    "motorcar": "yes",
    "name": "Hotel Estrela de F√°tima Tesla Destination Charger",
    "network": "Tesla",
    "operator": "Tesla",
    "ref": "dc24335",
    "socket:tesla_destination": "1",
    "socket:tesla_destination:output": "22kW",
    "socket:type2_cable": "1",
    "socket:type2_cable:output": "22kW",
    "website": "https://www.tesla.com/pt_PT/findus/list/chargers/Portugal",
    "id": "node/8198947934"
  },
  "geometry": {
    "type": "Point",
    "coordinates": [
      -8.6735377,
      39.6292181
    ]
  }
},
{
  "type": "Feature",
  "id": "node/8198947935",
  "properties": {
    "access": "customers",
    "addr:country": "PT",
    "amenity": "charging_station",
    "capacity": "2",
    "fee": "no",
    "motorcar": "yes",
    "name": "Hotel Cruz Alta Tesla Destination Charger",
    "network": "Tesla",
    "operator": "Tesla",
    "ref": "dc26243",
    "socket:tesla_destination": "1",
    "socket:tesla_destination:output": "22kW",
    "socket:type2_cable": "1",
    "socket:type2_cable:output": "22kW",
    "website": "https://www.tesla.com/pt_PT/findus/list/chargers/Portugal",
    "id": "node/8198947935"
  },
  "geometry": {
    "type": "Point",
    "coordinates": [
      -8.675019,
      39.6280607
    ]
  }
},
{
  "type": "Feature",
  "id": "node/8198947936",
  "properties": {
    "access": "customers",
    "addr:country": "PT",
    "amenity": "charging_station",
    "capacity": "2",
    "fee": "no",
    "motorcar": "yes",
    "name": "Casa Das Rendufas- Turismo Rural Com Figos Tesla Destination Charger",
    "network": "Tesla",
    "operator": "Tesla",
    "ref": "dc39359",
    "socket:tesla_destination": "1",
    "socket:tesla_destination:output": "11kW",
    "socket:type2_cable": "1",
    "socket:type2_cable:output": "11kW",
    "website": "https://www.tesla.com/pt_PT/findus/list/chargers/Portugal",
    "id": "node/8198947936"
  },
  "geometry": {
    "type": "Point",
    "coordinates": [
      -8.5247952,
      39.5487821
    ]
  }
},
{
  "type": "Feature",
  "id": "node/8198947937",
  "properties": {
    "access": "customers",
    "addr:country": "PT",
    "amenity": "charging_station",
    "capacity": "2",
    "fee": "no",
    "motorcar": "yes",
    "name": "Quinta das Soizas Tesla Destination Charger",
    "network": "Tesla",
    "operator": "Tesla",
    "ref": "dc54375",
    "socket:tesla_destination": "1",
    "socket:tesla_destination:output": "17kW",
    "socket:type2_cable": "1",
    "socket:type2_cable:output": "17kW",
    "website": "https://www.tesla.com/pt_PT/findus/list/chargers/Portugal",
    "id": "node/8198947937"
  },
  "geometry": {
    "type": "Point",
    "coordinates": [
      -9.1047907,
      39.5035833
    ]
  }
},
{
  "type": "Feature",
  "id": "node/8198991155",
  "properties": {
    "access": "customers",
    "addr:country": "PT",
    "amenity": "charging_station",
    "capacity": "2",
    "fee": "no",
    "motorcar": "yes",
    "name": "Hotel Eurosol Seia Camelo Tesla Destination Charger",
    "network": "Tesla",
    "operator": "Tesla",
    "ref": "dc39354",
    "socket:tesla_destination": "1",
    "socket:tesla_destination:output": "11kW",
    "socket:type2_cable": "1",
    "socket:type2_cable:output": "11kW",
    "website": "https://www.tesla.com/pt_PT/findus/list/chargers/Portugal",
    "id": "node/8198991155"
  },
  "geometry": {
    "type": "Point",
    "coordinates": [
      -7.7051148,
      40.4184625
    ]
  }
},
{
  "type": "Feature",
  "id": "node/8198991156",
  "properties": {
    "access": "customers",
    "addr:country": "PT",
    "amenity": "charging_station",
    "capacity": "2",
    "fee": "no",
    "motorcar": "yes",
    "name": "Parque de Campismo - Vitor M. P. Silva Tesla Destination Charger",
    "network": "Tesla",
    "operator": "Tesla",
    "ref": "dc32807",
    "socket:tesla_destination": "1",
    "socket:tesla_destination:output": "22kW",
    "socket:type2_cable": "1",
    "socket:type2_cable:output": "22kW",
    "website": "https://www.tesla.com/pt_PT/findus/list/chargers/Portugal",
    "id": "node/8198991156"
  },
  "geometry": {
    "type": "Point",
    "coordinates": [
      -8.0417454,
      40.4111883
    ]
  }
},
{
  "type": "Feature",
  "id": "node/8198991157",
  "properties": {
    "access": "customers",
    "addr:country": "PT",
    "amenity": "charging_station",
    "capacity": "2",
    "fee": "no",
    "motorcar": "yes",
    "name": "Rei dos Leit√µes Tesla Destination Charger",
    "network": "Tesla",
    "operator": "Tesla",
    "ref": "dc60047",
    "socket:tesla_destination": "1",
    "socket:tesla_destination:output": "22kW",
    "socket:type2_cable": "1",
    "socket:type2_cable:output": "22kW",
    "website": "https://www.tesla.com/pt_PT/findus/list/chargers/Portugal",
    "id": "node/8198991157"
  },
  "geometry": {
    "type": "Point",
    "coordinates": [
      -8.4512195,
      40.3899291
    ]
  }
},
{
  "type": "Feature",
  "id": "node/8198991158",
  "properties": {
    "access": "customers",
    "addr:country": "PT",
    "amenity": "charging_station",
    "capacity": "4",
    "fee": "no",
    "motorcar": "yes",
    "name": "Grande Hotel de Luso Tesla Destination Charger",
    "network": "Tesla",
    "operator": "Tesla",
    "ref": "dc54546",
    "socket:tesla_destination": "2",
    "socket:tesla_destination:output": "11kW",
    "socket:type2_cable": "2",
    "socket:type2_cable:output": "11kW",
    "website": "https://www.tesla.com/pt_PT/findus/list/chargers/Portugal",
    "id": "node/8198991158"
  },
  "geometry": {
    "type": "Point",
    "coordinates": [
      -8.3782661,
      40.3848047
    ]
  }
},
{
  "type": "Feature",
  "id": "node/8198991159",
  "properties": {
    "access": "customers",
    "addr:country": "PT",
    "amenity": "charging_station",
    "capacity": "2",
    "fee": "no",
    "motorcar": "yes",
    "name": "Aqua Village Health Resort & Spa Tesla Destination Charger",
    "network": "Tesla",
    "operator": "Tesla",
    "ref": "dc40363",
    "socket:tesla_destination": "1",
    "socket:tesla_destination:output": "22kW",
    "socket:type2_cable": "1",
    "socket:type2_cable:output": "22kW",
    "website": "https://www.tesla.com/pt_PT/findus/list/chargers/Portugal",
    "id": "node/8198991159"
  },
  "geometry": {
    "type": "Point",
    "coordinates": [
      -7.8419718,
      40.3260149
    ]
  }
},
{
  "type": "Feature",
  "id": "node/8198991160",
  "properties": {
    "access": "customers",
    "addr:country": "PT",
    "amenity": "charging_station",
    "capacity": "5",
    "fee": "no",
    "motorcar": "yes",
    "name": "H2otel Congress & Medical Spa Tesla Destination Charger",
    "network": "Tesla",
    "operator": "Tesla",
    "ref": "dc40417",
    "socket:tesla_destination": "1",
    "socket:tesla_destination:output": "22kW",
    "socket:type2_cable": "2",
    "socket:type2_cable:output": "22kW",
    "website": "https://www.tesla.com/pt_PT/findus/list/chargers/Portugal",
    "id": "node/8198991160"
  },
  "geometry": {
    "type": "Point",
    "coordinates": [
      -7.6243146,
      40.2656169
    ]
  }
},
{
  "type": "Feature",
  "id": "node/8198991161",
  "properties": {
    "access": "customers",
    "addr:country": "PT",
    "amenity": "charging_station",
    "capacity": "2",
    "fee": "no",
    "motorcar": "yes",
    "name": "Hotel Parque Serra da Lous√£ Tesla Destination Charger",
    "network": "Tesla",
    "operator": "Tesla",
    "ref": "dc38416",
    "socket:tesla_destination": "1",
    "socket:tesla_destination:output": "22kW",
    "socket:type2_cable": "1",
    "socket:type2_cable:output": "22kW",
    "website": "https://www.tesla.com/pt_PT/findus/list/chargers/Portugal",
    "id": "node/8198991161"
  },
  "geometry": {
    "type": "Point",
    "coordinates": [
      -8.3356364,
      40.0840001
    ]
  }
},
{
  "type": "Feature",
  "id": "node/8198991162",
  "properties": {
    "access": "customers",
    "addr:country": "PT",
    "amenity": "charging_station",
    "capacity": "2",
    "fee": "no",
    "motorcar": "yes",
    "name": "Duecitania Design Hotel Tesla Destination Charger",
    "network": "Tesla",
    "operator": "Tesla",
    "ref": "dc19358",
    "socket:tesla_destination": "1",
    "socket:tesla_destination:output": "11kW",
    "socket:type2_cable": "1",
    "socket:type2_cable:output": "11kW",
    "website": "https://www.tesla.com/pt_PT/findus/list/chargers/Portugal",
    "id": "node/8198991162"
  },
  "geometry": {
    "type": "Point",
    "coordinates": [
      -8.3748221,
      40.0232437
    ]
  }
},
{
  "type": "Feature",
  "id": "node/8198991163",
  "properties": {
    "access": "customers",
    "addr:country": "PT",
    "amenity": "charging_station",
    "capacity": "2",
    "fee": "no",
    "motorcar": "yes",
    "name": "Acquavilla House Tesla Destination Charger",
    "network": "Tesla",
    "operator": "Tesla",
    "ref": "dc56828",
    "socket:tesla_destination": "1",
    "socket:tesla_destination:output": "17kW",
    "socket:type2_cable": "1",
    "socket:type2_cable:output": "17kW",
    "website": "https://www.tesla.com/pt_PT/findus/list/chargers/Portugal",
    "id": "node/8198991163"
  },
  "geometry": {
    "type": "Point",
    "coordinates": [
      -8.609675,
      39.8782878
    ]
  }
},
{
  "type": "Feature",
  "id": "node/8199071702",
  "properties": {
    "access": "customers",
    "addr:country": "PT",
    "amenity": "charging_station",
    "capacity": "3",
    "fee": "no",
    "motorcar": "yes",
    "name": "Quinta do Prado Verde Tesla Destination Charger",
    "network": "Tesla",
    "operator": "Tesla",
    "ref": "dc70194",
    "socket:tesla_destination": "1",
    "socket:tesla_destination:output": "22kW",
    "socket:type2_cable": "1",
    "socket:type2_cable:output": "22kW",
    "website": "https://www.tesla.com/pt_PT/findus/list/chargers/Portugal",
    "id": "node/8199071702"
  },
  "geometry": {
    "type": "Point",
    "coordinates": [
      -6.8275899,
      40.6146691
    ]
  }
},
{
  "type": "Feature",
  "id": "node/8199071703",
  "properties": {
    "access": "customers",
    "addr:country": "PT",
    "amenity": "charging_station",
    "capacity": "2",
    "fee": "no",
    "motorcar": "yes",
    "name": "Eurosol Gouveia Tesla Destination Charger",
    "network": "Tesla",
    "operator": "Tesla",
    "ref": "dc39352",
    "socket:tesla_destination": "1",
    "socket:tesla_destination:output": "11kW",
    "socket:type2_cable": "1",
    "socket:type2_cable:output": "11kW",
    "website": "https://www.tesla.com/pt_PT/findus/list/chargers/Portugal",
    "id": "node/8199071703"
  },
  "geometry": {
    "type": "Point",
    "coordinates": [
      -7.5923869,
      40.4955361
    ]
  }
},
{
  "type": "Feature",
  "id": "node/8199164856",
  "properties": {
    "access": "customers",
    "addr:country": "PT",
    "amenity": "charging_station",
    "capacity": "2",
    "fee": "no",
    "motorcar": "yes",
    "name": "Quinta Do Fontelo Tesla Destination Charger",
    "network": "Tesla",
    "operator": "Tesla",
    "ref": "dc23538",
    "socket:tesla_destination": "1",
    "socket:tesla_destination:output": "22kW",
    "socket:type2_cable": "1",
    "socket:type2_cable:output": "22kW",
    "website": "https://www.tesla.com/pt_PT/findus/list/chargers/Portugal",
    "id": "node/8199164856"
  },
  "geometry": {
    "type": "Point",
    "coordinates": [
      -8.1199707,
      40.7143096
    ]
  }
},
{
  "type": "Feature",
  "id": "node/8199164857",
  "properties": {
    "access": "customers",
    "addr:country": "PT",
    "amenity": "charging_station",
    "capacity": "2",
    "fee": "no",
    "motorcar": "yes",
    "name": "Melia Ria Hotel & Spa Tesla Destination Charger",
    "network": "Tesla",
    "operator": "Tesla",
    "ref": "dc54232",
    "socket:tesla_destination": "1",
    "socket:tesla_destination:output": "17kW",
    "socket:type2_cable": "1",
    "socket:type2_cable:output": "17kW",
    "website": "https://www.tesla.com/pt_PT/findus/list/chargers/Portugal",
    "id": "node/8199164857"
  },
  "geometry": {
    "type": "Point",
    "coordinates": [
      -8.6451891,
      40.6383585
    ]
  }
},
{
  "type": "Feature",
  "id": "node/8199164858",
  "properties": {
    "access": "customers",
    "addr:country": "PT",
    "amenity": "charging_station",
    "capacity": "2",
    "fee": "no",
    "motorcar": "yes",
    "name": "Hotel √çlhavo plaza Tesla Destination Charger",
    "network": "Tesla",
    "operator": "Tesla",
    "ref": "dc40814",
    "socket:tesla_destination": "1",
    "socket:tesla_destination:output": "22kW",
    "socket:type2_cable": "1",
    "socket:type2_cable:output": "22kW",
    "website": "https://www.tesla.com/pt_PT/findus/list/chargers/Portugal",
    "id": "node/8199164858"
  },
  "geometry": {
    "type": "Point",
    "coordinates": [
      -8.6729081,
      40.6034321
    ]
  }
},
{
  "type": "Feature",
  "id": "node/8199190764",
  "properties": {
    "access": "customers",
    "addr:country": "PT",
    "amenity": "charging_station",
    "capacity": "2",
    "fee": "no",
    "motorcar": "yes",
    "name": "Colmeal Countryside Hotel Tesla Destination Charger",
    "network": "Tesla",
    "operator": "Tesla",
    "ref": "dc41969",
    "socket:tesla_destination": "1",
    "socket:tesla_destination:output": "11kW",
    "socket:type2_cable": "1",
    "socket:type2_cable:output": "11kW",
    "website": "https://www.tesla.com/pt_PT/findus/list/chargers/Portugal",
    "id": "node/8199190764"
  },
  "geometry": {
    "type": "Point",
    "coordinates": [
      -7.0149958,
      40.8556393
    ]
  }
},
{
  "type": "Feature",
  "id": "node/8199190765",
  "properties": {
    "access": "customers",
    "addr:country": "PT",
    "amenity": "charging_station",
    "capacity": "2",
    "fee": "no",
    "motorcar": "yes",
    "name": "Hotel Vale do Rio Tesla Destination Charger",
    "network": "Tesla",
    "operator": "Tesla",
    "ref": "dc29858",
    "socket:tesla_destination": "1",
    "socket:tesla_destination:output": "22kW",
    "socket:type2_cable": "1",
    "socket:type2_cable:output": "22kW",
    "website": "https://www.tesla.com/pt_PT/findus/list/chargers/Portugal",
    "id": "node/8199190765"
  },
  "geometry": {
    "type": "Point",
    "coordinates": [
      -8.449616,
      40.808471
    ]
  }
},
{
  "type": "Feature",
  "id": "node/8199286788",
  "properties": {
    "access": "customers",
    "addr:country": "PT",
    "amenity": "charging_station",
    "capacity": "2",
    "fee": "no",
    "motorcar": "yes",
    "name": "Douro Royal Valley Hotel & Spa Tesla Destination Charger",
    "network": "Tesla",
    "operator": "Tesla",
    "ref": "dc26399",
    "socket:tesla_destination": "1",
    "socket:tesla_destination:output": "22kW",
    "socket:type2_cable": "1",
    "socket:type2_cable:output": "22kW",
    "website": "https://www.tesla.com/pt_PT/findus/list/chargers/Portugal",
    "id": "node/8199286788"
  },
  "geometry": {
    "type": "Point",
    "coordinates": [
      -8.0952716,
      41.1032673
    ]
  }
},
{
  "type": "Feature",
  "id": "node/8199286789",
  "properties": {
    "access": "customers",
    "addr:country": "PT",
    "amenity": "charging_station",
    "capacity": "4",
    "fee": "no",
    "motorcar": "yes",
    "name": "Tapada de S√£o Domingos Tesla Destination Charger",
    "network": "Tesla",
    "operator": "Tesla",
    "ref": "dc29654",
    "socket:tesla_destination": "2",
    "socket:tesla_destination:output": "11kW",
    "socket:type2_cable": "2",
    "socket:type2_cable:output": "11kW",
    "website": "https://www.tesla.com/pt_PT/findus/list/chargers/Portugal",
    "id": "node/8199286789"
  },
  "geometry": {
    "type": "Point",
    "coordinates": [
      -8.5053465,
      41.0736109
    ]
  }
},
{
  "type": "Feature",
  "id": "node/8199286790",
  "properties": {
    "access": "customers",
    "addr:country": "PT",
    "amenity": "charging_station",
    "capacity": "2",
    "fee": "no",
    "motorcar": "yes",
    "name": "Hotel Solverde Spa & Wellness Center Tesla Destination Charger",
    "network": "Tesla",
    "operator": "Tesla",
    "ref": "dc24469",
    "socket:tesla_destination": "1",
    "socket:tesla_destination:output": "22kW",
    "socket:type2_cable": "1",
    "socket:type2_cable:output": "22kW",
    "website": "https://www.tesla.com/pt_PT/findus/list/chargers/Portugal",
    "id": "node/8199286790"
  },
  "geometry": {
    "type": "Point",
    "coordinates": [
      -8.6424154,
      41.0289635
    ]
  }
},
{
  "type": "Feature",
  "id": "node/8199286791",
  "properties": {
    "access": "customers",
    "addr:country": "PT",
    "amenity": "charging_station",
    "capacity": "2",
    "fee": "no",
    "motorcar": "yes",
    "name": "Hotel Apartamento Solverde Tesla Destination Charger",
    "network": "Tesla",
    "operator": "Tesla",
    "ref": "dc29115",
    "socket:tesla_destination": "1",
    "socket:tesla_destination:output": "22kW",
    "socket:type2_cable": "1",
    "socket:type2_cable:output": "22kW",
    "website": "https://www.tesla.com/pt_PT/findus/list/chargers/Portugal",
    "id": "node/8199286791"
  },
  "geometry": {
    "type": "Point",
    "coordinates": [
      -8.6450171,
      41.0080545
    ]
  }
},
{
  "type": "Feature",
  "id": "node/8199286792",
  "properties": {
    "access": "customers",
    "addr:country": "PT",
    "amenity": "charging_station",
    "brand": "Tesla Supercharger",
    "brand:wikidata": "Q17089620",
    "brand:wikipedia": "en:Tesla Supercharger",
    "capacity": "2",
    "fee": "no",
    "motorcar": "yes",
    "name": "Restaurante Terra M√£e Tesla Destination Charger",
    "network": "Tesla",
    "operator": "Tesla, Inc.",
    "operator:wikidata": "Q478214",
    "operator:wikipedia": "en:Tesla, Inc.",
    "ref": "dc57787",
    "short_name": "Tesla",
    "socket:tesla_destination": "1",
    "socket:tesla_destination:output": "22kW",
    "socket:type2_cable": "1",
    "socket:type2_cable:output": "22kW",
    "website": "https://www.tesla.com/pt_PT/findus/list/chargers/Portugal",
    "id": "node/8199286792"
  },
  "geometry": {
    "type": "Point",
    "coordinates": [
      -8.5342714,
      40.9575606
    ]
  }
},
{
  "type": "Feature",
  "id": "node/8199289503",
  "properties": {
    "access": "customers",
    "addr:country": "PT",
    "amenity": "charging_station",
    "capacity": "3",
    "fee": "no",
    "motorcar": "yes",
    "name": "Quinta do Ventozelo Tesla Destination Charger",
    "network": "Tesla",
    "operator": "Tesla",
    "ref": "dc93367",
    "socket:tesla_destination": "1",
    "socket:tesla_destination:output": "22kW",
    "socket:type2_cable": "2",
    "socket:type2_cable:output": "22kW",
    "website": "https://www.tesla.com/pt_PT/findus/list/chargers/Portugal",
    "id": "node/8199289503"
  },
  "geometry": {
    "type": "Point",
    "coordinates": [
      -7.5151527,
      41.1767462
    ]
  }
},
{
  "type": "Feature",
  "id": "node/8199289504",
  "properties": {
    "access": "customers",
    "addr:country": "PT",
    "amenity": "charging_station",
    "capacity": "2",
    "fee": "no",
    "motorcar": "yes",
    "name": "Quinta do Tedo Tesla Destination Charger",
    "network": "Tesla",
    "operator": "Tesla",
    "ref": "dc55275",
    "socket:tesla_destination": "1",
    "socket:tesla_destination:output": "22kW",
    "socket:type2_cable": "1",
    "socket:type2_cable:output": "22kW",
    "website": "https://www.tesla.com/pt_PT/findus/list/chargers/Portugal",
    "id": "node/8199289504"
  },
  "geometry": {
    "type": "Point",
    "coordinates": [
      -7.6400176,
      41.1567414
    ]
  }
},
{
  "type": "Feature",
  "id": "node/8199289505",
  "properties": {
    "access": "customers",
    "addr:country": "PT",
    "amenity": "charging_station",
    "capacity": "2",
    "fee": "no",
    "motorcar": "yes",
    "name": "Quinta Seara d'Ordens Tesla Destination Charger",
    "network": "Tesla",
    "operator": "Tesla",
    "ref": "dc76300",
    "socket:tesla_destination": "1",
    "socket:tesla_destination:output": "11kW",
    "socket:type2_cable": "1",
    "socket:type2_cable:output": "11kW",
    "website": "https://www.tesla.com/pt_PT/findus/list/chargers/Portugal",
    "id": "node/8199289505"
  },
  "geometry": {
    "type": "Point",
    "coordinates": [
      -7.7276024,
      41.1884202
    ]
  }
},
{
  "type": "Feature",
  "id": "node/8199290478",
  "properties": {
    "access": "customers",
    "addr:country": "PT",
    "amenity": "charging_station",
    "capacity": "2",
    "fee": "no",
    "motorcar": "yes",
    "name": "Hotel Monverde Tesla Destination Charger",
    "network": "Tesla",
    "operator": "Tesla",
    "ref": "dc41935",
    "socket:tesla_destination": "1",
    "socket:tesla_destination:output": "22kW",
    "socket:type2_cable": "1",
    "socket:type2_cable:output": "22kW",
    "website": "https://www.tesla.com/pt_PT/findus/list/chargers/Portugal",
    "id": "node/8199290478"
  },
  "geometry": {
    "type": "Point",
    "coordinates": [
      -8.1203985,
      41.3215131
    ]
  }
},
{
  "type": "Feature",
  "id": "node/8199290479",
  "properties": {
    "access": "customers",
    "addr:country": "PT",
    "amenity": "charging_station",
    "capacity": "2",
    "fee": "no",
    "motorcar": "yes",
    "name": "Casa da Cal√ßada Tesla Destination Charger",
    "network": "Tesla",
    "operator": "Tesla",
    "ref": "dc42028",
    "socket:tesla_destination": "1",
    "socket:tesla_destination:output": "22kW",
    "socket:type2_cable": "1",
    "socket:type2_cable:output": "22kW",
    "website": "https://www.tesla.com/pt_PT/findus/list/chargers/Portugal",
    "id": "node/8199290479"
  },
  "geometry": {
    "type": "Point",
    "coordinates": [
      -8.0778654,
      41.268106
    ]
  }
},
{
  "type": "Feature",
  "id": "node/8199311654",
  "properties": {
    "access": "customers",
    "addr:country": "PT",
    "amenity": "charging_station",
    "capacity": "2",
    "fee": "no",
    "motorcar": "yes",
    "name": "Six Senses Douro Valley Tesla Destination Charger",
    "network": "Tesla",
    "operator": "Tesla",
    "ref": "dc38939",
    "socket:tesla_destination": "1",
    "socket:tesla_destination:output": "22kW",
    "socket:type2_cable": "1",
    "socket:type2_cable:output": "22kW",
    "website": "https://www.tesla.com/pt_PT/findus/list/chargers/Portugal",
    "id": "node/8199311654"
  },
  "geometry": {
    "type": "Point",
    "coordinates": [
      -7.8110553,
      41.143969
    ]
  }
},
{
  "type": "Feature",
  "id": "node/8199311655",
  "properties": {
    "access": "customers",
    "addr:country": "PT",
    "amenity": "charging_station",
    "capacity": "2",
    "fee": "no",
    "motorcar": "yes",
    "name": "Douro Palace Hotel Resort & Spa Tesla Destination Charger",
    "network": "Tesla",
    "operator": "Tesla",
    "ref": "dc23227",
    "socket:tesla_destination": "1",
    "socket:tesla_destination:output": "11kW",
    "socket:type2_cable": "1",
    "socket:type2_cable:output": "11kW",
    "website": "https://www.tesla.com/pt_PT/findus/list/chargers/Portugal",
    "id": "node/8199311655"
  },
  "geometry": {
    "type": "Point",
    "coordinates": [
      -8.0067587,
      41.1107026
    ]
  }
},
{
  "type": "Feature",
  "id": "node/8199379238",
  "properties": {
    "access": "customers",
    "addr:country": "PT",
    "amenity": "charging_station",
    "capacity": "2",
    "fee": "no",
    "motorcar": "yes",
    "name": "Bessa Hotel Boavista Tesla Destination Charger",
    "network": "Tesla",
    "operator": "Tesla",
    "ref": "dc17031",
    "socket:tesla_destination": "2",
    "socket:tesla_destination:output": "22kW",
    "socket:type2_cable": "2",
    "socket:type2_cable:output": "22kW",
    "website": "https://www.tesla.com/pt_PT/findus/list/chargers/Portugal",
    "id": "node/8199379238"
  },
  "geometry": {
    "type": "Point",
    "coordinates": [
      -8.6450212,
      41.162328
    ]
  }
},
{
  "type": "Feature",
  "id": "node/8199379239",
  "properties": {
    "access": "customers",
    "addr:country": "PT",
    "amenity": "charging_station",
    "capacity": "2",
    "fee": "no",
    "motorcar": "yes",
    "name": "Sheraton Porto Hotel and Spa Tesla Destination Charger",
    "network": "Tesla",
    "operator": "Tesla",
    "ref": "dc25411",
    "socket:tesla_destination": "1",
    "socket:tesla_destination:output": "22kW",
    "socket:type2_cable": "1",
    "socket:type2_cable:output": "22kW",
    "website": "https://www.tesla.com/pt_PT/findus/list/chargers/Portugal",
    "id": "node/8199379239"
  },
  "geometry": {
    "type": "Point",
    "coordinates": [
      -8.6402482,
      41.1614718
    ]
  }
},
{
  "type": "Feature",
  "id": "node/8199379240",
  "properties": {
    "access": "customers",
    "addr:country": "PT",
    "amenity": "charging_station",
    "brand": "Tesla Supercharger",
    "brand:wikidata": "Q17089620",
    "brand:wikipedia": "en:Tesla Supercharger",
    "capacity": "2",
    "fee": "no",
    "layer": "-1",
    "motorcar": "yes",
    "name": "Hotel Crowne Plaza Porto Tesla Destination Charger",
    "network": "Tesla",
    "operator": "Tesla, Inc.",
    "operator:wikidata": "Q478214",
    "operator:wikipedia": "en:Tesla, Inc.",
    "ref": "dc24669",
    "short_name": "Tesla",
    "socket:tesla_destination": "1",
    "socket:tesla_destination:output": "22kW",
    "socket:type2_cable": "1",
    "socket:type2_cable:output": "22kW",
    "website": "https://www.tesla.com/pt_PT/findus/list/chargers/Portugal",
    "id": "node/8199379240"
  },
  "geometry": {
    "type": "Point",
    "coordinates": [
      -8.6404596,
      41.1602409
    ]
  }
},
{
  "type": "Feature",
  "id": "node/8199379241",
  "properties": {
    "access": "customers",
    "addr:country": "PT",
    "amenity": "charging_station",
    "capacity": "2",
    "fee": "no",
    "motorcar": "yes",
    "name": "Hotel da M√∫sica Porto Tesla Destination Charger",
    "network": "Tesla",
    "operator": "Tesla",
    "ref": "dc42035",
    "socket:tesla_destination": "1",
    "socket:tesla_destination:output": "17kW",
    "socket:type2_cable": "1",
    "socket:type2_cable:output": "17kW",
    "website": "https://www.tesla.com/pt_PT/findus/list/chargers/Portugal",
    "id": "node/8199379241"
  },
  "geometry": {
    "type": "Point",
    "coordinates": [
      -8.6291941,
      41.1563481
    ]
  }
},
{
  "type": "Feature",
  "id": "node/8199383574",
  "properties": {
    "access": "customers",
    "addr:country": "PT",
    "amenity": "charging_station",
    "capacity": "2",
    "fee": "no",
    "motorcar": "yes",
    "name": "BessaHotel Baixa Tesla Destination Charger",
    "network": "Tesla",
    "operator": "Tesla",
    "ref": "dc514131",
    "socket:tesla_destination": "2",
    "socket:tesla_destination:output": "22kW",
    "socket:type2_cable": "2",
    "socket:type2_cable:output": "22kW",
    "website": "https://www.tesla.com/pt_PT/findus/list/chargers/Portugal",
    "id": "node/8199383574"
  },
  "geometry": {
    "type": "Point",
    "coordinates": [
      -8.6035328,
      41.1498637
    ]
  }
},
{
  "type": "Feature",
  "id": "node/8199383575",
  "properties": {
    "access": "customers",
    "addr:country": "PT",
    "amenity": "charging_station",
    "capacity": "2",
    "fee": "no",
    "motorcar": "yes",
    "name": "Maison Albar Hotels Le Monumental Palace Tesla Destination Charger",
    "network": "Tesla",
    "operator": "Tesla",
    "ref": "dc26773",
    "socket:tesla_destination": "1",
    "socket:tesla_destination:output": "22kW",
    "socket:type2_cable": "1",
    "socket:type2_cable:output": "22kW",
    "website": "https://www.tesla.com/pt_PT/findus/list/chargers/Portugal",
    "id": "node/8199383575"
  },
  "geometry": {
    "type": "Point",
    "coordinates": [
      -8.61151,
      41.1484976
    ]
  }
},
{
  "type": "Feature",
  "id": "node/8199383576",
  "properties": {
    "access": "customers",
    "addr:country": "PT",
    "amenity": "charging_station",
    "capacity": "2",
    "fee": "no",
    "motorcar": "yes",
    "name": "Hotel Teatro Porto Tesla Destination Charger",
    "network": "Tesla",
    "operator": "Tesla",
    "ref": "dc9655",
    "socket:tesla_destination": "1",
    "socket:tesla_destination:output": "22kW",
    "socket:type2_cable": "1",
    "socket:type2_cable:output": "22kW",
    "website": "https://www.tesla.com/pt_PT/findus/list/chargers/Portugal",
    "id": "node/8199383576"
  },
  "geometry": {
    "type": "Point",
    "coordinates": [
      -8.6092593,
      41.1466395
    ]
  }
},
{
  "type": "Feature",
  "id": "node/8199383577",
  "properties": {
    "access": "customers",
    "addr:country": "PT",
    "amenity": "charging_station",
    "capacity": "2",
    "fee": "no",
    "motorcar": "yes",
    "name": "The Yeatman Hotel Tesla Destination Charger",
    "network": "Tesla",
    "operator": "Tesla",
    "ref": "dc23363",
    "socket:tesla_destination": "1",
    "socket:tesla_destination:output": "22kW",
    "socket:type2_cable": "1",
    "socket:type2_cable:output": "22kW",
    "website": "https://www.tesla.com/pt_PT/findus/list/chargers/Portugal",
    "id": "node/8199383577"
  },
  "geometry": {
    "type": "Point",
    "coordinates": [
      -8.6131673,
      41.133272
    ]
  }
},
{
  "type": "Feature",
  "id": "node/8199383578",
  "properties": {
    "access": "customers",
    "addr:country": "PT",
    "amenity": "charging_station",
    "capacity": "2",
    "fee": "no",
    "motorcar": "yes",
    "name": "Park Hotel Gaia Tesla Destination Charger",
    "network": "Tesla",
    "operator": "Tesla",
    "ref": "dc51421",
    "socket:tesla_destination": "1",
    "socket:tesla_destination:output": "22kW",
    "socket:type2_cable": "1",
    "socket:type2_cable:output": "22kW",
    "website": "https://www.tesla.com/pt_PT/findus/list/chargers/Portugal",
    "id": "node/8199383578"
  },
  "geometry": {
    "type": "Point",
    "coordinates": [
      -8.6349776,
      41.1263777
    ]
  }
},
{
  "type": "Feature",
  "id": "node/8199383861",
  "properties": {
    "access": "customers",
    "addr:country": "PT",
    "amenity": "charging_station",
    "capacity": "2",
    "fee": "no",
    "motorcar": "yes",
    "name": "TRYP Porto Expo Hotel Tesla Destination Charger",
    "network": "Tesla",
    "operator": "Tesla",
    "ref": "dc47243",
    "socket:tesla_destination": "1",
    "socket:tesla_destination:output": "17kW",
    "socket:type2_cable": "1",
    "socket:type2_cable:output": "17kW",
    "website": "https://www.tesla.com/pt_PT/findus/list/chargers/Portugal",
    "id": "node/8199383861"
  },
  "geometry": {
    "type": "Point",
    "coordinates": [
      -8.6927611,
      41.2027317
    ]
  }
},
{
  "type": "Feature",
  "id": "node/8199383862",
  "properties": {
    "access": "customers",
    "addr:country": "PT",
    "amenity": "charging_station",
    "capacity": "2",
    "fee": "no",
    "motorcar": "yes",
    "name": "Holiday Inn Express Porto Exponor Tesla Destination Charger",
    "network": "Tesla",
    "operator": "Tesla",
    "ref": "dc22790",
    "socket:tesla_destination": "1",
    "socket:tesla_destination:output": "22kW",
    "socket:type2_cable": "1",
    "socket:type2_cable:output": "22kW",
    "website": "https://www.tesla.com/pt_PT/findus/list/chargers/Portugal",
    "id": "node/8199383862"
  },
  "geometry": {
    "type": "Point",
    "coordinates": [
      -8.6900166,
      41.1949456
    ]
  }
},
{
  "type": "Feature",
  "id": "node/8199383863",
  "properties": {
    "access": "customers",
    "addr:country": "PT",
    "amenity": "charging_station",
    "brand": "Tesla Supercharger",
    "brand:wikidata": "Q17089620",
    "brand:wikipedia": "en:Tesla Supercharger",
    "capacity": "2",
    "fee": "no",
    "motorcar": "yes",
    "name": "Parque da Constitui√ß√£o Tesla Destination Charger",
    "network": "Tesla",
    "operator": "Tesla, Inc.",
    "operator:wikidata": "Q478214",
    "operator:wikipedia": "en:Tesla, Inc.",
    "ref": "dc57255",
    "short_name": "Tesla",
    "socket:tesla_destination": "1",
    "socket:tesla_destination:output": "17kW",
    "socket:type2_cable": "1",
    "socket:type2_cable:output": "17kW",
    "website": "https://www.tesla.com/pt_PT/findus/list/chargers/Portugal",
    "id": "node/8199383863"
  },
  "geometry": {
    "type": "Point",
    "coordinates": [
      -8.6060265,
      41.1621417
    ]
  }
},
{
  "type": "Feature",
  "id": "node/8199423474",
  "properties": {
    "access": "customers",
    "addr:country": "PT",
    "amenity": "charging_station",
    "capacity": "2",
    "fee": "no",
    "motorcar": "yes",
    "name": "Torre de Gomariz Tesla Destination Charger",
    "network": "Tesla",
    "operator": "Tesla",
    "ref": "dc41880",
    "socket:tesla_destination": "1",
    "socket:tesla_destination:output": "22kW",
    "socket:type2_cable": "1",
    "socket:type2_cable:output": "22kW",
    "website": "https://www.tesla.com/pt_PT/findus/list/chargers/Portugal",
    "id": "node/8199423474"
  },
  "geometry": {
    "type": "Point",
    "coordinates": [
      -8.5356675,
      41.5884768
    ]
  }
},
{
  "type": "Feature",
  "id": "node/8199423475",
  "properties": {
    "access": "customers",
    "addr:country": "PT",
    "amenity": "charging_station",
    "capacity": "2",
    "fee": "no",
    "motorcar": "yes",
    "name": "Melia Braga Hotel & Spa Tesla Destination Charger",
    "network": "Tesla",
    "operator": "Tesla",
    "ref": "dc45836",
    "socket:tesla_destination": "1",
    "socket:tesla_destination:output": "17kW",
    "socket:type2_cable": "1",
    "socket:type2_cable:output": "17kW",
    "website": "https://www.tesla.com/pt_PT/findus/list/chargers/Portugal",
    "id": "node/8199423475"
  },
  "geometry": {
    "type": "Point",
    "coordinates": [
      -8.3948421,
      41.5569401
    ]
  }
},
{
  "type": "Feature",
  "id": "node/8199423477",
  "properties": {
    "access": "customers",
    "addr:country": "PT",
    "amenity": "charging_station",
    "capacity": "4",
    "fee": "no",
    "motorcar": "yes",
    "name": "Pena Park Hotel Tesla Destination Charger",
    "network": "Tesla",
    "operator": "Tesla",
    "ref": "dc23782",
    "socket:tesla_destination": "2",
    "socket:tesla_destination:output": "22kW",
    "socket:type2_cable": "2",
    "socket:type2_cable:output": "22kW",
    "website": "https://www.tesla.com/pt_PT/findus/list/chargers/Portugal",
    "id": "node/8199423477"
  },
  "geometry": {
    "type": "Point",
    "coordinates": [
      -7.8018346,
      41.5038635
    ]
  }
},
{
  "type": "Feature",
  "id": "node/8199423478",
  "properties": {
    "access": "customers",
    "addr:country": "PT",
    "amenity": "charging_station",
    "capacity": "2",
    "fee": "no",
    "motorcar": "yes",
    "name": "Oporto Airport & Business Hotel Tesla Destination Charger",
    "network": "Tesla",
    "operator": "Tesla",
    "ref": "dc62028",
    "socket:tesla_destination": "1",
    "socket:tesla_destination:output": "14kW",
    "socket:type2_cable": "1",
    "socket:type2_cable:output": "14kW",
    "website": "https://www.tesla.com/pt_PT/findus/list/chargers/Portugal",
    "id": "node/8199423478"
  },
  "geometry": {
    "type": "Point",
    "coordinates": [
      -8.6598042,
      41.2406152
    ]
  }
},
{
  "type": "Feature",
  "id": "node/8199423479",
  "properties": {
    "access": "customers",
    "addr:country": "PT",
    "amenity": "charging_station",
    "capacity": "2",
    "fee": "no",
    "motorcar": "yes",
    "name": "Park Hotel Porto Aeroporto Tesla Destination Charger",
    "network": "Tesla",
    "operator": "Tesla",
    "ref": "dc51420",
    "socket:tesla_destination": "1",
    "socket:tesla_destination:output": "22kW",
    "socket:type2_cable": "1",
    "socket:type2_cable:output": "22kW",
    "website": "https://www.tesla.com/pt_PT/findus/list/chargers/Portugal",
    "id": "node/8199423479"
  },
  "geometry": {
    "type": "Point",
    "coordinates": [
      -8.6674377,
      41.2376992
    ]
  }
},
{
  "type": "Feature",
  "id": "node/8199446702",
  "properties": {
    "access": "customers",
    "addr:country": "PT",
    "amenity": "charging_station",
    "capacity": "2",
    "fee": "no",
    "motorcar": "yes",
    "name": "Hotel Casino Chaves Tesla Destination Charger",
    "network": "Tesla",
    "operator": "Tesla",
    "ref": "dc31176",
    "socket:tesla_destination": "1",
    "socket:tesla_destination:output": "22kW",
    "socket:type2_cable": "1",
    "socket:type2_cable:output": "22kW",
    "website": "https://www.tesla.com/pt_PT/findus/list/chargers/Portugal",
    "id": "node/8199446702"
  },
  "geometry": {
    "type": "Point",
    "coordinates": [
      -7.4889053,
      41.7602394
    ]
  }
},
{
  "type": "Feature",
  "id": "node/8199446703",
  "properties": {
    "access": "customers",
    "addr:country": "PT",
    "amenity": "charging_station",
    "capacity": "2",
    "fee": "no",
    "motorcar": "yes",
    "name": "Restaurante Rocha Camelo Lda Tesla Destination Charger",
    "network": "Tesla",
    "operator": "Tesla",
    "ref": "dc48983",
    "socket:tesla_destination": "1",
    "socket:tesla_destination:output": "22kW",
    "socket:type2_cable": "1",
    "socket:type2_cable:output": "22kW",
    "website": "https://www.tesla.com/pt_PT/findus/list/chargers/Portugal",
    "id": "node/8199446703"
  },
  "geometry": {
    "type": "Point",
    "coordinates": [
      -8.7720687,
      41.7095386
    ]
  }
},
{
  "type": "Feature",
  "id": "node/8199446704",
  "properties": {
    "access": "customers",
    "addr:country": "PT",
    "amenity": "charging_station",
    "capacity": "4",
    "fee": "no",
    "motorcar": "yes",
    "name": "Hotel do Parque Tesla Destination Charger",
    "network": "Tesla",
    "operator": "Tesla",
    "ref": "dc63048",
    "socket:tesla_destination": "2",
    "socket:tesla_destination:output": "22kW",
    "socket:type2_cable": "2",
    "socket:type2_cable:output": "22kW",
    "website": "https://www.tesla.com/pt_PT/findus/list/chargers/Portugal",
    "id": "node/8199446704"
  },
  "geometry": {
    "type": "Point",
    "coordinates": [
      -8.8200447,
      41.6967328
    ]
  }
},
{
  "type": "Feature",
  "id": "node/8199482686",
  "properties": {
    "access": "customers",
    "addr:country": "PT",
    "amenity": "charging_station",
    "capacity": "2",
    "fee": "no",
    "motorcar": "yes",
    "name": "Carmo's Boutique Hotel Tesla Destination Charger",
    "network": "Tesla",
    "operator": "Tesla",
    "ref": "dc38742",
    "socket:tesla_destination": "1",
    "socket:tesla_destination:output": "11kW",
    "socket:type2_cable": "1",
    "socket:type2_cable:output": "11kW",
    "website": "https://www.tesla.com/pt_PT/findus/list/chargers/Portugal",
    "id": "node/8199482686"
  },
  "geometry": {
    "type": "Point",
    "coordinates": [
      -8.5344538,
      41.7750984
    ]
  }
},
{
  "type": "Feature",
  "id": "node/8199623599",
  "properties": {
    "access": "customers",
    "addr:country": "PT",
    "amenity": "charging_station",
    "capacity": "2",
    "fee": "no",
    "motorcar": "yes",
    "name": "Camara Municipal Vila Nova de Cerveira Tesla Destination Charger",
    "network": "Tesla",
    "operator": "Tesla",
    "ref": "dc62676",
    "socket:tesla_destination": "1",
    "socket:tesla_destination:output": "22kW",
    "socket:type2_cable": "1",
    "socket:type2_cable:output": "22kW",
    "website": "https://www.tesla.com/pt_PT/findus/list/chargers/Portugal",
    "id": "node/8199623599"
  },
  "geometry": {
    "type": "Point",
    "coordinates": [
      -8.7437157,
      41.9391376
    ]
  }
},
{
  "type": "Feature",
  "id": "node/8199623600",
  "properties": {
    "access": "customers",
    "addr:country": "PT",
    "amenity": "charging_station",
    "capacity": "2",
    "fee": "no",
    "motorcar": "yes",
    "name": "Prazer da Natureza Resort & SPA Tesla Destination Charger",
    "network": "Tesla",
    "operator": "Tesla",
    "ref": "dc75448",
    "socket:tesla_destination": "1",
    "socket:tesla_destination:output": "22kW",
    "socket:type2_cable": "1",
    "socket:type2_cable:output": "22kW",
    "website": "https://www.tesla.com/pt_PT/findus/list/chargers/Portugal",
    "id": "node/8199623600"
  },
  "geometry": {
    "type": "Point",
    "coordinates": [
      -8.798351,
      41.8935016
    ]
  }
},
{
  "type": "Feature",
  "id": "node/8199623601",
  "properties": {
    "access": "customers",
    "addr:country": "PT",
    "amenity": "charging_station",
    "capacity": "4",
    "fee": "no",
    "motorcar": "yes",
    "name": "Hotel Porta do Sol Conference Center & Spa Tesla Destination Charger",
    "network": "Tesla",
    "operator": "Tesla",
    "ref": "dc72205",
    "socket:tesla_destination": "2",
    "socket:tesla_destination:output": "14kW",
    "socket:type2_cable": "2",
    "socket:type2_cable:output": "14kW",
    "website": "https://www.tesla.com/pt_PT/findus/list/chargers/Portugal",
    "id": "node/8199623601"
  },
  "geometry": {
    "type": "Point",
    "coordinates": [
      -8.848165,
      41.865554
    ]
  }
},
{
  "type": "Feature",
  "id": "node/8199629477",
  "properties": {
    "access": "customers",
    "addr:country": "PT",
    "amenity": "charging_station",
    "capacity": "2",
    "fee": "no",
    "motorcar": "yes",
    "name": "Quinta do Ameal Wine & Tourism Terroir Tesla Destination Charger",
    "network": "Tesla",
    "operator": "Tesla",
    "ref": "dc57253",
    "socket:tesla_destination": "1",
    "socket:tesla_destination:output": "14kW",
    "socket:type2_cable": "1",
    "socket:type2_cable:output": "14kW",
    "website": "https://www.tesla.com/pt_PT/findus/list/chargers/Portugal",
    "id": "node/8199629477"
  },
  "geometry": {
    "type": "Point",
    "coordinates": [
      -8.5218287,
      41.787383
    ]
  }
},
{
  "type": "Feature",
  "id": "node/8199671207",
  "properties": {
    "access": "customers",
    "addr:country": "PT",
    "amenity": "charging_station",
    "capacity": "3",
    "fee": "no",
    "motorcar": "yes",
    "name": "Villa Batalha Hotel Tesla Destination Charger",
    "network": "Tesla",
    "operator": "Tesla",
    "ref": "dc513566",
    "socket:tesla_destination": "3",
    "socket:tesla_destination:output": "11kW",
    "socket:type2_cable": "3",
    "socket:type2_cable:output": "11kW",
    "website": "https://www.tesla.com/pt_PT/findus/list/chargers/Portugal",
    "id": "node/8199671207"
  },
  "geometry": {
    "type": "Point",
    "coordinates": [
      -8.8244113,
      39.6634798
    ]
  }
},
{
  "type": "Feature",
  "id": "node/8199671418",
  "properties": {
    "access": "customers",
    "addr:country": "PT",
    "amenity": "charging_station",
    "capacity": "3",
    "fee": "no",
    "motorcar": "yes",
    "name": "MH Atlantico Tesla Destination Charger",
    "network": "Tesla",
    "operator": "Tesla",
    "ref": "dc49724",
    "socket:tesla_destination": "2",
    "socket:tesla_destination:output": "7.4kW",
    "socket:type2_cable": "1",
    "socket:type2_cable:output": "22kW",
    "website": "https://www.tesla.com/pt_PT/findus/list/chargers/Portugal",
    "id": "node/8199671418"
  },
  "geometry": {
    "type": "Point",
    "coordinates": [
      -9.3539049,
      39.3350142
    ]
  }
},
{
  "type": "Feature",
  "id": "node/8232470379",
  "properties": {
    "access": "private",
    "addr:city": "Faro",
    "addr:country": "PT",
    "amenity": "charging_station",
    "capacity": "1",
    "motorcar": "yes",
    "name": "Centro Porsche Faro",
    "network": "Porsche",
    "opening_hours": "Mo-Fr 09:00-17:00",
    "operator": "Porsche",
    "parking:fee": "no",
    "socket:type2_cable": "1",
    "socket:type2_cable:current": "32",
    "socket:type2_cable:output": "22kW",
    "socket:type2_cable:voltage": "400",
    "socket:type2_combo": "1",
    "socket:type2_combo:current": "125",
    "socket:type2_combo:output": "50kW",
    "socket:type2_combo:voltage": "500",
    "id": "node/8232470379"
  },
  "geometry": {
    "type": "Point",
    "coordinates": [
      -7.9662814,
      37.0602976
    ]
  }
},
{
  "type": "Feature",
  "id": "node/8234966159",
  "properties": {
    "access": "private",
    "addr:city": "Leiria",
    "addr:country": "PT",
    "addr:street": "Rua do Outeiro do Pomar",
    "amenity": "charging_station",
    "authentication:none": "no",
    "capacity": "2",
    "name": "Lubrisport Audi",
    "network": "none",
    "operator": "Lubrisport",
    "parking:fee": "no",
    "socket:type2_cable": "1",
    "socket:type2_cable:current": "32",
    "socket:type2_cable:output": "22kW",
    "socket:type2_cable:voltage": "400",
    "socket:type2_combo": "1",
    "socket:type2_combo:current": "125",
    "socket:type2_combo:output": "50kW",
    "socket:type2_combo:voltage": "500",
    "id": "node/8234966159"
  },
  "geometry": {
    "type": "Point",
    "coordinates": [
      -8.7852135,
      39.7638945
    ]
  }
},
{
  "type": "Feature",
  "id": "node/8255641306",
  "properties": {
    "access": "customers",
    "addr:country": "PT",
    "amenity": "charging_station",
    "authentication:none": "yes",
    "capacity": "1",
    "fee": "no",
    "motorcar": "yes",
    "name": "Porsche Destination Charging",
    "network": "Porsche",
    "opening_hours": "09:00-20:00",
    "operator": "Porsche",
    "parking:fee": "no",
    "socket:type2_cable": "1",
    "socket:type2_cable:current": "16",
    "socket:type2_cable:output": "11kW",
    "socket:type2_cable:voltage": "400",
    "id": "node/8255641306"
  },
  "geometry": {
    "type": "Point",
    "coordinates": [
      -7.4695846,
      37.2358615
    ]
  }
},
{
  "type": "Feature",
  "id": "node/8257507607",
  "properties": {
    "access": "customers",
    "addr:country": "PT",
    "amenity": "charging_station",
    "authentication:none": "yes",
    "capacity": "2",
    "fee": "no",
    "motorcar": "yes",
    "name": "Porsche Destination Charging",
    "network": "Porsche",
    "opening_hours": "09:00-20:00",
    "operator": "Porsche",
    "parking:fee": "no",
    "socket:type2_cable": "2",
    "socket:type2_cable:current": "16",
    "socket:type2_cable:output": "11kW",
    "socket:type2_cable:voltage": "400",
    "id": "node/8257507607"
  },
  "geometry": {
    "type": "Point",
    "coordinates": [
      -7.608539,
      37.1519232
    ]
  }
},
{
  "type": "Feature",
  "id": "node/8262546659",
  "properties": {
    "access": "customers",
    "addr:country": "PT",
    "amenity": "charging_station",
    "authentication:none": "yes",
    "capacity": "2",
    "fee": "no",
    "motorcar": "yes",
    "name": "Porsche Destination Charging",
    "network": "Porsche",
    "opening_hours": "24/7",
    "operator": "Porsche",
    "parking:fee": "no",
    "socket:type2_cable": "2",
    "socket:type2_cable:current": "16",
    "socket:type2_cable:output": "11kW",
    "socket:type2_cable:voltage": "400",
    "id": "node/8262546659"
  },
  "geometry": {
    "type": "Point",
    "coordinates": [
      -8.1160466,
      37.0737313
    ]
  }
},
{
  "type": "Feature",
  "id": "node/8262554176",
  "properties": {
    "access": "customers",
    "addr:country": "PT",
    "amenity": "charging_station",
    "authentication:none": "yes",
    "capacity": "1",
    "fee": "no",
    "motorcar": "yes",
    "name": "Porsche Destination Charging",
    "network": "Porsche",
    "opening_hours": "24/7",
    "operator": "Porsche",
    "parking:fee": "no",
    "socket:type2_cable": "1",
    "socket:type2_cable:current": "16",
    "socket:type2_cable:output": "11kW",
    "socket:type2_cable:voltage": "400",
    "id": "node/8262554176"
  },
  "geometry": {
    "type": "Point",
    "coordinates": [
      -8.022117,
      37.0312677
    ]
  }
},
{
  "type": "Feature",
  "id": "node/8262556573",
  "properties": {
    "access": "customers",
    "addr:country": "PT",
    "amenity": "charging_station",
    "authentication:none": "yes",
    "capacity": "2",
    "fee": "no",
    "motorcar": "yes",
    "name": "Porsche Destination Charging",
    "network": "Porsche",
    "opening_hours": "24/7",
    "operator": "Porsche",
    "parking:fee": "no",
    "socket:type2_cable": "2",
    "socket:type2_cable:current": "16",
    "socket:type2_cable:output": "11kW",
    "socket:type2_cable:voltage": "400",
    "id": "node/8262556573"
  },
  "geometry": {
    "type": "Point",
    "coordinates": [
      -8.1117095,
      37.0931613
    ]
  }
},
{
  "type": "Feature",
  "id": "node/8262586524",
  "properties": {
    "access": "customers",
    "addr:country": "PT",
    "amenity": "charging_station",
    "authentication:none": "yes",
    "capacity": "1",
    "fee": "no",
    "motorcar": "yes",
    "name": "Porsche Destination Charging",
    "network": "Porsche",
    "opening_hours": "24/7",
    "operator": "Porsche",
    "parking:fee": "no",
    "socket:type2_cable": "1",
    "socket:type2_cable:current": "16",
    "socket:type2_cable:output": "11kW",
    "socket:type2_cable:voltage": "400",
    "id": "node/8262586524"
  },
  "geometry": {
    "type": "Point",
    "coordinates": [
      -8.1845704,
      37.0928543
    ]
  }
},
{
  "type": "Feature",
  "id": "node/8262595320",
  "properties": {
    "access": "customers",
    "addr:country": "PT",
    "amenity": "charging_station",
    "capacity": "2",
    "name": "Clube Humbria",
    "network": "none",
    "operator": "Clube Humbria",
    "socket:type2_cable": "2",
    "socket:type2_cable:current": "16",
    "socket:type2_cable:output": "11kW",
    "socket:type2_cable:voltage": "400",
    "id": "node/8262595320"
  },
  "geometry": {
    "type": "Point",
    "coordinates": [
      -8.1894708,
      37.09469
    ]
  }
},
{
  "type": "Feature",
  "id": "node/8262640179",
  "properties": {
    "access": "customers",
    "addr:country": "PT",
    "amenity": "charging_station",
    "authentication:none": "yes",
    "capacity": "2",
    "fee": "no",
    "motorcar": "yes",
    "name": "Porsche Destination Charging",
    "network": "Porsche",
    "opening_hours": "24/7",
    "operator": "Porsche",
    "parking:fee": "no",
    "socket:type2_cable": "2",
    "socket:type2_cable:current": "16",
    "socket:type2_cable:output": "11kW",
    "socket:type2_cable:voltage": "400",
    "id": "node/8262640179"
  },
  "geometry": {
    "type": "Point",
    "coordinates": [
      -8.4751341,
      37.1088924
    ]
  }
},
{
  "type": "Feature",
  "id": "node/8262653923",
  "properties": {
    "access": "customers",
    "addr:country": "PT",
    "amenity": "charging_station",
    "authentication:none": "yes",
    "capacity": "2",
    "fee": "no",
    "motorcar": "yes",
    "name": "Porsche Destination Charging",
    "network": "Porsche",
    "opening_hours": "24/7",
    "operator": "Porsche",
    "parking:fee": "no",
    "socket:type2_cable": "2",
    "socket:type2_cable:current": "16",
    "socket:type2_cable:output": "11kW",
    "socket:type2_cable:voltage": "400",
    "id": "node/8262653923"
  },
  "geometry": {
    "type": "Point",
    "coordinates": [
      -8.5344297,
      37.1183238
    ]
  }
},
{
  "type": "Feature",
  "id": "node/8265055939",
  "properties": {
    "access": "customers",
    "addr:country": "PT",
    "amenity": "charging_station",
    "authentication:none": "yes",
    "capacity": "1",
    "fee": "no",
    "motorcar": "yes",
    "name": "Porsche Destination Charging",
    "network": "Porsche",
    "operator": "Porsche",
    "parking:fee": "no",
    "socket:type2_cable": "1",
    "socket:type2_cable:current": "16",
    "socket:type2_cable:output": "11kW",
    "socket:type2_cable:voltage": "400",
    "id": "node/8265055939"
  },
  "geometry": {
    "type": "Point",
    "coordinates": [
      -7.592352,
      38.1822841
    ]
  }
},
{
  "type": "Feature",
  "id": "node/8269975157",
  "properties": {
    "access": "customers",
    "addr:country": "PT",
    "amenity": "charging_station",
    "capacity": "2",
    "fee": "no",
    "motorcar": "yes",
    "name": "Pine Cliffs Resort Tesla Destination Charger",
    "network": "Tesla",
    "operator": "Tesla",
    "parking:fee": "no",
    "socket:tesla_destination": "1",
    "socket:tesla_destination:output": "22kW",
    "socket:type2_cable": "1",
    "socket:type2_cable:output": "22kW",
    "website": "https://www.tesla.com/pt_PT/findus/list/chargers/Portugal",
    "id": "node/8269975157"
  },
  "geometry": {
    "type": "Point",
    "coordinates": [
      -8.1790826,
      37.095672
    ]
  }
},
{
  "type": "Feature",
  "id": "node/8270243974",
  "properties": {
    "access": "customers",
    "addr:country": "PT",
    "amenity": "charging_station",
    "authentication:none": "yes",
    "capacity": "1",
    "fee": "no",
    "motorcar": "yes",
    "name": "Porsche Destination Charging",
    "network": "Porsche",
    "opening_hours": "24/7",
    "operator": "Porsche",
    "parking:fee": "no",
    "socket:type2_cable": "1",
    "socket:type2_cable:current": "16",
    "socket:type2_cable:output": "11kW",
    "socket:type2_cable:voltage": "400",
    "id": "node/8270243974"
  },
  "geometry": {
    "type": "Point",
    "coordinates": [
      -8.721216,
      37.1002641
    ]
  }
},
{
  "type": "Feature",
  "id": "node/8275718986",
  "properties": {
    "access": "customers",
    "addr:country": "PT",
    "amenity": "charging_station",
    "capacity": "2",
    "fee": "no",
    "name": "Quinta do Quetzal",
    "network": "none",
    "operator": "Quinta do Quetzal",
    "parking:fee": "no",
    "socket:tesla_destination": "1",
    "socket:tesla_destination:output": "22kW",
    "socket:type2_cable": "1",
    "socket:type2_cable:output": "22kW",
    "id": "node/8275718986"
  },
  "geometry": {
    "type": "Point",
    "coordinates": [
      -7.8268589,
      38.2243186
    ]
  }
},
{
  "type": "Feature",
  "id": "node/8280537145",
  "properties": {
    "access": "customers",
    "addr:country": "PT",
    "amenity": "charging_station",
    "authentication:none": "yes",
    "capacity": "1",
    "fee": "no",
    "motorcar": "yes",
    "name": "Porsche Destination Charging",
    "network": "Porsche",
    "operator": "Porsche",
    "parking:fee": "no",
    "socket:type2_cable": "1",
    "socket:type2_cable:current": "16",
    "socket:type2_cable:output": "11kW",
    "socket:type2_cable:voltage": "400",
    "id": "node/8280537145"
  },
  "geometry": {
    "type": "Point",
    "coordinates": [
      -7.9097767,
      39.0506676
    ]
  }
},
{
  "type": "Feature",
  "id": "node/8280581499",
  "properties": {
    "access": "customers",
    "addr:country": "PT",
    "amenity": "charging_station",
    "capacity": "2",
    "fee": "no",
    "name": "Sheraton Cascais Resort",
    "network": "none",
    "operator": "Sheraton Cascais Resort",
    "parking:fee": "no",
    "socket:tesla_destination": "1",
    "socket:tesla_destination:output": "22kW",
    "socket:type2_cable": "1",
    "socket:type2_cable:output": "22kW",
    "id": "node/8280581499"
  },
  "geometry": {
    "type": "Point",
    "coordinates": [
      -9.4611597,
      38.7105628
    ]
  }
},
{
  "type": "Feature",
  "id": "node/8280581639",
  "properties": {
    "access": "customers",
    "addr:country": "PT",
    "amenity": "charging_station",
    "authentication:none": "yes",
    "capacity": "2",
    "fee": "no",
    "motorcar": "yes",
    "name": "Porsche Destination Charging",
    "network": "Porsche",
    "operator": "Porsche",
    "parking:fee": "no",
    "socket:type2_cable": "2",
    "socket:type2_cable:current": "16",
    "socket:type2_cable:output": "11kW",
    "socket:type2_cable:voltage": "400",
    "id": "node/8280581639"
  },
  "geometry": {
    "type": "Point",
    "coordinates": [
      -9.4754961,
      38.7244901
    ]
  }
},
{
  "type": "Feature",
  "id": "node/8280596650",
  "properties": {
    "access": "customers",
    "addr:country": "PT",
    "amenity": "charging_station",
    "authentication:none": "yes",
    "capacity": "2",
    "fee": "no",
    "motorcar": "yes",
    "name": "Porsche Destination Charging",
    "network": "Porsche",
    "operator": "Porsche",
    "parking:fee": "no",
    "socket:type2_cable": "2",
    "socket:type2_cable:current": "16",
    "socket:type2_cable:output": "11kW",
    "socket:type2_cable:voltage": "400",
    "id": "node/8280596650"
  },
  "geometry": {
    "type": "Point",
    "coordinates": [
      -9.454422,
      38.7550643
    ]
  }
},
{
  "type": "Feature",
  "id": "node/8280712068",
  "properties": {
    "access": "customers",
    "addr:country": "PT",
    "amenity": "charging_station",
    "authentication:none": "yes",
    "capacity": "2",
    "fee": "no",
    "motorcar": "yes",
    "name": "Porsche Destination Charging",
    "network": "Porsche",
    "operator": "Porsche",
    "parking:fee": "no",
    "socket:type2_cable": "2",
    "socket:type2_cable:current": "16",
    "socket:type2_cable:output": "11kW",
    "socket:type2_cable:voltage": "400",
    "id": "node/8280712068"
  },
  "geometry": {
    "type": "Point",
    "coordinates": [
      -9.3625449,
      39.1531593
    ]
  }
},
{
  "type": "Feature",
  "id": "node/8280832762",
  "properties": {
    "access": "private",
    "addr:country": "PT",
    "amenity": "charging_station",
    "authentication:none": "no",
    "capacity": "3",
    "fee": "no",
    "name": "Graforio",
    "network": "none",
    "opening_hours": "24/7",
    "operator": "Graforio",
    "parking:fee": "no",
    "socket:type2_cable": "3",
    "socket:type2_cable:current": "32",
    "socket:type2_cable:output": "22kW",
    "socket:type2_cable:voltage": "400",
    "id": "node/8280832762"
  },
  "geometry": {
    "type": "Point",
    "coordinates": [
      -8.9207395,
      39.3157088
    ]
  }
},
{
  "type": "Feature",
  "id": "node/8281924346",
  "properties": {
    "access": "customers",
    "addr:country": "PT",
    "amenity": "charging_station",
    "authentication:none": "yes",
    "capacity": "2",
    "fee": "no",
    "motorcar": "yes",
    "name": "Porsche Destination Charging",
    "network": "Porsche",
    "operator": "Porsche",
    "parking:fee": "no",
    "socket:type2_cable": "2",
    "socket:type2_cable:current": "16",
    "socket:type2_cable:output": "11kW",
    "socket:type2_cable:voltage": "400",
    "id": "node/8281924346"
  },
  "geometry": {
    "type": "Point",
    "coordinates": [
      -8.9617257,
      39.5361205
    ]
  }
},
{
  "type": "Feature",
  "id": "node/8284074297",
  "properties": {
    "access": "customers",
    "addr:country": "PT",
    "amenity": "charging_station",
    "authentication:none": "yes",
    "capacity": "1",
    "fee": "no",
    "motorcar": "yes",
    "name": "Porsche Destination Charging",
    "network": "Porsche",
    "opening_hours": "24/7",
    "operator": "Porsche",
    "socket:type2_cable": "1",
    "socket:type2_cable:current": "16",
    "socket:type2_cable:output": "11kW",
    "socket:type2_cable:voltage": "400",
    "id": "node/8284074297"
  },
  "geometry": {
    "type": "Point",
    "coordinates": [
      -9.4105303,
      38.7025076
    ]
  }
},
{
  "type": "Feature",
  "id": "node/8285045469",
  "properties": {
    "access": "customers",
    "addr:country": "PT",
    "amenity": "charging_station",
    "authentication:none": "yes",
    "capacity": "2",
    "fee": "no",
    "motorcar": "yes",
    "name": "Porsche Destination Charging",
    "network": "Porsche",
    "operator": "Porsche",
    "parking:fee": "no",
    "socket:type2_cable": "2",
    "socket:type2_cable:current": "16",
    "socket:type2_cable:output": "11kW",
    "socket:type2_cable:voltage": "400",
    "id": "node/8285045469"
  },
  "geometry": {
    "type": "Point",
    "coordinates": [
      -7.4954941,
      40.1664878
    ]
  }
},
{
  "type": "Feature",
  "id": "node/8285049489",
  "properties": {
    "access": "customers",
    "addr:country": "PT",
    "amenity": "charging_station",
    "capacity": "2",
    "fee": "no",
    "name": "Convento do Seixo Boutique Hotel & Spa",
    "network": "none",
    "operator": "Convento do Seixo Boutique Hotel",
    "parking:fee": "no",
    "socket:tesla_destination": "1",
    "socket:tesla_destination:output": "22kW",
    "socket:type2_cable": "1",
    "socket:type2_cable:output": "22kW",
    "id": "node/8285049489"
  },
  "geometry": {
    "type": "Point",
    "coordinates": [
      -7.5112863,
      40.1324295
    ]
  }
},
{
  "type": "Feature",
  "id": "node/8285058935",
  "properties": {
    "access": "customers",
    "addr:country": "PT",
    "amenity": "charging_station",
    "authentication:none": "yes",
    "capacity": "2",
    "fee": "no",
    "motorcar": "yes",
    "name": "Porsche Destination Charging",
    "network": "Porsche",
    "operator": "Porsche",
    "parking:fee": "no",
    "private": "footway",
    "socket:type2_cable": "2",
    "socket:type2_cable:current": "16",
    "socket:type2_cable:output": "11kW",
    "socket:type2_cable:voltage": "400",
    "id": "node/8285058935"
  },
  "geometry": {
    "type": "Point",
    "coordinates": [
      -8.4136722,
      40.2159767
    ]
  }
},
{
  "type": "Feature",
  "id": "node/8285074947",
  "properties": {
    "access": "customers",
    "addr:country": "PT",
    "amenity": "charging_station",
    "authentication:none": "yes",
    "capacity": "2",
    "fee": "no",
    "motorcar": "yes",
    "name": "Porsche Destination Charging",
    "network": "Porsche",
    "operator": "Porsche",
    "parking:fee": "no",
    "socket:type2_cable": "2",
    "socket:type2_cable:current": "16",
    "socket:type2_cable:output": "11kW",
    "socket:type2_cable:voltage": "400",
    "id": "node/8285074947"
  },
  "geometry": {
    "type": "Point",
    "coordinates": [
      -8.4345402,
      40.1963588
    ]
  }
},
{
  "type": "Feature",
  "id": "node/8286130173",
  "properties": {
    "access": "customers",
    "addr:country": "PT",
    "amenity": "charging_station",
    "capacity": "2",
    "name": "Quinta da Palmeira Country House",
    "network": "none",
    "operator": "Quinta da Palmeira Country House",
    "socket:tesla_destination": "1",
    "socket:tesla_destination:output": "22kW",
    "socket:type2_cable": "1",
    "socket:type2_cable:output": "22kW",
    "id": "node/8286130173"
  },
  "geometry": {
    "type": "Point",
    "coordinates": [
      -7.9385112,
      40.2590764
    ]
  }
},
{
  "type": "Feature",
  "id": "node/8287704638",
  "properties": {
    "access": "customers",
    "addr:country": "PT",
    "amenity": "charging_station",
    "capacity": "2",
    "name": "Quinta do Crasto",
    "network": "none",
    "operator": "Quinta do Crasto",
    "socket:tesla_destination": "1",
    "socket:tesla_destination:output": "11kW",
    "socket:type2_cable": "1",
    "socket:type2_cable:output": "11kW",
    "id": "node/8287704638"
  },
  "geometry": {
    "type": "Point",
    "coordinates": [
      -7.6283339,
      41.1648097
    ]
  }
},
{
  "type": "Feature",
  "id": "node/8287713628",
  "properties": {
    "access": "customers",
    "addr:country": "PT",
    "amenity": "charging_station",
    "capacity": "2",
    "name": "Quinta da C√¥rte",
    "network": "none",
    "operator": "Quinta da C√¥rte",
    "socket:tesla_destination": "1",
    "socket:tesla_destination:output": "22kW",
    "socket:type2_cable": "1",
    "socket:type2_cable:output": "22kW",
    "id": "node/8287713628"
  },
  "geometry": {
    "type": "Point",
    "coordinates": [
      -7.547641,
      41.1629742
    ]
  }
},
{
  "type": "Feature",
  "id": "node/8289966177",
  "properties": {
    "access": "customers",
    "addr:country": "PT",
    "amenity": "charging_station",
    "authentication:none": "yes",
    "capacity": "2",
    "fee": "no",
    "motorcar": "yes",
    "name": "Porsche Destination Charging",
    "network": "Porsche",
    "opening_hours": "Mo-Su 12:00-22:00",
    "operator": "Porsche",
    "parking:fee": "no",
    "socket:type2_cable": "2",
    "socket:type2_cable:current": "16",
    "socket:type2_cable:output": "11kW",
    "socket:type2_cable:voltage": "400",
    "id": "node/8289966177"
  },
  "geometry": {
    "type": "Point",
    "coordinates": [
      -8.8392815,
      39.6487005
    ]
  }
},
{
  "type": "Feature",
  "id": "node/8298138506",
  "properties": {
    "access": "customers",
    "addr:country": "PT",
    "amenity": "charging_station",
    "capacity": "2",
    "name": "Holiday Inn Express Lisboa Alfragide",
    "network": "none",
    "operator": "Holiday Inn Express Lisboa Alfragide",
    "socket:tesla_destination": "1",
    "socket:tesla_destination:output": "11kW",
    "socket:type2_cable": "1",
    "socket:type2_cable:output": "11kW",
    "id": "node/8298138506"
  },
  "geometry": {
    "type": "Point",
    "coordinates": [
      -9.2177079,
      38.7219313
    ]
  }
},
{
  "type": "Feature",
  "id": "node/8301211338",
  "properties": {
    "access": "customers",
    "addr:country": "PT",
    "amenity": "charging_station",
    "capacity": "2",
    "name": "Hotel Florida",
    "network": "none",
    "operator": "Hotel Florida",
    "socket:tesla_destination": "1",
    "socket:tesla_destination:output": "22kW",
    "socket:type2_cable": "1",
    "socket:type2_cable:output": "22kW",
    "id": "node/8301211338"
  },
  "geometry": {
    "type": "Point",
    "coordinates": [
      -9.1502803,
      38.724081
    ]
  }
},
{
  "type": "Feature",
  "id": "node/8307371534",
  "properties": {
    "access": "customers",
    "addr:country": "PT",
    "amenity": "charging_station",
    "authentication:none": "yes",
    "capacity": "2",
    "fee": "no",
    "motorcar": "yes",
    "name": "Porsche Destination Charging",
    "network": "Porsche",
    "operator": "Porsche",
    "parking:fee": "no",
    "socket:type2_cable": "2",
    "socket:type2_cable:current": "16",
    "socket:type2_cable:output": "11kW",
    "socket:type2_cable:voltage": "400",
    "id": "node/8307371534"
  },
  "geometry": {
    "type": "Point",
    "coordinates": [
      -7.6824201,
      41.1514852
    ]
  }
},
{
  "type": "Feature",
  "id": "node/8308440084",
  "properties": {
    "access": "customers",
    "addr:country": "PT",
    "amenity": "charging_station",
    "authentication:none": "yes",
    "capacity": "2",
    "fee": "no",
    "motorcar": "yes",
    "name": "Porsche Destination Charging",
    "network": "Porsche",
    "operator": "Porsche",
    "parking:fee": "no",
    "socket:type2_cable": "2",
    "socket:type2_cable:current": "16",
    "socket:type2_cable:output": "11kW",
    "socket:type2_cable:voltage": "400",
    "id": "node/8308440084"
  },
  "geometry": {
    "type": "Point",
    "coordinates": [
      -8.7146755,
      41.2028558
    ]
  }
},
{
  "type": "Feature",
  "id": "node/8308541433",
  "properties": {
    "access": "customers",
    "addr:country": "PT",
    "amenity": "charging_station",
    "authentication:none": "yes",
    "capacity": "2",
    "fee": "no",
    "motorcar": "yes",
    "name": "Porsche Destination Charging",
    "network": "Porsche",
    "operator": "Porsche",
    "parking:fee": "no",
    "socket:type2_cable": "2",
    "socket:type2_cable:current": "16",
    "socket:type2_cable:output": "11kW",
    "socket:type2_cable:voltage": "400",
    "id": "node/8308541433"
  },
  "geometry": {
    "type": "Point",
    "coordinates": [
      -8.6846817,
      41.1614748
    ]
  }
},
{
  "type": "Feature",
  "id": "node/8308550979",
  "properties": {
    "access": "customers",
    "addr:country": "PT",
    "amenity": "charging_station",
    "authentication:none": "yes",
    "capacity": "2",
    "fee": "no",
    "motorcar": "yes",
    "name": "Porsche Destination Charging",
    "network": "Porsche",
    "operator": "Porsche",
    "parking:fee": "no",
    "socket:type2_cable": "2",
    "socket:type2_cable:current": "16",
    "socket:type2_cable:output": "11kW",
    "socket:type2_cable:voltage": "400",
    "id": "node/8308550979"
  },
  "geometry": {
    "type": "Point",
    "coordinates": [
      -8.6321358,
      41.147128
    ]
  }
},
{
  "type": "Feature",
  "id": "node/8308946954",
  "properties": {
    "access": "customers",
    "addr:country": "PT",
    "amenity": "charging_station",
    "authentication:none": "yes",
    "capacity": "1",
    "fee": "no",
    "motorcar": "yes",
    "name": "Porsche Destination Charging",
    "network": "Porsche",
    "operator": "Porsche",
    "parking:fee": "no",
    "socket:type2_cable": "1",
    "socket:type2_cable:current": "16",
    "socket:type2_cable:output": "11kW",
    "socket:type2_cable:voltage": "400",
    "id": "node/8308946954"
  },
  "geometry": {
    "type": "Point",
    "coordinates": [
      -9.1557916,
      38.730574
    ]
  }
},
{
  "type": "Feature",
  "id": "node/8309468598",
  "properties": {
    "access": "customers",
    "addr:country": "PT",
    "amenity": "charging_station",
    "authentication:none": "yes",
    "capacity": "1",
    "fee": "no",
    "motorcar": "yes",
    "name": "Porsche Destination Charging",
    "network": "Porsche",
    "operator": "Porsche",
    "parking:fee": "no",
    "socket:type2_cable": "1",
    "socket:type2_cable:current": "16",
    "socket:type2_cable:output": "11kW",
    "socket:type2_cable:voltage": "400",
    "id": "node/8309468598"
  },
  "geometry": {
    "type": "Point",
    "coordinates": [
      -8.6415182,
      40.9846392
    ]
  }
},
{
  "type": "Feature",
  "id": "node/8309516334",
  "properties": {
    "access": "customers",
    "addr:country": "PT",
    "amenity": "charging_station",
    "authentication:none": "yes",
    "capacity": "4",
    "fee": "no",
    "motorcar": "yes",
    "name": "Porsche Destination Charging",
    "network": "Porsche",
    "operator": "Porsche",
    "parking:fee": "no",
    "socket:type2_cable": "4",
    "socket:type2_cable:current": "16",
    "socket:type2_cable:output": "11kW",
    "socket:type2_cable:voltage": "400",
    "id": "node/8309516334"
  },
  "geometry": {
    "type": "Point",
    "coordinates": [
      -8.5748076,
      41.1323285
    ]
  }
},
{
  "type": "Feature",
  "id": "node/8309582383",
  "properties": {
    "access": "customers",
    "addr:country": "PT",
    "amenity": "charging_station",
    "authentication:none": "yes",
    "capacity": "2",
    "fee": "no",
    "motorcar": "yes",
    "name": "Porsche Destination Charging",
    "network": "Porsche",
    "operator": "Porsche",
    "parking:fee": "no",
    "socket:type2_cable": "2",
    "socket:type2_cable:current": "16",
    "socket:type2_cable:output": "11kW",
    "socket:type2_cable:voltage": "400",
    "id": "node/8309582383"
  },
  "geometry": {
    "type": "Point",
    "coordinates": [
      -7.0061579,
      41.4180241
    ]
  }
},
{
  "type": "Feature",
  "id": "node/8312981685",
  "properties": {
    "access": "customers",
    "addr:country": "PT",
    "amenity": "charging_station",
    "authentication:none": "yes",
    "capacity": "1",
    "fee": "no",
    "motorcar": "yes",
    "name": "Porsche Destination Charging",
    "network": "Porsche",
    "operator": "Porsche",
    "parking:fee": "no",
    "socket:type2_cable": "1",
    "socket:type2_cable:current": "16",
    "socket:type2_cable:output": "11kW",
    "socket:type2_cable:voltage": "400",
    "id": "node/8312981685"
  },
  "geometry": {
    "type": "Point",
    "coordinates": [
      -7.4887048,
      41.7606881
    ]
  }
},
{
  "type": "Feature",
  "id": "node/8313043951",
  "properties": {
    "access": "customers",
    "addr:country": "PT",
    "amenity": "charging_station",
    "authentication:none": "yes",
    "capacity": "2",
    "fee": "no",
    "motorcar": "yes",
    "name": "Porsche Destination Charging",
    "network": "Porsche",
    "operator": "Porsche",
    "parking:fee": "no",
    "socket:type2_cable": "2",
    "socket:type2_cable:current": "16",
    "socket:type2_cable:output": "11kW",
    "socket:type2_cable:voltage": "400",
    "id": "node/8313043951"
  },
  "geometry": {
    "type": "Point",
    "coordinates": [
      -8.7762871,
      41.4566586
    ]
  }
},
{
  "type": "Feature",
  "id": "node/8313058708",
  "properties": {
    "access": "customers",
    "addr:country": "PT",
    "amenity": "charging_station",
    "authentication:none": "yes",
    "capacity": "1",
    "fee": "no",
    "motorcar": "yes",
    "name": "Porsche Destination Charging",
    "network": "Porsche",
    "operator": "Porsche",
    "parking:fee": "no",
    "socket:type2_cable": "1",
    "socket:type2_cable:current": "16",
    "socket:type2_cable:output": "11kW",
    "socket:type2_cable:voltage": "400",
    "id": "node/8313058708"
  },
  "geometry": {
    "type": "Point",
    "coordinates": [
      -8.5737294,
      41.7500137
    ]
  }
},
{
  "type": "Feature",
  "id": "node/8398426961",
  "properties": {
    "access": "private",
    "addr:country": "PT",
    "amenity": "charging_station",
    "authentication:membership_card": "yes",
    "authentication:none": "no",
    "capacity": "2",
    "email": "mobilidade-eletrica@edp.pt",
    "fee": "yes",
    "motorcar": "yes",
    "name": "SNS-00001 - EDP",
    "network": "Mobi.E",
    "operator": "EDP Comercial",
    "parking:fee": "no",
    "phone": "+351 800 222 222",
    "ref": "SNS-00001",
    "socket:chademo": "1",
    "socket:chademo:current": "60",
    "socket:chademo:output": "25kW",
    "socket:chademo:voltage": "500",
    "socket:type2_cable": "1",
    "socket:type2_cable:current": "32",
    "socket:type2_cable:output": "22kW",
    "socket:type2_cable:voltage": "400",
    "website": "https://www.mobie.pt/",
    "id": "node/8398426961"
  },
  "geometry": {
    "type": "Point",
    "coordinates": [
      -8.8072211,
      37.9309
    ]
  }
},
{
  "type": "Feature",
  "id": "node/8422173529",
  "properties": {
    "access": "customers",
    "addr:country": "PT",
    "amenity": "charging_station",
    "authentication:none": "yes",
    "capacity": "2",
    "fee": "no",
    "motorcar": "yes",
    "name": "Porsche Destination Charging",
    "network": "Porsche",
    "operator": "Porsche",
    "parking:fee": "no",
    "socket:type2_cable": "2",
    "socket:type2_cable:current": "16",
    "socket:type2_cable:output": "11kW",
    "socket:type2_cable:voltage": "400",
    "id": "node/8422173529"
  },
  "geometry": {
    "type": "Point",
    "coordinates": [
      -8.1894842,
      37.094644
    ]
  }
},
{
  "type": "Feature",
  "id": "node/8426984784",
  "properties": {
    "access": "customers",
    "addr:country": "PT",
    "amenity": "charging_station",
    "authentication:none": "yes",
    "capacity": "2",
    "fee": "no",
    "motorcar": "yes",
    "name": "Porsche Destination Charging",
    "network": "Porsche",
    "operator": "Porsche",
    "parking:fee": "no",
    "socket:type2_cable": "2",
    "socket:type2_cable:current": "16",
    "socket:type2_cable:output": "11kW",
    "socket:type2_cable:voltage": "400",
    "id": "node/8426984784"
  },
  "geometry": {
    "type": "Point",
    "coordinates": [
      -9.4567609,
      38.7075782
    ]
  }
},
{
  "type": "Feature",
  "id": "node/8427002574",
  "properties": {
    "access": "customers",
    "addr:country": "PT",
    "amenity": "charging_station",
    "authentication:none": "yes",
    "capacity": "2",
    "fee": "no",
    "motorcar": "yes",
    "name": "Porsche Destination Charging",
    "network": "Porsche",
    "operator": "Porsche",
    "parking:fee": "no",
    "socket:type2_cable": "2",
    "socket:type2_cable:current": "16",
    "socket:type2_cable:output": "11kW",
    "socket:type2_cable:voltage": "400",
    "id": "node/8427002574"
  },
  "geometry": {
    "type": "Point",
    "coordinates": [
      -8.3797735,
      37.1015487
    ]
  }
},
{
  "type": "Feature",
  "id": "node/8427006803",
  "properties": {
    "access": "customers",
    "addr:country": "PT",
    "amenity": "charging_station",
    "authentication:none": "yes",
    "capacity": "2",
    "fee": "no",
    "motorcar": "yes",
    "name": "Porsche Destination Charging",
    "network": "Porsche",
    "operator": "Porsche",
    "parking:fee": "no",
    "socket:type2_cable": "2",
    "socket:type2_cable:current": "16",
    "socket:type2_cable:output": "11kW",
    "socket:type2_cable:voltage": "400",
    "id": "node/8427006803"
  },
  "geometry": {
    "type": "Point",
    "coordinates": [
      -9.1958477,
      39.3860319
    ]
  }
},
{
  "type": "Feature",
  "id": "node/8427051065",
  "properties": {
    "access": "customers",
    "addr:country": "PT",
    "amenity": "charging_station",
    "authentication:none": "yes",
    "capacity": "1",
    "fee": "no",
    "motorcar": "yes",
    "name": "Porsche Destination Charging",
    "network": "Porsche",
    "operator": "Porsche",
    "parking:fee": "no",
    "socket:type2_cable": "1",
    "socket:type2_cable:current": "16",
    "socket:type2_cable:output": "11kW",
    "socket:type2_cable:voltage": "400",
    "id": "node/8427051065"
  },
  "geometry": {
    "type": "Point",
    "coordinates": [
      -8.6424369,
      41.0289241
    ]
  }
},
{
  "type": "Feature",
  "id": "node/8427068928",
  "properties": {
    "access": "customers",
    "addr:country": "PT",
    "amenity": "charging_station",
    "authentication:none": "yes",
    "capacity": "1",
    "fee": "no",
    "motorcar": "yes",
    "name": "Monte da Vilarinha Porsche Destination Charging",
    "network": "Porsche",
    "operator": "Porsche",
    "parking:fee": "no",
    "socket:type2_cable": "1",
    "socket:type2_cable:current": "16",
    "socket:type2_cable:output": "11kW",
    "socket:type2_cable:voltage": "400",
    "id": "node/8427068928"
  },
  "geometry": {
    "type": "Point",
    "coordinates": [
      -8.8585331,
      37.1689316
    ]
  }
},
{
  "type": "Feature",
  "id": "node/8427068929",
  "properties": {
    "access": "customers",
    "addr:country": "PT",
    "amenity": "charging_station",
    "authentication:none": "yes",
    "capacity": "1",
    "fee": "no",
    "motorcar": "yes",
    "name": "Porsche Destination Charging",
    "network": "Porsche",
    "operator": "Porsche",
    "parking:fee": "no",
    "socket:type2_cable": "1",
    "socket:type2_cable:current": "16",
    "socket:type2_cable:output": "11kW",
    "socket:type2_cable:voltage": "400",
    "id": "node/8427068929"
  },
  "geometry": {
    "type": "Point",
    "coordinates": [
      -8.6752751,
      37.1029007
    ]
  }
},
{
  "type": "Feature",
  "id": "node/8427070603",
  "properties": {
    "access": "customers",
    "addr:country": "PT",
    "amenity": "charging_station",
    "authentication:none": "yes",
    "capacity": "2",
    "fee": "no",
    "motorcar": "yes",
    "name": "Porsche Destination Charging",
    "network": "Porsche",
    "operator": "Porsche",
    "parking:fee": "no",
    "socket:type2_cable": "2",
    "socket:type2_cable:current": "16",
    "socket:type2_cable:output": "11kW",
    "socket:type2_cable:voltage": "400",
    "id": "node/8427070603"
  },
  "geometry": {
    "type": "Point",
    "coordinates": [
      -8.848173,
      41.8654941
    ]
  }
},
{
  "type": "Feature",
  "id": "node/8427086029",
  "properties": {
    "access": "customers",
    "addr:country": "PT",
    "amenity": "charging_station",
    "authentication:none": "yes",
    "capacity": "2",
    "fee": "no",
    "motorcar": "yes",
    "name": "Porsche Destination Charging",
    "network": "Porsche",
    "operator": "Porsche",
    "parking:fee": "no",
    "socket:type2_cable": "2",
    "socket:type2_cable:current": "16",
    "socket:type2_cable:output": "11kW",
    "socket:type2_cable:voltage": "400",
    "id": "node/8427086029"
  },
  "geometry": {
    "type": "Point",
    "coordinates": [
      -8.867497,
      39.8518215
    ]
  }
},
{
  "type": "Feature",
  "id": "node/8497568095",
  "properties": {
    "access": "customers",
    "addr:country": "PT",
    "amenity": "charging_station",
    "authentication:app": "no",
    "authentication:debit_card": "no",
    "authentication:membership_card": "no",
    "authentication:money_card": "no",
    "authentication:nfc": "no",
    "authentication:none": "yes",
    "authentication:phone_call": "no",
    "authentication:short_message": "no",
    "capacity": "2",
    "fee": "no",
    "maxstay": "unlimited",
    "motorcar": "yes",
    "name": "Real Marina Hotel & Spa Tesla Destination Charger",
    "network": "Tesla",
    "opening_hours": "24/7",
    "operator": "Tesla",
    "parking:fee": "no",
    "socket:tesla_destination": "1",
    "socket:tesla_destination:output": "22kW",
    "socket:type2_cable": "1",
    "socket:type2_cable:output": "22kW",
    "website": "https://www.tesla.com/pt_PT/findus/list/chargers/Portugal",
    "id": "node/8497568095"
  },
  "geometry": {
    "type": "Point",
    "coordinates": [
      -7.8473496,
      37.0238951
    ]
  }
},
{
  "type": "Feature",
  "id": "node/8497573223",
  "properties": {
    "access": "customers",
    "addr:country": "PT",
    "amenity": "charging_station",
    "capacity": "2",
    "fee": "no",
    "motorcar": "yes",
    "name": "Hotel Segredos de Vale Manso Tesla Destination Charger",
    "network": "Tesla",
    "operator": "Tesla",
    "parking:fee": "no",
    "socket:tesla_destination": "1",
    "socket:tesla_destination:output": "22kW",
    "socket:type2_cable": "1",
    "socket:type2_cable:output": "22kW",
    "website": "https://www.tesla.com/pt_PT/findus/list/chargers/Portugal",
    "id": "node/8497573223"
  },
  "geometry": {
    "type": "Point",
    "coordinates": [
      -8.2925186,
      39.54581
    ]
  }
},
{
  "type": "Feature",
  "id": "node/8688493181",
  "properties": {
    "access": "customers",
    "addr:country": "PT",
    "amenity": "charging_station",
    "authentication:none": "yes",
    "capacity": "2",
    "fee": "no",
    "motorcar": "yes",
    "name": "Porsche Destination Charging",
    "network": "Porsche",
    "operator": "Porsche",
    "parking:fee": "no",
    "socket:type2_cable": "2",
    "socket:type2_cable:current": "16",
    "socket:type2_cable:output": "11kW",
    "socket:type2_cable:voltage": "400",
    "id": "node/8688493181"
  },
  "geometry": {
    "type": "Point",
    "coordinates": [
      -7.9667568,
      37.8375592
    ]
  }
},
{
  "type": "Feature",
  "id": "node/8688493182",
  "properties": {
    "access": "customers",
    "addr:country": "PT",
    "amenity": "charging_station",
    "authentication:none": "yes",
    "capacity": "1",
    "fee": "no",
    "motorcar": "yes",
    "name": "Porsche Destination Charging",
    "network": "Porsche",
    "operator": "Porsche",
    "parking:fee": "no",
    "socket:type2_cable": "1",
    "socket:type2_cable:current": "16",
    "socket:type2_cable:output": "11kW",
    "socket:type2_cable:voltage": "400",
    "id": "node/8688493182"
  },
  "geometry": {
    "type": "Point",
    "coordinates": [
      -7.4823935,
      37.1802282
    ]
  }
},
{
  "type": "Feature",
  "id": "node/8757866924",
  "properties": {
    "access": "customers",
    "addr:country": "PT",
    "amenity": "charging_station",
    "capacity": "4",
    "fee": "no",
    "name": "Quinta do Raposinho Tesla Destination Charger",
    "network": "Tesla",
    "operator": "Tesla",
    "parking:fee": "no",
    "socket:tesla_destination": "2",
    "socket:tesla_destination:output": "22kW",
    "socket:type2_cable": "2",
    "socket:type2_cable:output": "22kW",
    "website": "https://www.tesla.com/pt_PT/findus/list/chargers/Portugal",
    "id": "node/8757866924"
  },
  "geometry": {
    "type": "Point",
    "coordinates": [
      -8.026555,
      41.549848
    ]
  }
}
]
}
