{
  "version": 0.6,
  "generator": "Overpass API 0.7.56.9 76e5016d",
  "osm3s": {
    "copyright": "The data included in this document is from www.openstreetmap.org. The data is made available under ODbL."
  },
  "elements": [

{
  "type": "node",
  "id": 8158062237,
  "lat": 37.0789248,
  "lon": -8.1264705,
  "tags": {
    "access": "customers",
    "addr:country": "PT",
    "amenity": "charging_station",
    "capacity": "2",
    "fee": "no",
    "motorcar": "yes",
    "name": "The Lake Spa Resort Tesla Destination Charger",
    "network": "Tesla",
    "operator": "Tesla",
    "socket:tesla_destination": "1",
    "socket:tesla_destination:output": "6kW",
    "socket:type2_cable": "1",
    "socket:type2_cable:output": "6kW",
    "website": "https://www.tesla.com/pt_PT/findus/list/chargers/Portugal"
  }
},
{
  "type": "node",
  "id": 8168676359,
  "lat": 38.1942237,
  "lon": -8.6172415,
  "tags": {
    "access": "customers",
    "addr:country": "PT",
    "amenity": "charging_station",
    "capacity": "2",
    "fee": "no",
    "motorcar": "yes",
    "name": "Herdade das Barradas da Serra Tesla Destination Charger",
    "network": "Tesla",
    "operator": "Tesla",
    "parking:fee": "no",
    "ref": "dc28732",
    "socket:tesla_destination": "1",
    "socket:tesla_destination:output": "9kW",
    "socket:type2_cable": "1",
    "socket:type2_cable:output": "9kW",
    "website": "https://www.tesla.com/pt_PT/findus/list/chargers/Portugal"
  }
},
{
  "type": "node",
  "id": 8199423476,
  "lat": 41.5516959,
  "lon": -8.4158472,
  "tags": {
    "access": "customers",
    "addr:country": "PT",
    "amenity": "charging_station",
    "capacity": "2",
    "fee": "no",
    "motorcar": "yes",
    "name": "Devesa & Devesa Lda Parking Garage Tesla Destination Charger",
    "network": "Tesla",
    "operator": "Tesla",
    "ref": "dc24460",
    "socket:tesla_destination": "1",
    "socket:tesla_destination:output": "8kW",
    "socket:type2_cable": "1",
    "socket:type2_cable:output": "8kW",
    "website": "https://www.tesla.com/pt_PT/findus/list/chargers/Portugal"
  }
},
{
  "type": "node",
  "id": 8199482687,
  "lat": 41.7637307,
  "lon": -8.1897672,
  "tags": {
    "access": "customers",
    "addr:country": "PT",
    "amenity": "charging_station",
    "capacity": "2",
    "fee": "no",
    "motorcar": "yes",
    "name": "Parque Cerdeira Tesla Destination Charger",
    "network": "Tesla",
    "operator": "Tesla",
    "ref": "dc52381",
    "socket:tesla_destination": "1",
    "socket:tesla_destination:output": "8kW",
    "socket:type2_cable": "1",
    "socket:type2_cable:output": "8kW",
    "website": "https://www.tesla.com/pt_PT/findus/list/chargers/Portugal"
  }
},
{
  "type": "node",
  "id": 8199623608,
  "lat": 41.7874060,
  "lon": -8.6357461,
  "tags": {
    "access": "customers",
    "addr:country": "PT",
    "amenity": "charging_station",
    "capacity": "4",
    "fee": "no",
    "motorcar": "yes",
    "name": "Quinta da Arrifana Tesla Destination Charger",
    "network": "Tesla",
    "operator": "Tesla",
    "ref": "dc47275",
    "socket:tesla_destination": "2",
    "socket:tesla_destination:output": "7.4kW",
    "socket:type2_cable": "2",
    "socket:type2_cable:output": "7.4kW",
    "website": "https://www.tesla.com/pt_PT/findus/list/chargers/Portugal"
  }
},
{
  "type": "node",
  "id": 8286156611,
  "lat": 40.4187167,
  "lon": -7.5399779,
  "tags": {
    "access": "customers",
    "addr:country": "PT",
    "amenity": "charging_station",
    "capacity": "2",
    "name": "Casa de São Lourenço",
    "network": "none",
    "operator": "Casa de São Lourenço",
    "socket:tesla_destination": "1",
    "socket:tesla_destination:output": "7.4kW",
    "socket:type2_cable": "1",
    "socket:type2_cable:output": "7.4kW"
  }
},
{
  "type": "node",
  "id": 8287603389,
  "lat": 41.0381137,
  "lon": -8.3514588,
  "tags": {
    "access": "customers",
    "addr:country": "PT",
    "amenity": "charging_station",
    "capacity": "2",
    "name": "Douro41 Hotel & SPA",
    "network": "none",
    "operator": "Douro41 Hotel & SPA",
    "socket:tesla_destination": "1",
    "socket:tesla_destination:output": "7kW",
    "socket:type2_cable": "1",
    "socket:type2_cable:output": "7kW"
  }
},
{
  "type": "node",
  "id": 8308367265,
  "lat": 41.4437246,
  "lon": -8.1684409,
  "tags": {
    "access": "customers",
    "addr:country": "PT",
    "amenity": "charging_station",
    "capacity": "1",
    "name": "Fafmusica",
    "network": "none",
    "operator": "Fafmusica",
    "socket:type2_cable": "1",
    "socket:type2_cable:current": "20",
    "socket:type2_cable:output": "4.6kW",
    "socket:type2_cable:voltage": "230"
  }
}

  ]
}
