{
  "version": 0.6,
  "generator": "Overpass API 0.7.56.9 76e5016d",
  "osm3s": {
    "copyright": "The data included in this document is from www.openstreetmap.org. The data is made available under ODbL."
  },
  "elements": [

{
  "type": "node",
  "id": 7031340600,
  "lat": 37.1071907,
  "lon": -8.6753704,
  "tags": {
    "access": "customers",
    "addr:country": "PT",
    "addr:postcode": "8600-645 Lagos",
    "amenity": "charging_station",
    "capacity": "2",
    "fee": "no",
    "motorcar": "yes",
    "name": "Lagos Avenida Hotel Tesla Destination Charger",
    "network": "Tesla",
    "operator": "Tesla",
    "phone": "+351 282 780 090",
    "ref": "dc41908",
    "socket:tesla_destination": "1",
    "socket:tesla_destination:output": "22kW",
    "socket:type2": "2",
    "socket:type2:output": "7.4kW",
    "socket:type2_cable": "1",
    "socket:type2_cable:output": "22kW",
    "website": "https://www.tesla.com/pt_PT/findus/list/chargers/Portugal"
  }
},
{
  "type": "node",
  "id": 8119339964,
  "lat": 38.5787059,
  "lon": -9.0050232,
  "tags": {
    "access": "permissive",
    "addr:country": "PT",
    "amenity": "charging_station",
    "authentication:membership_card": "yes",
    "authentication:none": "no",
    "capacity": "2",
    "email": "mobilidade.electricacrc@galp.com",
    "fee": "yes",
    "motorcar": "yes",
    "name": "PLM-00004",
    "network": "Mobi.E",
    "opening_hours": "Mo-Su 09:00-21:00",
    "operator": "Galp Power",
    "parking:fee": "no",
    "phone": "+351 800 249 249",
    "ref": "PLM-00004",
    "socket:type2": "2",
    "socket:type2:current": "32",
    "socket:type2:output": "7.4kW",
    "socket:type2:voltage": "230",
    "website": "https://www.mobie.pt/"
  }
},
{
  "type": "node",
  "id": 8154869166,
  "lat": 38.7096070,
  "lon": -9.2927463,
  "tags": {
    "access": "private",
    "amenity": "charging_station",
    "authentication:membership_card": "yes",
    "authentication:none": "no",
    "capacity": "2",
    "email": "mobilidade-eletrica@edp.pt",
    "fee": "yes",
    "motorcar": "yes",
    "name": "OER-00029/30",
    "network": "Mobi.E",
    "opening_hours": "24/7",
    "operator": "EDP Comercial",
    "parking:fee": "yes",
    "phone": "+351 800 222 222",
    "ref": "OER-00029;OER-00030",
    "socket:type2": "2",
    "socket:type2:current": "32",
    "socket:type2:output": "7.4kW",
    "socket:type2:voltage": "230",
    "website": "https://www.mobie.pt/"
  }
},
{
  "type": "node",
  "id": 8238721464,
  "lat": 38.5372292,
  "lon": -8.8760157,
  "tags": {
    "access": "customers",
    "addr:country": "PT",
    "amenity": "charging_station",
    "capacity": "2",
    "name": "Alegro Setúbal",
    "network": "none",
    "operator": "Alegro Setúbal",
    "socket:type2": "2",
    "socket:type2:current": "16",
    "socket:type2:output": "3.7kW",
    "socket:type2:voltage": "230"
  }
},
{
  "type": "node",
  "id": 8242754005,
  "lat": 38.7361934,
  "lon": -9.3862316,
  "tags": {
    "access": "private",
    "addr:city": "Cascais",
    "addr:country": "PT",
    "addr:street": "Estrada de Manique",
    "amenity": "charging_station",
    "authentication:membership_card": "yes",
    "authentication:none": "no",
    "capacity": "4",
    "fee": "yes",
    "motorcar": "yes",
    "name": "CSC-00011",
    "network": "Mobi.E",
    "opening_hours": "24/7",
    "operator": "Mobi.E",
    "parking:fee": "no",
    "ref": "CSC-00011",
    "socket:type2": "4",
    "socket:type2:current": "16",
    "socket:type2:output": "3.7kW",
    "socket:type2:voltage": "230",
    "website": "https://www.mobie.pt/"
  }
},
{
  "type": "node",
  "id": 8242791150,
  "lat": 38.7366490,
  "lon": -9.3956025,
  "tags": {
    "access": "private",
    "addr:country": "PT",
    "amenity": "charging_station",
    "capacity": "2",
    "name": "Santogal Opel",
    "network": "none",
    "operator": "Santogal",
    "socket:type2": "1",
    "socket:type2:current": "16",
    "socket:type2:output": "3.7kW",
    "socket:type2:voltage": "230"
  }
},
{
  "type": "node",
  "id": 8242791151,
  "lat": 38.7368969,
  "lon": -9.3956602,
  "tags": {
    "access": "private",
    "addr:country": "PT",
    "amenity": "charging_station",
    "capacity": "2",
    "name": "Santogal Volvo",
    "network": "none",
    "operator": "Santogal",
    "socket:type2": "1",
    "socket:type2:current": "16",
    "socket:type2:output": "3.7kW",
    "socket:type2:voltage": "230"
  }
},
{
  "type": "node",
  "id": 8242796891,
  "lat": 38.7622446,
  "lon": -9.3742561,
  "tags": {
    "access": "customers",
    "addr:country": "PT",
    "amenity": "charging_station",
    "authentication:membership_card": "yes",
    "authentication:none": "no",
    "capacity": "2",
    "email": "mobilidade.electricacrc@galp.com",
    "fee": "yes",
    "motorcar": "yes",
    "name": "SNT-00010",
    "network": "Mobi.E",
    "opening_hours": "24/7",
    "operator": "Galp Power",
    "parking:fee": "no",
    "phone": "+351 800 249 249",
    "ref": "SNT-90010",
    "socket:type2": "2",
    "socket:type2:current": "16",
    "socket:type2:output": "3.7kW",
    "socket:type2:voltage": "230",
    "website": "https://www.mobie.pt/"
  }
},
{
  "type": "node",
  "id": 8255379291,
  "lat": 38.7149704,
  "lon": -9.1368780,
  "tags": {
    "access": "private",
    "addr:country": "PT",
    "amenity": "charging_station",
    "capacity": "1",
    "name": "Hotel Mundial",
    "network": "none",
    "operator": "Hotel Mundial",
    "socket:type2": "1",
    "socket:type2:current": "16",
    "socket:type2:output": "3.7kW",
    "socket:type2:voltage": "230"
  }
},
{
  "type": "node",
  "id": 8255549515,
  "lat": 39.5889330,
  "lon": -8.8118747,
  "tags": {
    "access": "customers",
    "addr:country": "PT",
    "amenity": "charging_station",
    "capacity": "1",
    "name": "Hospedaria Céu Azul",
    "network": "none",
    "operator": "Hospedaria Céu Azul",
    "socket:type2": "1",
    "socket:type2:current": "32",
    "socket:type2:output": "7.4kW",
    "socket:type2:voltage": "230"
  }
},
{
  "type": "node",
  "id": 8255593194,
  "lat": 40.3937267,
  "lon": -8.6293530,
  "tags": {
    "access": "private",
    "addr:country": "PT",
    "amenity": "charging_station",
    "capacity": "1",
    "name": "Casa Taipina",
    "network": "none",
    "operator": "Casa Taipina",
    "socket:type2": "1",
    "socket:type2:current": "16",
    "socket:type2:output": "3.7kW",
    "socket:type2:voltage": "230"
  }
},
{
  "type": "node",
  "id": 8255614468,
  "lat": 40.6232954,
  "lon": -8.6501884,
  "tags": {
    "access": "customers",
    "addr:country": "PT",
    "amenity": "charging_station",
    "authentication:none": "yes",
    "capacity": "2",
    "fee": "no",
    "name": "Mercadona",
    "network": "none",
    "opening_hours": "09:00-21:30",
    "operator": "Mercadona",
    "parking:fee": "no",
    "socket:type2": "2",
    "socket:type2:current": "16",
    "socket:type2:output": "3.7kW",
    "socket:type2:voltage": "230"
  }
},
{
  "type": "node",
  "id": 8255625437,
  "lat": 40.6398792,
  "lon": -8.6355704,
  "tags": {
    "access": "customers",
    "addr:country": "PT",
    "amenity": "charging_station",
    "authentication:none": "yes",
    "capacity": "2",
    "fee": "no",
    "name": "Mercadona",
    "network": "none",
    "opening_hours": "09:00-21:30",
    "operator": "Mercadona",
    "parking:fee": "no",
    "socket:type2": "2",
    "socket:type2:current": "16",
    "socket:type2:output": "3.7kW",
    "socket:type2:voltage": "230"
  }
},
{
  "type": "node",
  "id": 8257503808,
  "lat": 37.1193653,
  "lon": -7.6271302,
  "tags": {
    "access": "customers",
    "addr:country": "PT",
    "amenity": "charging_station",
    "authentication:membership_card": "yes",
    "authentication:none": "no",
    "capacity": "2",
    "email": "mobilidade-eletrica@edp.pt",
    "fee": "yes",
    "motorcar": "yes",
    "name": "TVR-00006/7 - Hotel Albacora",
    "network": "Mobi.E",
    "opening_hours": "24/7",
    "operator": "EDP Comercial",
    "parking:fee": "no",
    "phone": "+351 800 222 222",
    "ref": "TVR-00006;TVR-00007",
    "socket:type2": "2",
    "socket:type2:current": "32",
    "socket:type2:output": "7.4kW",
    "socket:type2:voltage": "230",
    "website": "https://www.mobie.pt/"
  }
},
{
  "type": "node",
  "id": 8257523622,
  "lat": 37.1235143,
  "lon": -7.6456102,
  "tags": {
    "access": "customers",
    "addr:country": "PT",
    "amenity": "charging_station",
    "authentication:membership_card": "yes",
    "authentication:none": "no",
    "capacity": "2",
    "email": "mobilidade-eletrica@edp.pt",
    "fee": "yes",
    "motorcar": "yes",
    "name": "TVR-00008/9 - Hotel Vila Galé Tavira",
    "network": "Mobi.E",
    "opening_hours": "24/7",
    "operator": "EDP Comercial",
    "parking:fee": "no",
    "phone": "+351 800 222 222",
    "ref": "TVR-00008;TVR-00009",
    "socket:type2": "2",
    "socket:type2:current": "32",
    "socket:type2:output": "7.4kW",
    "socket:type2:voltage": "230",
    "website": "https://www.mobie.pt/"
  }
},
{
  "type": "node",
  "id": 8257528781,
  "lat": 37.1251575,
  "lon": -7.6527127,
  "tags": {
    "access": "customers",
    "addr:country": "PT",
    "amenity": "charging_station",
    "authentication:membership_card": "yes",
    "authentication:none": "no",
    "capacity": "2",
    "email": "mobilidade-eletrica@edp.pt",
    "fee": "yes",
    "motorcar": "yes",
    "name": "TVR-00002/3 - Hotel Pestana Tavira",
    "network": "Mobi.E",
    "opening_hours": "24/7",
    "operator": "EDP Comercial",
    "parking:fee": "no",
    "phone": "+351 800 222 222",
    "ref": "TVR-00002;TVR-00003",
    "socket:type2": "2",
    "socket:type2:current": "32",
    "socket:type2:output": "7.4kW",
    "socket:type2:voltage": "230",
    "website": "https://www.mobie.pt/"
  }
},
{
  "type": "node",
  "id": 8262533135,
  "lat": 37.0966946,
  "lon": -7.8953136,
  "tags": {
    "access": "customers",
    "addr:country": "PT",
    "amenity": "charging_station",
    "authentication:membership_card": "yes",
    "authentication:none": "no",
    "capacity": "1",
    "email": "mobilidade-eletrica@edp.pt",
    "fee": "yes",
    "motorcar": "yes",
    "name": "FAR-00023 - Pousada Palácio de Estoi",
    "network": "Mobi.E",
    "opening_hours": "24/7",
    "operator": "EDP Comercial",
    "parking:fee": "no",
    "phone": "+351 800 222 222",
    "ref": "FAR-00023",
    "socket:type2": "1",
    "socket:type2:current": "32",
    "socket:type2:output": "7.4kW",
    "socket:type2:voltage": "230",
    "website": "https://www.mobie.pt/"
  }
},
{
  "type": "node",
  "id": 8262533136,
  "lat": 37.0968320,
  "lon": -7.8955282,
  "tags": {
    "access": "customers",
    "addr:country": "PT",
    "amenity": "charging_station",
    "authentication:membership_card": "yes",
    "authentication:none": "no",
    "capacity": "1",
    "email": "mobilidade-eletrica@edp.pt",
    "fee": "yes",
    "motorcar": "yes",
    "name": "FAR-00022 - Hotel Pestana Estoi",
    "network": "Mobi.E",
    "opening_hours": "24/7",
    "operator": "EDP Comercial",
    "parking:fee": "no",
    "phone": "+351 800 222 222",
    "ref": "FAR-00022",
    "socket:type2": "1",
    "socket:type2:current": "32",
    "socket:type2:output": "7.4kW",
    "socket:type2:voltage": "230",
    "website": "https://www.mobie.pt/"
  }
},
{
  "type": "node",
  "id": 8262564286,
  "lat": 37.0921397,
  "lon": -8.0939560,
  "tags": {
    "access": "customers",
    "addr:country": "PT",
    "amenity": "charging_station",
    "authentication:membership_card": "yes",
    "authentication:none": "no",
    "capacity": "2",
    "email": "mobilidade-eletrica@edp.pt",
    "fee": "yes",
    "motorcar": "yes",
    "name": "LLE-00044/45 - Hotel Pestana Vila Sol",
    "network": "Mobi.E",
    "opening_hours": "24/7",
    "operator": "EDP Comercial",
    "parking:fee": "no",
    "phone": "+351 800 222 222",
    "ref": "LLE-00044;LLE-00045",
    "socket:type2": "2",
    "socket:type2:current": "32",
    "socket:type2:output": "7.4kW",
    "socket:type2:voltage": "230",
    "website": "https://www.mobie.pt/"
  }
},
{
  "type": "node",
  "id": 8262566436,
  "lat": 37.0734274,
  "lon": -8.1179242,
  "tags": {
    "access": "customers",
    "addr:country": "PT",
    "amenity": "charging_station",
    "authentication:membership_card": "yes",
    "authentication:none": "no",
    "capacity": "2",
    "email": "mobilidade-eletrica@edp.pt",
    "fee": "yes",
    "motorcar": "yes",
    "name": "LLE-00024/25 - Hotel Vila Galé Ampalius",
    "network": "Mobi.E",
    "opening_hours": "24/7",
    "operator": "EDP Comercial",
    "parking:fee": "no",
    "phone": "+351 800 222 222",
    "ref": "LLE-00024;LLE-00025",
    "socket:type2": "2",
    "socket:type2:current": "32",
    "socket:type2:output": "7.4kW",
    "socket:type2:voltage": "230",
    "website": "https://www.mobie.pt/"
  }
},
{
  "type": "node",
  "id": 8262581167,
  "lat": 37.0758766,
  "lon": -8.1171571,
  "tags": {
    "access": "customers",
    "addr:country": "PT",
    "amenity": "charging_station",
    "authentication:membership_card": "yes",
    "authentication:none": "no",
    "capacity": "2",
    "email": "mobilidade-eletrica@edp.pt",
    "fee": "yes",
    "motorcar": "yes",
    "name": "LLE-00026/27 - Hotel Vila Galé Marina",
    "network": "Mobi.E",
    "opening_hours": "24/7",
    "operator": "EDP Comercial",
    "parking:fee": "no",
    "phone": "+351 800 222 222",
    "ref": "LLE-00026;LLE-00027",
    "socket:type2": "2",
    "socket:type2:current": "32",
    "socket:type2:output": "7.4kW",
    "socket:type2:voltage": "230",
    "website": "https://www.mobie.pt/"
  }
},
{
  "type": "node",
  "id": 8262591108,
  "lat": 37.1016926,
  "lon": -8.7328340,
  "tags": {
    "access": "customers",
    "addr:country": "PT",
    "amenity": "charging_station",
    "capacity": "1",
    "name": "Camping Turiscampo",
    "network": "none",
    "operator": "Camping Turiscampo",
    "socket:type2": "1",
    "socket:type2:current": "32",
    "socket:type2:output": "7.4kW",
    "socket:type2:voltage": "230"
  }
},
{
  "type": "node",
  "id": 8262596902,
  "lat": 37.0904880,
  "lon": -8.2436836,
  "tags": {
    "access": "customers",
    "addr:country": "PT",
    "amenity": "charging_station",
    "authentication:membership_card": "yes",
    "authentication:none": "no",
    "capacity": "2",
    "email": "mobilidade-eletrica@edp.pt",
    "fee": "yes",
    "motorcar": "yes",
    "name": "ABF-00008/9 - Hotel Vila Galé Cerro Alagoa",
    "network": "Mobi.E",
    "opening_hours": "24/7",
    "operator": "EDP Comercial",
    "parking:fee": "no",
    "phone": "+351 800 222 222",
    "ref": "ABF-00008;ABF-00009",
    "socket:type2": "1",
    "socket:type2:current": "32",
    "socket:type2:output": "7.4kW",
    "socket:type2:voltage": "230",
    "website": "https://www.mobie.pt/"
  }
},
{
  "type": "node",
  "id": 8262611997,
  "lat": 37.0845484,
  "lon": -8.3147433,
  "tags": {
    "access": "customers",
    "addr:country": "PT",
    "amenity": "charging_station",
    "authentication:membership_card": "yes",
    "authentication:none": "no",
    "capacity": "2",
    "email": "mobilidade-eletrica@edp.pt",
    "fee": "yes",
    "motorcar": "yes",
    "name": "ABF-00014/15 - Hotel Vila Galé Atlântico",
    "network": "Mobi.E",
    "opening_hours": "24/7",
    "operator": "EDP Comercial",
    "parking:fee": "no",
    "phone": "+351 800 222 222",
    "ref": "ABF-00014;ABF-00015",
    "socket:type2": "2",
    "socket:type2:current": "32",
    "socket:type2:output": "7.4kW",
    "socket:type2:voltage": "230",
    "website": "https://www.mobie.pt/"
  }
},
{
  "type": "node",
  "id": 8262620579,
  "lat": 37.1247971,
  "lon": -8.5777950,
  "tags": {
    "access": "customers",
    "addr:country": "PT",
    "amenity": "charging_station",
    "authentication:membership_card": "yes",
    "authentication:none": "no",
    "capacity": "4",
    "email": "mobilidade-eletrica@edp.pt",
    "fee": "yes",
    "motorcar": "yes",
    "name": "PTM-00004/5/6/7 - Hotel Pestana Blue Alvor",
    "network": "Mobi.E",
    "opening_hours": "24/7",
    "operator": "EDP Comercial",
    "parking:fee": "no",
    "phone": "+351 800 222 222",
    "ref": "PTM-00004;PTM-00005;PTM-00006;PTM-00007",
    "socket:type2": "4",
    "socket:type2:current": "32",
    "socket:type2:output": "7.4kW",
    "socket:type2:voltage": "230",
    "website": "https://www.mobie.pt/"
  }
},
{
  "type": "node",
  "id": 8262659546,
  "lat": 37.1234760,
  "lon": -8.5800084,
  "tags": {
    "access": "customers",
    "addr:country": "PT",
    "amenity": "charging_station",
    "authentication:membership_card": "yes",
    "authentication:none": "no",
    "capacity": "1",
    "email": "mobilidade-eletrica@edp.pt",
    "fee": "yes",
    "motorcar": "yes",
    "name": "PTM-00016/17 - Hotel Pestana Delfim",
    "network": "Mobi.E",
    "opening_hours": "24/7",
    "operator": "EDP Comercial",
    "parking:fee": "no",
    "phone": "+351 800 222 222",
    "ref": "PTM-00016;PTM-00017",
    "socket:type2": "1",
    "socket:type2:current": "32",
    "socket:type2:output": "7.4kW",
    "socket:type2:voltage": "230",
    "website": "https://www.mobie.pt/"
  }
},
{
  "type": "node",
  "id": 8262670189,
  "lat": 37.1236684,
  "lon": -8.5901177,
  "tags": {
    "access": "customers",
    "addr:country": "PT",
    "amenity": "charging_station",
    "authentication:membership_card": "yes",
    "authentication:none": "no",
    "capacity": "2",
    "email": "mobilidade-eletrica@edp.pt",
    "fee": "yes",
    "motorcar": "yes",
    "name": "PTM-00010/11 - Hotel Pestana Alvor South Beach",
    "network": "Mobi.E",
    "opening_hours": "24/7",
    "operator": "EDP Comercial",
    "parking:fee": "no",
    "phone": "+351 800 222 222",
    "ref": "PTM-00010;PTM-00011",
    "socket:type2": "2",
    "socket:type2:current": "32",
    "socket:type2:output": "7.4kW",
    "socket:type2:voltage": "230",
    "website": "https://www.mobie.pt/"
  }
},
{
  "type": "node",
  "id": 8262670190,
  "lat": 37.1228162,
  "lon": -8.5872196,
  "tags": {
    "access": "customers",
    "addr:country": "PT",
    "amenity": "charging_station",
    "authentication:membership_card": "yes",
    "authentication:none": "no",
    "capacity": "2",
    "email": "mobilidade-eletrica@edp.pt",
    "fee": "yes",
    "motorcar": "yes",
    "name": "PTM-00012/13 - Hotel Pestana Dom João II",
    "network": "Mobi.E",
    "opening_hours": "24/7",
    "operator": "EDP Comercial",
    "parking:fee": "no",
    "phone": "+351 800 222 222",
    "ref": "PTM-00012;PTM-00013",
    "socket:type2": "2",
    "socket:type2:current": "32",
    "socket:type2:output": "7.4kW",
    "socket:type2:voltage": "230",
    "website": "https://www.mobie.pt/"
  }
},
{
  "type": "node",
  "id": 8262670191,
  "lat": 37.0057871,
  "lon": -8.9334244,
  "tags": {
    "access": "customers",
    "addr:country": "PT",
    "amenity": "charging_station",
    "authentication:membership_card": "yes",
    "authentication:none": "no",
    "capacity": "2",
    "email": "mobilidade-eletrica@edp.pt",
    "fee": "yes",
    "motorcar": "yes",
    "name": "VBP-00004/5 - Pousada Sagres",
    "network": "Mobi.E",
    "opening_hours": "24/7",
    "operator": "EDP Comercial",
    "parking:fee": "no",
    "phone": "+351 800 222 222",
    "ref": "VBP-00004;VBP-00005",
    "socket:type2": "2",
    "socket:type2:current": "32",
    "socket:type2:output": "7.4kW",
    "socket:type2:voltage": "230",
    "website": "https://www.mobie.pt/"
  }
},
{
  "type": "node",
  "id": 8262684035,
  "lat": 37.1270089,
  "lon": -8.5843228,
  "tags": {
    "access": "customers",
    "addr:country": "PT",
    "amenity": "charging_station",
    "authentication:membership_card": "yes",
    "authentication:none": "no",
    "capacity": "2",
    "email": "mobilidade-eletrica@edp.pt",
    "fee": "yes",
    "motorcar": "yes",
    "name": "PTM-00014/15 - Hotel Pestana Alvor Park",
    "network": "Mobi.E",
    "opening_hours": "24/7",
    "operator": "EDP Comercial",
    "parking:fee": "no",
    "phone": "+351 800 222 222",
    "ref": "PTM-00014;PTM-00015",
    "socket:type2": "2",
    "socket:type2:current": "32",
    "socket:type2:output": "7.4kW",
    "socket:type2:voltage": "230",
    "website": "https://www.mobie.pt/"
  }
},
{
  "type": "node",
  "id": 8262690626,
  "lat": 37.1131553,
  "lon": -8.6624300,
  "tags": {
    "access": "customers",
    "addr:country": "PT",
    "amenity": "charging_station",
    "authentication:membership_card": "yes",
    "authentication:none": "no",
    "capacity": "2",
    "email": "mobilidade-eletrica@edp.pt",
    "fee": "yes",
    "motorcar": "yes",
    "name": "LGS-00006/7 - Hotel Vila Galé Lagos",
    "network": "Mobi.E",
    "opening_hours": "24/7",
    "operator": "EDP Comercial",
    "parking:fee": "no",
    "phone": "+351 800 222 222",
    "ref": "LGS-00006;LGS-00007",
    "socket:type2": "2",
    "socket:type2:current": "32",
    "socket:type2:output": "7.4kW",
    "socket:type2:voltage": "230",
    "website": "https://www.mobie.pt/"
  }
},
{
  "type": "node",
  "id": 8265020068,
  "lat": 37.1046721,
  "lon": -8.3703620,
  "tags": {
    "access": "customers",
    "addr:country": "PT",
    "amenity": "charging_station",
    "authentication:membership_card": "yes",
    "authentication:none": "no",
    "capacity": "2",
    "email": "mobilidade-eletrica@edp.pt",
    "fee": "yes",
    "motorcar": "yes",
    "name": "SLV-00003/4 - Hotel Vila Galé Náutico",
    "network": "Mobi.E",
    "opening_hours": "24/7",
    "operator": "EDP Comercial",
    "parking:fee": "no",
    "phone": "+351 800 222 222",
    "ref": "SLV-00003;SLV-00004",
    "socket:type2": "2",
    "socket:type2:current": "32",
    "socket:type2:output": "7.4kW",
    "socket:type2:voltage": "230",
    "website": "https://www.mobie.pt/"
  }
},
{
  "type": "node",
  "id": 8265061176,
  "lat": 37.8890871,
  "lon": -8.0210790,
  "tags": {
    "access": "customers",
    "addr:country": "PT",
    "amenity": "charging_station",
    "authentication:membership_card": "yes",
    "authentication:none": "no",
    "capacity": "2",
    "email": "mobilidade-eletrica@edp.pt",
    "fee": "yes",
    "motorcar": "yes",
    "name": "BJA-00007/8 - Hotel Vila Galé Clube de Campo",
    "network": "Mobi.E",
    "opening_hours": "24/7",
    "operator": "EDP Comercial",
    "parking:fee": "no",
    "phone": "+351 800 222 222",
    "ref": "BJA-00007;BJA-00008",
    "socket:type2": "2",
    "socket:type2:current": "32",
    "socket:type2:output": "7.4kW",
    "socket:type2:voltage": "230",
    "website": "https://www.mobie.pt/"
  }
},
{
  "type": "node",
  "id": 8265062176,
  "lat": 37.7008466,
  "lon": -8.0627659,
  "tags": {
    "access": "private",
    "addr:country": "PT",
    "amenity": "charging_station",
    "capacity": "1",
    "name": "ENAT",
    "network": "none",
    "operator": "ENAT",
    "socket:type2": "1",
    "socket:type2:current": "32",
    "socket:type2:output": "7.4kW",
    "socket:type2:voltage": "230"
  }
},
{
  "type": "node",
  "id": 8270302896,
  "lat": 32.6437927,
  "lon": -16.9172260,
  "tags": {
    "access": "customers",
    "addr:country": "PT",
    "amenity": "charging_station",
    "authentication:membership_card": "yes",
    "authentication:none": "no",
    "capacity": "2",
    "fee": "yes",
    "motorcar": "yes",
    "name": "FUN-00004 - Pestana Casino Park",
    "network": "Mobi.E",
    "opening_hours": "24/7",
    "operator": "Mobiletric",
    "parking:fee": "no",
    "ref": "FUN-00004",
    "socket:type2": "1",
    "socket:type2:current": "32",
    "socket:type2:output": "7.4kW",
    "socket:type2:voltage": "230",
    "website": "https://www.mobie.pt/"
  }
},
{
  "type": "node",
  "id": 8270302909,
  "lat": 32.6439756,
  "lon": -16.9141763,
  "tags": {
    "access": "customers",
    "addr:country": "PT",
    "amenity": "charging_station",
    "authentication:membership_card": "yes",
    "authentication:none": "no",
    "capacity": "1",
    "fee": "yes",
    "motorcar": "yes",
    "name": "FUN-00005 - Pestana CR7",
    "network": "Mobi.E",
    "opening_hours": "24/7",
    "operator": "Mobiletric",
    "parking:fee": "no",
    "ref": "FUN-00005",
    "socket:type2": "1",
    "socket:type2:current": "32",
    "socket:type2:output": "7.4kW",
    "socket:type2:voltage": "230",
    "website": "https://www.mobie.pt/"
  }
},
{
  "type": "node",
  "id": 8270308913,
  "lat": 32.6870770,
  "lon": -16.7931135,
  "tags": {
    "access": "customers",
    "addr:country": "PT",
    "amenity": "charging_station",
    "authentication:membership_card": "yes",
    "authentication:none": "no",
    "capacity": "2",
    "email": "mobilidade-eletrica@edp.pt",
    "fee": "yes",
    "motorcar": "yes",
    "name": "SCR-00009/10 - Vila Galé Santa Cruz",
    "network": "Mobi.E",
    "opening_hours": "24/7",
    "operator": "EDP Comercial",
    "parking:fee": "no",
    "phone": "+351 800 222 222",
    "ref": "SCR-00009;SCR-00010",
    "socket:type2": "2",
    "socket:type2:current": "32",
    "socket:type2:output": "7.4kW",
    "socket:type2:voltage": "230",
    "website": "https://www.mobie.pt/"
  }
},
{
  "type": "node",
  "id": 8270348865,
  "lat": 37.1788754,
  "lon": -7.4442552,
  "tags": {
    "access": "customers",
    "addr:country": "PT",
    "amenity": "charging_station",
    "capacity": "1",
    "name": "Hotel Dunamar",
    "network": "none",
    "operator": "Hotel Dunamar",
    "socket:type2": "1",
    "socket:type2:current": "30",
    "socket:type2:output": "6.6kW",
    "socket:type2:voltage": "230"
  }
},
{
  "type": "node",
  "id": 8275110686,
  "lat": 38.5573591,
  "lon": -7.9121652,
  "tags": {
    "access": "permissive",
    "addr:country": "PT",
    "amenity": "charging_station",
    "capacity": "1",
    "motorcar": "yes",
    "name": "Renault Multiauto",
    "network": "Renault",
    "operator": "Renault",
    "socket:type2": "1",
    "socket:type2:current": "32",
    "socket:type2:output": "7.4kW",
    "socket:type2:voltage": "230"
  }
},
{
  "type": "node",
  "id": 8275119211,
  "lat": 38.3856128,
  "lon": -7.3576239,
  "tags": {
    "access": "customers",
    "addr:country": "PT",
    "amenity": "charging_station",
    "capacity": "2",
    "name": "Herdade dos Delgados",
    "network": "none",
    "operator": "Herdade dos Delgados",
    "socket:type2": "2",
    "socket:type2:current": "32",
    "socket:type2:output": "7.4kW",
    "socket:type2:voltage": "230"
  }
},
{
  "type": "node",
  "id": 8275161245,
  "lat": 38.3721434,
  "lon": -8.5138362,
  "tags": {
    "access": "customers",
    "addr:country": "PT",
    "amenity": "charging_station",
    "authentication:membership_card": "yes",
    "authentication:none": "no",
    "capacity": "2",
    "email": "mobilidade-eletrica@edp.pt",
    "fee": "yes",
    "motorcar": "yes",
    "name": "ASL-00005/6 - Pousada Castelo de Alcácer do Sal",
    "network": "Mobi.E",
    "opening_hours": "24/7",
    "operator": "EDP Comercial",
    "parking:fee": "no",
    "phone": "+351 800 222 222",
    "ref": "ASL-00005;ASL-00006",
    "socket:type2": "2",
    "socket:type2:current": "32",
    "socket:type2:output": "7.4kW",
    "socket:type2:voltage": "230",
    "website": "https://www.mobie.pt/"
  }
},
{
  "type": "node",
  "id": 8275178356,
  "lat": 38.5669732,
  "lon": -7.9155904,
  "tags": {
    "access": "customers",
    "addr:country": "PT",
    "amenity": "charging_station",
    "authentication:membership_card": "yes",
    "authentication:none": "no",
    "capacity": "2",
    "email": "mobilidade-eletrica@edp.pt",
    "fee": "yes",
    "motorcar": "yes",
    "name": "EVR-00014/15 - Vila Galé Évora",
    "network": "Mobi.E",
    "opening_hours": "24/7",
    "operator": "EDP Comercial",
    "parking:fee": "no",
    "phone": "+351 800 222 222",
    "ref": "EVR-00014;EVR-00015",
    "socket:type2": "2",
    "socket:type2:current": "32",
    "socket:type2:output": "7.4kW",
    "socket:type2:voltage": "230",
    "website": "https://www.mobie.pt/"
  }
},
{
  "type": "node",
  "id": 8275207528,
  "lat": 38.5726374,
  "lon": -7.9070315,
  "tags": {
    "access": "customers",
    "addr:country": "PT",
    "amenity": "charging_station",
    "authentication:membership_card": "yes",
    "authentication:none": "no",
    "capacity": "2",
    "email": "mobilidade-eletrica@edp.pt",
    "fee": "yes",
    "motorcar": "yes",
    "name": "EVR-00012/13 - Pestana Pousada Convento",
    "network": "Mobi.E",
    "opening_hours": "24/7",
    "operator": "EDP Comercial",
    "parking:fee": "no",
    "phone": "+351 800 222 222",
    "ref": "EVR-00012;EVR-00013",
    "socket:type2": "2",
    "socket:type2:current": "32",
    "socket:type2:output": "7.4kW",
    "socket:type2:voltage": "230",
    "website": "https://www.mobie.pt/"
  }
},
{
  "type": "node",
  "id": 8275216959,
  "lat": 38.7320523,
  "lon": -7.9894584,
  "tags": {
    "access": "customers",
    "addr:country": "PT",
    "amenity": "charging_station",
    "authentication:membership_card": "yes",
    "authentication:none": "no",
    "capacity": "2",
    "email": "mobilidade-eletrica@edp.pt",
    "fee": "yes",
    "motorcar": "yes",
    "name": "ARL-00002/3 - Pousada de Arraiolos",
    "network": "Mobi.E",
    "opening_hours": "24/7",
    "operator": "EDP Comercial",
    "parking:fee": "no",
    "phone": "+351 800 222 222",
    "ref": "ARL-00002;ARL-00003",
    "socket:type2": "2",
    "socket:type2:current": "32",
    "socket:type2:output": "7.4kW",
    "socket:type2:voltage": "230",
    "website": "https://www.mobie.pt/"
  }
},
{
  "type": "node",
  "id": 8279646489,
  "lat": 38.4440367,
  "lon": -9.1073737,
  "tags": {
    "access": "customers",
    "addr:country": "PT",
    "amenity": "charging_station",
    "capacity": "2",
    "name": "Hotel do Mar",
    "network": "none",
    "operator": "Hotel do Mar",
    "socket:type2": "2",
    "socket:type2:current": "30",
    "socket:type2:output": "7kW",
    "socket:type2:voltage": "230"
  }
},
{
  "type": "node",
  "id": 8280558371,
  "lat": 39.1004789,
  "lon": -8.1444472,
  "tags": {
    "access": "customers",
    "addr:country": "PT",
    "amenity": "charging_station",
    "authentication:membership_card": "yes",
    "authentication:none": "no",
    "capacity": "2",
    "fee": "yes",
    "name": "Orbitur Montargil",
    "network": "none",
    "opening_hours": "24/7",
    "operator": "Orbitur",
    "parking:fee": "no",
    "socket:type2": "2",
    "socket:type2:current": "32",
    "socket:type2:output": "7.4kW",
    "socket:type2:voltage": "230"
  }
},
{
  "type": "node",
  "id": 8280600899,
  "lat": 38.8304666,
  "lon": -9.4038275,
  "tags": {
    "access": "customers",
    "addr:country": "PT",
    "amenity": "charging_station",
    "authentication:membership_card": "yes",
    "authentication:none": "no",
    "capacity": "1",
    "email": "mobilidade-eletrica@edp.pt",
    "fee": "yes",
    "motorcar": "yes",
    "name": "SNT-00018 - Vila Galé Resort",
    "network": "Mobi.E",
    "opening_hours": "24/7",
    "operator": "EDP Comercial",
    "parking:fee": "no",
    "phone": "+351 800 222 222",
    "ref": "SNT-00018",
    "socket:type2": "1",
    "socket:type2:current": "32",
    "socket:type2:output": "7.4kW",
    "socket:type2:voltage": "230",
    "website": "https://www.mobie.pt/"
  }
},
{
  "type": "node",
  "id": 8280604422,
  "lat": 38.8289809,
  "lon": -9.4008878,
  "tags": {
    "access": "customers",
    "addr:country": "PT",
    "amenity": "charging_station",
    "authentication:membership_card": "yes",
    "authentication:none": "no",
    "capacity": "1",
    "email": "mobilidade-eletrica@edp.pt",
    "fee": "yes",
    "motorcar": "yes",
    "name": "SNT-00017 - Vila Galé Resort",
    "network": "Mobi.E",
    "opening_hours": "24/7",
    "operator": "EDP Comercial",
    "parking:fee": "no",
    "phone": "+351 800 222 222",
    "ref": "SNT-00017",
    "socket:type2": "1",
    "socket:type2:current": "32",
    "socket:type2:output": "7.4kW",
    "socket:type2:voltage": "230",
    "website": "https://www.mobie.pt/"
  }
},
{
  "type": "node",
  "id": 8280612258,
  "lat": 38.9600793,
  "lon": -9.4176757,
  "tags": {
    "access": "customers",
    "addr:country": "PT",
    "amenity": "charging_station",
    "authentication:membership_card": "yes",
    "authentication:none": "no",
    "capacity": "2",
    "email": "mobilidade-eletrica@edp.pt",
    "fee": "yes",
    "motorcar": "yes",
    "name": "MFR-00005/6 - Hotel Vila Galé Ericeira",
    "network": "Mobi.E",
    "opening_hours": "24/7",
    "operator": "EDP Comercial",
    "parking:fee": "no",
    "phone": "+351 800 222 222",
    "ref": "MFR-00005;MFR-00006",
    "socket:type2": "2",
    "socket:type2:current": "32",
    "socket:type2:output": "7.4kW",
    "socket:type2:voltage": "230",
    "website": "https://www.mobie.pt/"
  }
},
{
  "type": "node",
  "id": 8280641738,
  "lat": 38.7038901,
  "lon": -9.3966539,
  "tags": {
    "access": "customers",
    "addr:country": "PT",
    "amenity": "charging_station",
    "authentication:membership_card": "yes",
    "authentication:none": "no",
    "capacity": "2",
    "fee": "yes",
    "motorcar": "yes",
    "name": "CSC-00040/41 - Hotel Vila Galé Estoril",
    "network": "Mobi.E",
    "opening_hours": "24/7",
    "operator": "EDP Comercial",
    "parking:fee": "no",
    "ref": "CSC-00040;CSC-00041",
    "socket:type2": "2",
    "socket:type2:current": "32",
    "socket:type2:output": "7.4kW",
    "socket:type2:voltage": "230",
    "website": "https://www.mobie.pt/"
  }
},
{
  "type": "node",
  "id": 8280680847,
  "lat": 39.2223693,
  "lon": -7.6868798,
  "tags": {
    "access": "customers",
    "addr:country": "PT",
    "amenity": "charging_station",
    "authentication:membership_card": "yes",
    "authentication:none": "no",
    "capacity": "2",
    "email": "mobilidade-eletrica@edp.pt",
    "fee": "yes",
    "motorcar": "yes",
    "name": "ALT-00002/3 - Hotel Vila Galé Alter Real",
    "network": "Mobi.E",
    "opening_hours": "24/7",
    "operator": "EDP Comercial",
    "parking:fee": "no",
    "phone": "+351 800 222 222",
    "ref": "ALT-00002;ALT-00003",
    "socket:type2": "2",
    "socket:type2:current": "32",
    "socket:type2:output": "7.4kW",
    "socket:type2:voltage": "230",
    "website": "https://www.mobie.pt/"
  }
},
{
  "type": "node",
  "id": 8280816343,
  "lat": 39.3061887,
  "lon": -7.6481091,
  "tags": {
    "access": "customers",
    "addr:country": "PT",
    "amenity": "charging_station",
    "authentication:membership_card": "yes",
    "authentication:none": "no",
    "capacity": "2",
    "email": "mobilidade-eletrica@edp.pt",
    "fee": "yes",
    "motorcar": "yes",
    "name": "CRT-00002/3 - Mosteiro da Flor da Rosa",
    "network": "Mobi.E",
    "opening_hours": "24/7",
    "operator": "EDP Comercial",
    "parking:fee": "no",
    "phone": "+351 800 222 222",
    "ref": "CRT-00002;CRT-00003",
    "socket:type2": "2",
    "socket:type2:current": "32",
    "socket:type2:output": "7.4kW",
    "socket:type2:voltage": "230",
    "website": "https://www.mobie.pt/"
  }
},
{
  "type": "node",
  "id": 8283855382,
  "lat": 39.6298828,
  "lon": -8.6687279,
  "tags": {
    "access": "customers",
    "addr:country": "PT",
    "amenity": "charging_station",
    "capacity": "2",
    "name": "Consolata Hotel",
    "network": "none",
    "operator": "Consolata Hotel",
    "socket:type2": "2",
    "socket:type2:current": "16",
    "socket:type2:output": "3.7kW",
    "socket:type2:voltage": "230"
  }
},
{
  "type": "node",
  "id": 8284080281,
  "lat": 38.8174658,
  "lon": -9.4756074,
  "tags": {
    "access": "customers",
    "addr:country": "PT",
    "amenity": "charging_station",
    "capacity": "1",
    "name": "Hotel Arribas",
    "network": "none",
    "operator": "Hotel Arribas",
    "socket:type2": "1",
    "socket:type2:current": "32",
    "socket:type2:output": "7.4kW",
    "socket:type2:voltage": "230"
  }
},
{
  "type": "node",
  "id": 8284894195,
  "lat": 38.6963370,
  "lon": -9.2899396,
  "tags": {
    "access": "customers",
    "addr:country": "PT",
    "amenity": "charging_station",
    "authentication:membership_card": "yes",
    "authentication:none": "no",
    "capacity": "2",
    "email": "mobilidade-eletrica@edp.pt",
    "fee": "yes",
    "motorcar": "yes",
    "name": "OER-00015/16",
    "network": "Mobi.E",
    "opening_hours": "24/7",
    "operator": "EDP Comercial",
    "parking:fee": "no",
    "phone": "+351 800 222 222",
    "ref": "OER-00015;OER-00016",
    "socket:type2": "2",
    "socket:type2:current": "32",
    "socket:type2:output": "7.4kW",
    "socket:type2:voltage": "230",
    "website": "https://www.mobie.pt/"
  }
},
{
  "type": "node",
  "id": 8284949049,
  "lat": 38.6926311,
  "lon": -9.3144053,
  "tags": {
    "access": "private",
    "addr:country": "PT",
    "amenity": "charging_station",
    "capacity": "1",
    "name": "Palácio do Marquês de Pombal",
    "network": "none",
    "operator": "Palácio do Marquês de Pombal",
    "socket:type2": "1",
    "socket:type2:current": "32",
    "socket:type2:output": "7.4kW",
    "socket:type2:voltage": "230"
  }
},
{
  "type": "node",
  "id": 8284973352,
  "lat": 39.7685039,
  "lon": -8.7711507,
  "tags": {
    "access": "customers",
    "addr:country": "PT",
    "amenity": "charging_station",
    "authentication:membership_card": "yes",
    "authentication:none": "no",
    "capacity": "2",
    "email": "mobilidade.electricacrc@galp.com",
    "fee": "yes",
    "motorcar": "yes",
    "name": "LRA-00015",
    "network": "Mobi.E",
    "opening_hours": "24/7",
    "operator": "Galp Power",
    "parking:fee": "no",
    "phone": "+351 800 249 249",
    "ref": "LRA-00015",
    "socket:type2": "2",
    "socket:type2:current": "32",
    "socket:type2:output": "7.4kW",
    "socket:type2:voltage": "230",
    "website": "https://www.mobie.pt/"
  }
},
{
  "type": "node",
  "id": 8284990430,
  "lat": 39.7413607,
  "lon": -8.8041241,
  "tags": {
    "access": "customers",
    "addr:country": "PT",
    "amenity": "charging_station",
    "capacity": "2",
    "name": "Porta 20 Guesthouse",
    "network": "none",
    "operator": "Porta 20 Guesthouse",
    "socket:type2": "2",
    "socket:type2:current": "32",
    "socket:type2:output": "7.4kW",
    "socket:type2:voltage": "230"
  }
},
{
  "type": "node",
  "id": 8285064956,
  "lat": 40.1273139,
  "lon": -7.4786130,
  "tags": {
    "access": "customers",
    "addr:country": "PT",
    "amenity": "charging_station",
    "capacity": "1",
    "name": "Hotel Príncipe da Beira",
    "network": "none",
    "operator": "Hotel Príncipe da Beira",
    "socket:type2": "1",
    "socket:type2:current": "32",
    "socket:type2:output": "7.4kW",
    "socket:type2:voltage": "230"
  }
},
{
  "type": "node",
  "id": 8285084455,
  "lat": 40.2478361,
  "lon": -8.4426981,
  "tags": {
    "access": "customers",
    "addr:country": "PT",
    "amenity": "charging_station",
    "capacity": "3",
    "name": "MCoutinho Jaguar",
    "network": "none",
    "operator": "MCoutinho",
    "socket:type2": "3",
    "socket:type2:current": "32",
    "socket:type2:output": "7.4kW",
    "socket:type2:voltage": "230"
  }
},
{
  "type": "node",
  "id": 8285094687,
  "lat": 40.2142811,
  "lon": -8.4359430,
  "tags": {
    "access": "customers",
    "addr:country": "PT",
    "amenity": "charging_station",
    "authentication:membership_card": "yes",
    "authentication:none": "no",
    "capacity": "2",
    "email": "mobilidade-eletrica@edp.pt",
    "fee": "yes",
    "motorcar": "yes",
    "name": "CBR-00034/35 - Hotel Vila Galé",
    "network": "Mobi.E",
    "opening_hours": "24/7",
    "operator": "EDP Comercial",
    "parking:fee": "no",
    "phone": "+351 800 222 222",
    "ref": "CBR-00034;CBR-00035",
    "socket:type2": "2",
    "socket:type2:current": "32",
    "socket:type2:output": "7.4kW",
    "socket:type2:voltage": "230",
    "website": "https://www.mobie.pt/"
  }
},
{
  "type": "node",
  "id": 8286060705,
  "lat": 40.3107239,
  "lon": -7.5505310,
  "tags": {
    "access": "customers",
    "addr:country": "PT",
    "amenity": "charging_station",
    "capacity": "1",
    "fee": "yes",
    "name": "Pousada da Juventude Penhas da Saúde",
    "network": "none",
    "operator": "Pousada da Juventude Penhas da Saúde",
    "socket:type2": "1",
    "socket:type2:current": "32",
    "socket:type2:output": "7.4kW",
    "socket:type2:voltage": "230"
  }
},
{
  "type": "node",
  "id": 8286113387,
  "lat": 40.2921908,
  "lon": -7.5332361,
  "tags": {
    "access": "customers",
    "addr:country": "PT",
    "amenity": "charging_station",
    "authentication:membership_card": "yes",
    "authentication:none": "no",
    "capacity": "2",
    "email": "mobilidade-eletrica@edp.pt",
    "fee": "yes",
    "motorcar": "yes",
    "name": "CVL-00003/4 - Pousada Serra da Estrela",
    "network": "Mobi.E",
    "opening_hours": "24/7",
    "operator": "EDP Comercial",
    "parking:fee": "no",
    "phone": "+351 800 222 222",
    "ref": "CVL-00003;CVL-00004",
    "socket:type2": "2",
    "socket:type2:current": "32",
    "socket:type2:output": "7.4kW",
    "socket:type2:voltage": "230",
    "website": "https://www.mobie.pt/"
  }
},
{
  "type": "node",
  "id": 8286115414,
  "lat": 40.3818652,
  "lon": -7.5458559,
  "tags": {
    "access": "customers",
    "addr:country": "PT",
    "amenity": "charging_station",
    "authentication:membership_card": "yes",
    "authentication:none": "no",
    "capacity": "2",
    "email": "mobilidade-eletrica@edp.pt",
    "fee": "yes",
    "motorcar": "yes",
    "name": "MTG-00002/3 - Vila Galé Serra da Estrela",
    "network": "Mobi.E",
    "opening_hours": "24/7",
    "operator": "EDP Comercial",
    "parking:fee": "no",
    "phone": "+351 800 222 222",
    "ref": "MTG-00002;MTG-00003",
    "socket:type2": "2",
    "socket:type2:current": "32",
    "socket:type2:output": "7.4kW",
    "socket:type2:voltage": "230",
    "website": "https://www.mobie.pt/"
  }
},
{
  "type": "node",
  "id": 8286252796,
  "lat": 40.6287471,
  "lon": -7.8715874,
  "tags": {
    "access": "customers",
    "addr:country": "PT",
    "amenity": "charging_station",
    "capacity": "2",
    "name": "Kia - Soveco",
    "network": "none",
    "operator": "Soveco",
    "socket:type2": "2",
    "socket:type2:current": "32",
    "socket:type2:output": "7.4kW",
    "socket:type2:voltage": "230"
  }
},
{
  "type": "node",
  "id": 8286294645,
  "lat": 40.6923634,
  "lon": -7.9156145,
  "tags": {
    "access": "customers",
    "addr:country": "PT",
    "amenity": "charging_station",
    "capacity": "2",
    "fee": "yes",
    "name": "Viseu Garden Hotel",
    "network": "none",
    "operator": "Viseu Garden Hotel",
    "socket:type2": "2",
    "socket:type2:current": "32",
    "socket:type2:output": "7.4kW",
    "socket:type2:voltage": "230"
  }
},
{
  "type": "node",
  "id": 8286296723,
  "lat": 40.5727128,
  "lon": -8.4392837,
  "tags": {
    "access": "customers",
    "addr:country": "PT",
    "amenity": "charging_station",
    "authentication:none": "yes",
    "capacity": "2",
    "fee": "no",
    "name": "Mercadona",
    "network": "none",
    "opening_hours": "09:00-21:30",
    "operator": "Mercadona",
    "parking:fee": "no",
    "socket:type2": "2",
    "socket:type2:current": "32",
    "socket:type2:output": "7.4kW",
    "socket:type2:voltage": "230"
  }
},
{
  "type": "node",
  "id": 8286314227,
  "lat": 40.7188411,
  "lon": -8.6991495,
  "tags": {
    "access": "customers",
    "addr:country": "PT",
    "amenity": "charging_station",
    "authentication:membership_card": "yes",
    "authentication:none": "no",
    "capacity": "2",
    "email": "mobilidade-eletrica@edp.pt",
    "fee": "yes",
    "motorcar": "yes",
    "name": "MRS-00002/3 - Pestana Pousada da Ria",
    "network": "Mobi.E",
    "opening_hours": "24/7",
    "operator": "EDP Comercial",
    "parking:fee": "no",
    "phone": "+351 800 222 222",
    "ref": "MRS-00002;MRS-00003",
    "socket:type2": "2",
    "socket:type2:current": "32",
    "socket:type2:output": "7.4kW",
    "socket:type2:voltage": "230",
    "website": "https://www.mobie.pt/"
  }
},
{
  "type": "node",
  "id": 8286394886,
  "lat": 40.6626748,
  "lon": -8.6134234,
  "tags": {
    "access": "customers",
    "addr:country": "PT",
    "amenity": "charging_station",
    "capacity": "2",
    "name": "Caetano Baviera BMW",
    "network": "none",
    "operator": "Caetano Baviera",
    "socket:type2": "2",
    "socket:type2:current": "32",
    "socket:type2:output": "7.4kW",
    "socket:type2:voltage": "230"
  }
},
{
  "type": "node",
  "id": 8287633901,
  "lat": 41.0876210,
  "lon": -8.2562202,
  "tags": {
    "access": "customers",
    "addr:country": "PT",
    "amenity": "charging_station",
    "capacity": "1",
    "name": "Intermarché",
    "network": "none",
    "opening_hours": "08:30-21:00",
    "operator": "Intermarché",
    "parking:fee": "no",
    "socket:type2": "1",
    "socket:type2:current": "32",
    "socket:type2:output": "7.4kW",
    "socket:type2:voltage": "230"
  }
},
{
  "type": "node",
  "id": 8287633994,
  "lat": 40.9220586,
  "lon": -8.5692863,
  "tags": {
    "access": "customers",
    "addr:country": "PT",
    "amenity": "charging_station",
    "capacity": "2",
    "name": "Citroen Lércio Pinto",
    "network": "none",
    "operator": "Citroen Lércio Pinto",
    "socket:type2": "2",
    "socket:type2:current": "32",
    "socket:type2:output": "7.4kW",
    "socket:type2:voltage": "230"
  }
},
{
  "type": "node",
  "id": 8289841756,
  "lat": 38.6968108,
  "lon": -9.4382950,
  "tags": {
    "access": "customers",
    "addr:country": "PT",
    "amenity": "charging_station",
    "authentication:membership_card": "yes",
    "authentication:none": "no",
    "capacity": "2",
    "email": "mobilidade-eletrica@edp.pt",
    "fee": "yes",
    "motorcar": "yes",
    "name": "CSC-00055/56 - Hotel Pestana Cascais",
    "network": "Mobi.E",
    "opening_hours": "24/7",
    "operator": "EDP Comercial",
    "parking:fee": "no",
    "phone": "+351 800 222 222",
    "ref": "CSC-00055;CSC-00056",
    "socket:type2": "2",
    "socket:type2:current": "32",
    "socket:type2:output": "7.4kW",
    "socket:type2:voltage": "230",
    "website": "https://www.mobie.pt/"
  }
},
{
  "type": "node",
  "id": 8289906081,
  "lat": 38.7365060,
  "lon": -9.3922076,
  "tags": {
    "access": "customers",
    "addr:country": "PT",
    "amenity": "charging_station",
    "authentication:membership_card": "yes",
    "authentication:none": "no",
    "capacity": "2",
    "email": "mobilidade.electricacrc@galp.com",
    "fee": "yes",
    "motorcar": "yes",
    "name": "CSC-00045 - Makro",
    "network": "Mobi.E",
    "opening_hours": "24/7",
    "operator": "Galp Power",
    "parking:fee": "no",
    "phone": "+351 800 249 249",
    "ref": "CSC-00045",
    "socket:type2": "2",
    "socket:type2:current": "32",
    "socket:type2:output": "7.4kW",
    "socket:type2:voltage": "230",
    "website": "https://www.mobie.pt/"
  }
},
{
  "type": "node",
  "id": 8298166022,
  "lat": 38.7401512,
  "lon": -9.2244722,
  "tags": {
    "access": "customers",
    "addr:country": "PT",
    "amenity": "charging_station",
    "authentication:membership_card": "yes",
    "authentication:none": "no",
    "capacity": "4",
    "email": "ajuda@powerdot.pt",
    "fee": "yes",
    "motorcar": "yes",
    "name": "AMD-00018/19/20/21",
    "network": "Mobi.E",
    "opening_hours": "24/7",
    "operator": "Powerdot",
    "parking:fee": "yes",
    "phone": "+351 800 180 292",
    "ref": "AMD-00018;AMD-00019;AMD-00020;AMD-00021",
    "socket:type2": "4",
    "socket:type2:current": "32",
    "socket:type2:output": "7.4kW",
    "socket:type2:voltage": "230",
    "website": "https://www.mobie.pt/"
  }
},
{
  "type": "node",
  "id": 8298192329,
  "lat": 38.8009741,
  "lon": -9.1428271,
  "tags": {
    "access": "customers",
    "addr:country": "PT",
    "amenity": "charging_station",
    "capacity": "1",
    "name": "LX Indoor Padel",
    "network": "none",
    "operator": "Bluecharge",
    "socket:type2": "1",
    "socket:type2:current": "20",
    "socket:type2:output": "4.6kW",
    "socket:type2:voltage": "230"
  }
},
{
  "type": "node",
  "id": 8301116880,
  "lat": 38.7005472,
  "lon": -9.1804491,
  "tags": {
    "access": "customers",
    "addr:country": "PT",
    "amenity": "charging_station",
    "authentication:membership_card": "yes",
    "authentication:none": "no",
    "capacity": "2",
    "email": "mobilidade-eletrica@edp.pt",
    "fee": "yes",
    "motorcar": "yes",
    "name": "LSB-00216/217 - Vila Galé Ópera",
    "network": "Mobi.E",
    "opening_hours": "24/7",
    "operator": "EDP Comercial",
    "parking:fee": "no",
    "phone": "+351 800 222 222",
    "ref": "LSB-00216;LSB-00217",
    "socket:type2": "2",
    "socket:type2:current": "32",
    "socket:type2:output": "7.4kW",
    "socket:type2:voltage": "230",
    "website": "https://www.mobie.pt/"
  }
},
{
  "type": "node",
  "id": 8301177097,
  "lat": 38.7208317,
  "lon": -9.1593998,
  "tags": {
    "access": "customers",
    "addr:country": "PT",
    "amenity": "charging_station",
    "authentication:membership_card": "yes",
    "authentication:none": "no",
    "capacity": "4",
    "email": "ajuda@powerdot.pt",
    "fee": "yes",
    "motorcar": "yes",
    "name": "LSB-00210/211",
    "network": "Mobi.E",
    "opening_hours": "24/7",
    "operator": "Powerdot",
    "parking:fee": "yes",
    "phone": "+351 800 180 292",
    "ref": "LSB-00210;LSB-00211",
    "socket:type2": "4",
    "socket:type2:current": "32",
    "socket:type2:output": "7.4kW",
    "socket:type2:voltage": "230",
    "website": "https://www.mobie.pt/"
  }
},
{
  "type": "node",
  "id": 8303971542,
  "lat": 38.7388795,
  "lon": -9.1660279,
  "tags": {
    "access": "customers",
    "addr:country": "PT",
    "amenity": "charging_station",
    "authentication:membership_card": "yes",
    "authentication:none": "no",
    "capacity": "2",
    "fee": "yes",
    "motorcar": "yes",
    "name": "LSB-00269 - Hotel Corinthia",
    "network": "Mobi.E",
    "opening_hours": "24/7",
    "operator": "Galp Power",
    "parking:fee": "no",
    "ref": "LSB-00269",
    "socket:type2": "2",
    "socket:type2:current": "32",
    "socket:type2:output": "7.4kW",
    "socket:type2:voltage": "230",
    "website": "https://www.mobie.pt/"
  }
},
{
  "type": "node",
  "id": 8304368509,
  "lat": 38.7827337,
  "lon": -9.0984499,
  "tags": {
    "access": "customers",
    "addr:country": "PT",
    "amenity": "charging_station",
    "capacity": "2",
    "name": "Caetano Baviera BMW",
    "network": "none",
    "operator": "Caetano Baviera",
    "socket:type2": "2",
    "socket:type2:current": "32",
    "socket:type2:output": "7.4kW",
    "socket:type2:voltage": "230"
  }
},
{
  "type": "node",
  "id": 8307399419,
  "lat": 41.1536177,
  "lon": -7.7847736,
  "tags": {
    "access": "customers",
    "addr:country": "PT",
    "amenity": "charging_station",
    "authentication:membership_card": "yes",
    "authentication:none": "no",
    "capacity": "2",
    "email": "mobilidade-eletrica@edp.pt",
    "fee": "yes",
    "motorcar": "yes",
    "name": "LMG-00005/6",
    "network": "Mobi.E",
    "opening_hours": "24/7",
    "operator": "EDP Comercial",
    "parking:fee": "no",
    "phone": "+351 800 222 222",
    "ref": "LMG-00005;LMG-00006",
    "socket:type2": "2",
    "socket:type2:current": "32",
    "socket:type2:output": "7.4kW",
    "socket:type2:voltage": "230",
    "website": "https://www.mobie.pt/"
  }
},
{
  "type": "node",
  "id": 8307406367,
  "lat": 41.2564100,
  "lon": -7.7692759,
  "tags": {
    "access": "customers",
    "addr:country": "PT",
    "amenity": "charging_station",
    "capacity": "2",
    "name": "Magnificat Wine Boutique Hotel",
    "network": "none",
    "operator": "Magnificat Wine Boutique Hotel",
    "socket:type2": "2",
    "socket:type2:current": "32",
    "socket:type2:output": "7.4kW",
    "socket:type2:voltage": "230"
  }
},
{
  "type": "node",
  "id": 8308340893,
  "lat": 41.6591484,
  "lon": -8.2705459,
  "tags": {
    "access": "customers",
    "addr:country": "PT",
    "amenity": "charging_station",
    "authentication:membership_card": "yes",
    "authentication:none": "no",
    "capacity": "2",
    "email": "mobilidade-eletrica@edp.pt",
    "fee": "yes",
    "motorcar": "yes",
    "name": "AMR-00002/3 - Pousada Mosteiro Amares",
    "network": "Mobi.E",
    "opening_hours": "24/7",
    "operator": "EDP Comercial",
    "parking:fee": "no",
    "phone": "+351 800 222 222",
    "ref": "AMR-00002;AMR-00003",
    "socket:type2": "2",
    "socket:type2:current": "32",
    "socket:type2:output": "7.4kW",
    "socket:type2:voltage": "230",
    "website": "https://www.mobie.pt/"
  }
},
{
  "type": "node",
  "id": 8308341661,
  "lat": 41.6477562,
  "lon": -8.1849378,
  "tags": {
    "access": "customers",
    "addr:country": "PT",
    "amenity": "charging_station",
    "authentication:membership_card": "yes",
    "authentication:none": "no",
    "capacity": "2",
    "email": "mobilidade-eletrica@edp.pt",
    "fee": "yes",
    "motorcar": "yes",
    "name": "TBR-00002/3 - Pousada Caniçada-Gerês",
    "network": "Mobi.E",
    "opening_hours": "24/7",
    "operator": "EDP Comercial",
    "parking:fee": "no",
    "phone": "+351 800 222 222",
    "ref": "TBR-00002;TBR-00003",
    "socket:type2": "2",
    "socket:type2:current": "32",
    "socket:type2:output": "7.4kW",
    "socket:type2:voltage": "230",
    "website": "https://www.mobie.pt/"
  }
},
{
  "type": "node",
  "id": 8308352622,
  "lat": 41.7035218,
  "lon": -8.8357826,
  "tags": {
    "access": "customers",
    "addr:country": "PT",
    "amenity": "charging_station",
    "authentication:membership_card": "yes",
    "authentication:none": "no",
    "capacity": "2",
    "email": "mobilidade-eletrica@edp.pt",
    "fee": "yes",
    "motorcar": "yes",
    "name": "VCT-00012/13 - Pousada Viana Do Castelo",
    "network": "Mobi.E",
    "opening_hours": "24/7",
    "operator": "EDP Comercial",
    "parking:fee": "no",
    "phone": "+351 800 222 222",
    "ref": "VCT-00012;VCT-00013",
    "socket:type2": "2",
    "socket:type2:current": "32",
    "socket:type2:output": "7.4kW",
    "socket:type2:voltage": "230",
    "website": "https://www.mobie.pt/"
  }
},
{
  "type": "node",
  "id": 8308386371,
  "lat": 41.4524923,
  "lon": -8.1883442,
  "tags": {
    "access": "customers",
    "addr:country": "PT",
    "amenity": "charging_station",
    "capacity": "1",
    "fee": "no",
    "name": "E.Leclerc - Fafe",
    "network": "none",
    "opening_hours": "Mo-Su 08:30-21:30",
    "operator": "E.Leclerc",
    "socket:type2": "1",
    "socket:type2:current": "32",
    "socket:type2:output": "7.4kW",
    "socket:type2:voltage": "230"
  }
},
{
  "type": "node",
  "id": 8308407994,
  "lat": 41.5489670,
  "lon": -8.4235465,
  "tags": {
    "access": "customers",
    "addr:country": "PT",
    "amenity": "charging_station",
    "authentication:membership_card": "yes",
    "authentication:none": "no",
    "capacity": "2",
    "email": "mobilidade-eletrica@edp.pt",
    "fee": "yes",
    "motorcar": "yes",
    "name": "BRG-00036/37 - Hotel Vila Galé Braga",
    "network": "Mobi.E",
    "opening_hours": "24/7",
    "operator": "EDP Comercial",
    "parking:fee": "no",
    "phone": "+351 800 222 222",
    "ref": "BRG-00036;BRG-00037",
    "socket:type2": "2",
    "socket:type2:current": "32",
    "socket:type2:output": "7.4kW",
    "socket:type2:voltage": "230",
    "website": "https://www.mobie.pt/"
  }
},
{
  "type": "node",
  "id": 8308420097,
  "lat": 41.1746748,
  "lon": -8.1512010,
  "tags": {
    "access": "customers",
    "addr:country": "PT",
    "amenity": "charging_station",
    "capacity": "1",
    "name": "Intermarché Marco de Canavezes",
    "network": "none",
    "opening_hours": "Mo-Su 09:00-21:00",
    "operator": "Intermarché Marco de Canavezes",
    "socket:type2": "1",
    "socket:type2:current": "32",
    "socket:type2:output": "7.4kW",
    "socket:type2:voltage": "230"
  }
},
{
  "type": "node",
  "id": 8308434317,
  "lat": 41.3961938,
  "lon": -8.7656736,
  "tags": {
    "access": "customers",
    "addr:country": "PT",
    "amenity": "charging_station",
    "capacity": "1",
    "name": "Hotel Varzinn",
    "network": "none",
    "operator": "Hotel Varzinn",
    "socket:type2": "1",
    "socket:type2:current": "32",
    "socket:type2:output": "7.4kW",
    "socket:type2:voltage": "230"
  }
},
{
  "type": "node",
  "id": 8308453232,
  "lat": 41.1427349,
  "lon": -8.5746816,
  "tags": {
    "access": "customers",
    "addr:country": "PT",
    "amenity": "charging_station",
    "authentication:membership_card": "yes",
    "authentication:none": "no",
    "capacity": "2",
    "email": "mobilidade-eletrica@edp.pt",
    "fee": "yes",
    "motorcar": "yes",
    "name": "PRT-00028/29 - Hotel Pestana Palácio do Freixo",
    "network": "Mobi.E",
    "opening_hours": "24/7",
    "operator": "EDP Comercial",
    "parking:fee": "no",
    "phone": "+351 800 222 222",
    "ref": "PRT-00028;PRT-00029",
    "socket:type2": "2",
    "socket:type2:current": "32",
    "socket:type2:output": "7.4kW",
    "socket:type2:voltage": "230",
    "website": "https://www.mobie.pt/"
  }
},
{
  "type": "node",
  "id": 8308550593,
  "lat": 41.1510432,
  "lon": -8.5990843,
  "tags": {
    "access": "customers",
    "addr:country": "PT",
    "amenity": "charging_station",
    "authentication:membership_card": "yes",
    "authentication:none": "no",
    "capacity": "2",
    "email": "mobilidade-eletrica@edp.pt",
    "fee": "yes",
    "motorcar": "yes",
    "name": "PRT-00031/32 - Hotel Vila Galé Porto",
    "network": "Mobi.E",
    "opening_hours": "24/7",
    "operator": "EDP Comercial",
    "parking:fee": "no",
    "phone": "+351 800 222 222",
    "ref": "PRT-00031;PRT-00032",
    "socket:type2": "2",
    "socket:type2:current": "32",
    "socket:type2:output": "7.4kW",
    "socket:type2:voltage": "230",
    "website": "https://www.mobie.pt/"
  }
},
{
  "type": "node",
  "id": 8308568865,
  "lat": 41.1456621,
  "lon": -8.6298650,
  "tags": {
    "access": "customers",
    "addr:country": "PT",
    "amenity": "charging_station",
    "authentication:membership_card": "yes",
    "authentication:none": "no",
    "capacity": "2",
    "email": "mobilidade-eletrica@edp.pt",
    "fee": "yes",
    "motorcar": "yes",
    "name": "PRT-00033/34 - Hotel Vila Galé Ribeira",
    "network": "Mobi.E",
    "opening_hours": "24/7",
    "operator": "EDP Comercial",
    "parking:fee": "no",
    "phone": "+351 800 222 222",
    "ref": "PRT-00033;PRT-00034",
    "socket:type2": "2",
    "socket:type2:current": "32",
    "socket:type2:output": "7.4kW",
    "socket:type2:voltage": "230",
    "website": "https://www.mobie.pt/"
  }
},
{
  "type": "node",
  "id": 8313041198,
  "lat": 41.4432974,
  "lon": -8.2768022,
  "tags": {
    "access": "customers",
    "addr:country": "PT",
    "amenity": "charging_station",
    "authentication:membership_card": "yes",
    "authentication:none": "no",
    "capacity": "2",
    "fee": "yes",
    "motorcar": "yes",
    "name": "GMR-00010/11 - Pousada Mosteiro de Guimarães",
    "network": "Mobi.E",
    "opening_hours": "24/7",
    "operator": "EDP Comercial",
    "parking:fee": "no",
    "ref": "GMR-00010;GMR-00011",
    "socket:type2": "2",
    "socket:type2:current": "32",
    "socket:type2:output": "7.4kW",
    "socket:type2:voltage": "230",
    "website": "https://www.mobie.pt/"
  }
},
{
  "type": "node",
  "id": 8334414021,
  "lat": 41.1204738,
  "lon": -8.6257589,
  "tags": {
    "access": "customers",
    "addr:country": "PT",
    "amenity": "charging_station",
    "authentication:membership_card": "yes",
    "authentication:none": "no",
    "capacity": "2",
    "email": "mobilidade.electricacrc@galp.com",
    "fee": "yes",
    "motorcar": "yes",
    "name": "VNG-00036 - Makro",
    "network": "Mobi.E",
    "opening_hours": "Mo-Su 09:00-20:00",
    "operator": "Galp Power",
    "parking:fee": "no",
    "phone": "+351 800 249 249",
    "ref": "VNG-00036",
    "socket:type2": "2",
    "socket:type2:current": "32",
    "socket:type2:output": "7.4kW",
    "socket:type2:voltage": "230",
    "website": "https://www.mobie.pt/"
  }
},
{
  "type": "node",
  "id": 8392042536,
  "lat": 38.7327636,
  "lon": -9.1481003,
  "tags": {
    "access": "private",
    "addr:city": "Lisboa",
    "addr:country": "PT",
    "addr:street": "Rua Pedro Nunes",
    "amenity": "charging_station",
    "authentication:membership_card": "yes",
    "authentication:none": "no",
    "capacity": "2",
    "fee": "yes",
    "motorcar": "yes",
    "name": "LSB-1526/27 - Parkio",
    "network": "Mobi.E",
    "opening_hours": "24/7",
    "operator": "KLC",
    "parking:fee": "no",
    "ref": "LSB-01526;LSB-01527",
    "socket:chademo": "1",
    "socket:chademo:current": "120",
    "socket:chademo:output": "50kW",
    "socket:chademo:voltage": "500",
    "socket:type2": "1",
    "socket:type2:current": "32",
    "socket:type2:output": "7.4kW",
    "socket:type2:voltage": "230",
    "socket:type2_combo": "1",
    "socket:type2_combo:current": "125",
    "socket:type2_combo:output": "50kW",
    "socket:type2_combo:voltage": "500"
  }
},
{
  "type": "node",
  "id": 8398390435,
  "lat": 37.0294069,
  "lon": -7.9476079,
  "tags": {
    "access": "customers",
    "addr:country": "PT",
    "amenity": "charging_station",
    "authentication:membership_card": "yes",
    "authentication:none": "no",
    "capacity": "2",
    "fee": "yes",
    "motorcar": "yes",
    "name": "FAR-00018 - Caetano Baviera",
    "network": "Mobi.E",
    "operator": "Prio.E",
    "parking:fee": "no",
    "ref": "FAR-00018",
    "socket:type2": "2",
    "socket:type2:current": "32",
    "socket:type2:output": "7.4kW",
    "socket:type2:voltage": "230",
    "website": "https://www.mobie.pt/"
  }
},
{
  "type": "node",
  "id": 8406002021,
  "lat": 38.6913687,
  "lon": -9.4228792,
  "tags": {
    "access": "customers",
    "addr:country": "PT",
    "amenity": "charging_station",
    "authentication:membership_card": "yes",
    "authentication:none": "no",
    "capacity": "2",
    "fee": "yes",
    "motorcar": "yes",
    "name": "CSC-00043/44 - Vila Galé",
    "network": "Mobi.E",
    "opening_hours": "24/7",
    "operator": "EDP Comercial",
    "parking:fee": "no",
    "ref": "CSC-00043;CSC-00044",
    "socket:type2": "2",
    "socket:type2:current": "32",
    "socket:type2:output": "7.4kW",
    "socket:type2:voltage": "230",
    "website": "https://www.mobie.pt/"
  }
},
{
  "type": "node",
  "id": 8406046106,
  "lat": 38.7231441,
  "lon": -9.1509602,
  "tags": {
    "access": "customers",
    "addr:country": "PT",
    "amenity": "charging_station",
    "authentication:membership_card": "yes",
    "authentication:none": "no",
    "capacity": "2",
    "fee": "yes",
    "motorcar": "yes",
    "name": "LSB-00159/160 - Hotel Pestana Vintage Lisboa",
    "network": "Mobi.E",
    "opening_hours": "24/7",
    "operator": "EDP Comercial",
    "parking:fee": "no",
    "ref": "LSB-00159;LSB-00160",
    "socket:type2": "2",
    "socket:type2:current": "32",
    "socket:type2:output": "7.4kW",
    "socket:type2:voltage": "230",
    "website": "https://www.mobie.pt/"
  }
},
{
  "type": "node",
  "id": 8406077283,
  "lat": 38.7628809,
  "lon": -9.3670745,
  "tags": {
    "access": "customers",
    "addr:country": "PT",
    "amenity": "charging_station",
    "authentication:membership_card": "yes",
    "authentication:none": "no",
    "capacity": "2",
    "fee": "yes",
    "motorcar": "yes",
    "name": "SNT-00023/27 - Pestana Sintra",
    "network": "Mobi.E",
    "opening_hours": "24/7",
    "operator": "EDP Comercial",
    "parking:fee": "no",
    "ref": "SNT-00023;SNT-00027",
    "socket:type2": "2",
    "socket:type2:current": "32",
    "socket:type2:output": "7.4kW",
    "socket:type2:voltage": "230",
    "website": "https://www.mobie.pt/"
  }
},
{
  "type": "node",
  "id": 8406091939,
  "lat": 40.6546162,
  "lon": -7.9123959,
  "tags": {
    "access": "customers",
    "addr:country": "PT",
    "amenity": "charging_station",
    "authentication:membership_card": "yes",
    "authentication:none": "no",
    "capacity": "2",
    "fee": "yes",
    "motorcar": "yes",
    "name": "VIS-00004/5 - Pousada Viseu",
    "network": "Mobi.E",
    "opening_hours": "24/7",
    "operator": "EDP Comercial",
    "parking:fee": "no",
    "ref": "VIS-00004;VIS-00005",
    "socket:type2": "2",
    "socket:type2:current": "32",
    "socket:type2:output": "7.4kW",
    "socket:type2:voltage": "230",
    "website": "https://www.mobie.pt/"
  }
},
{
  "type": "node",
  "id": 8410085564,
  "lat": 38.7384273,
  "lon": -9.1373822,
  "tags": {
    "access": "private",
    "addr:country": "PT",
    "amenity": "charging_station",
    "authentication:membership_card": "yes",
    "authentication:none": "no",
    "capacity": "3",
    "fee": "yes",
    "motorcar": "yes",
    "name": "INE-00001/2/3",
    "network": "Mobi.E",
    "opening_hours": "24/7",
    "operator": "KLC",
    "parking:fee": "no",
    "ref": "INE-00001;INE-00002;INE-00003",
    "socket:type2": "3",
    "socket:type2:current": "32",
    "socket:type2:output": "7.4kW",
    "socket:type2:voltage": "230",
    "website": "https://www.mobie.pt/"
  }
},
{
  "type": "node",
  "id": 8410092764,
  "lat": 38.7222961,
  "lon": -9.1311119,
  "tags": {
    "access": "private",
    "addr:country": "PT",
    "amenity": "charging_station",
    "authentication:membership_card": "yes",
    "authentication:none": "no",
    "capacity": "2",
    "fee": "yes",
    "motorcar": "yes",
    "name": "IGF-00001",
    "network": "Mobi.E",
    "opening_hours": "24/7",
    "operator": "KLC",
    "parking:fee": "no",
    "ref": "IGF-00001",
    "socket:type2": "2",
    "socket:type2:current": "32",
    "socket:type2:output": "7.4kW",
    "socket:type2:voltage": "230",
    "website": "https://www.mobie.pt/"
  }
},
{
  "type": "node",
  "id": 8435052810,
  "lat": 38.7810318,
  "lon": -9.3532571,
  "tags": {
    "access": "customers",
    "addr:country": "PT",
    "amenity": "charging_station",
    "authentication:membership_card": "yes",
    "authentication:none": "no",
    "capacity": "4",
    "fee": "yes",
    "motorcar": "yes",
    "name": "SNT-00029/35 - Hospital CUF",
    "network": "Mobi.E",
    "opening_hours": "24/7",
    "operator": "Galp Power",
    "parking:fee": "no",
    "ref": "SNT-00029;SNT-00035",
    "socket:type2": "4",
    "socket:type2:current": "32",
    "socket:type2:output": "7.4kW",
    "socket:type2:voltage": "230",
    "website": "https://www.mobie.pt/"
  }
},
{
  "type": "node",
  "id": 8441004459,
  "lat": 37.7148428,
  "lon": -25.4690606,
  "tags": {
    "access": "customers",
    "addr:country": "PT",
    "amenity": "charging_station",
    "authentication:membership_card": "yes",
    "authentication:none": "no",
    "capacity": "2",
    "fee": "yes",
    "motorcar": "yes",
    "name": "VFC-00003/4 - Pestana Bahia Praia",
    "network": "Mobi.E",
    "opening_hours": "24/7",
    "operator": "EDP Comercial",
    "parking:fee": "no",
    "ref": "VFC-00003;VFC-00004",
    "socket:type2": "2",
    "socket:type2:current": "32",
    "socket:type2:output": "7.4kW",
    "socket:type2:voltage": "230",
    "website": "https://www.mobie.pt/"
  }
},
{
  "type": "node",
  "id": 8460493196,
  "lat": 38.7382452,
  "lon": -9.2068024,
  "tags": {
    "access": "private",
    "addr:country": "PT",
    "amenity": "charging_station",
    "authentication:membership_card": "yes",
    "authentication:none": "no",
    "capacity": "3",
    "fee": "yes",
    "motorcar": "yes",
    "name": "AMD-00004/5/6 - APA",
    "network": "Mobi.E",
    "opening_hours": "24/7",
    "operator": "Prio.E",
    "parking:fee": "no",
    "ref": "AMD-00004;AMD-00005;AMD-00006",
    "socket:type2": "3",
    "socket:type2:current": "32",
    "socket:type2:output": "7.2kW",
    "socket:type2:voltage": "230",
    "website": "https://www.mobie.pt/"
  }
},
{
  "type": "node",
  "id": 8460926799,
  "lat": 38.7342281,
  "lon": -9.2243353,
  "tags": {
    "access": "private",
    "addr:country": "PT",
    "amenity": "charging_station",
    "authentication:membership_card": "yes",
    "authentication:none": "no",
    "capacity": "6",
    "fee": "yes",
    "motorcar": "yes",
    "name": "AMD-00008/9/10 - Alfrapark",
    "network": "Mobi.E",
    "opening_hours": "24/7",
    "operator": "Mobiletric",
    "parking:fee": "no",
    "ref": "AMD-00008;AMD-00009;AMD-00010",
    "socket:type2": "6",
    "socket:type2:current": "32",
    "socket:type2:output": "7.4kW",
    "socket:type2:voltage": "230",
    "website": "https://www.mobie.pt/"
  }
},
{
  "type": "node",
  "id": 8460993134,
  "lat": 38.7371850,
  "lon": -9.2158820,
  "tags": {
    "access": "private",
    "addr:country": "PT",
    "amenity": "charging_station",
    "authentication:membership_card": "yes",
    "authentication:none": "no",
    "capacity": "1",
    "fee": "yes",
    "motorcar": "yes",
    "name": "AMD-00007",
    "network": "Mobi.E",
    "opening_hours": "24/7",
    "operator": "Prio.E",
    "parking:fee": "no",
    "ref": "AMD-00007",
    "socket:type2": "2",
    "socket:type2:current": "32",
    "socket:type2:output": "7.2kW",
    "socket:type2:voltage": "230",
    "website": "https://www.mobie.pt/"
  }
},
{
  "type": "node",
  "id": 8461027279,
  "lat": 40.6538440,
  "lon": -8.7031770,
  "tags": {
    "access": "private",
    "addr:country": "PT",
    "amenity": "charging_station",
    "authentication:membership_card": "yes",
    "authentication:none": "no",
    "capacity": "2",
    "fee": "yes",
    "motorcar": "yes",
    "name": "AVR-00017 - Prio.E",
    "network": "Mobi.E",
    "opening_hours": "24/7",
    "operator": "Prio.E",
    "parking:fee": "no",
    "ref": "AVR-00017",
    "socket:type2": "2",
    "socket:type2:current": "16",
    "socket:type2:output": "3.7kW",
    "socket:type2:voltage": "230",
    "website": "https://www.mobie.pt/"
  }
},
{
  "type": "node",
  "id": 8461358776,
  "lat": 40.1926759,
  "lon": -8.4064813,
  "tags": {
    "access": "private",
    "addr:country": "PT",
    "amenity": "charging_station",
    "authentication:membership_card": "yes",
    "authentication:none": "no",
    "capacity": "1",
    "fee": "yes",
    "motorcar": "yes",
    "name": "CBR-00022",
    "network": "Mobi.E",
    "opening_hours": "24/7",
    "operator": "Prio.E",
    "parking:fee": "no",
    "ref": "CBR-00022",
    "socket:type2": "1",
    "socket:type2:current": "32",
    "socket:type2:output": "7.2kW",
    "socket:type2:voltage": "230",
    "website": "https://www.mobie.pt/"
  }
},
{
  "type": "node",
  "id": 8461365462,
  "lat": 40.2088490,
  "lon": -8.4086470,
  "tags": {
    "access": "private",
    "addr:country": "PT",
    "amenity": "charging_station",
    "authentication:membership_card": "yes",
    "authentication:none": "no",
    "capacity": "2",
    "fee": "yes",
    "motorcar": "yes",
    "name": "CBR-00023/24",
    "network": "Mobi.E",
    "opening_hours": "24/7",
    "operator": "Prio.E",
    "parking:fee": "no",
    "ref": "CBR-00023;CBR-00024",
    "socket:type2": "2",
    "socket:type2:current": "32",
    "socket:type2:output": "7.2kW",
    "socket:type2:voltage": "230",
    "website": "https://www.mobie.pt/"
  }
},
{
  "type": "node",
  "id": 8461610962,
  "lat": 38.5511834,
  "lon": -7.9092181,
  "tags": {
    "access": "private",
    "addr:country": "PT",
    "amenity": "charging_station",
    "authentication:membership_card": "yes",
    "authentication:none": "no",
    "capacity": "1",
    "fee": "yes",
    "motorcar": "yes",
    "name": "EVR-00010",
    "network": "Mobi.E",
    "opening_hours": "24/7",
    "operator": "Prio.E",
    "parking:fee": "no",
    "ref": "EVR-00010",
    "socket:type2": "1",
    "socket:type2:current": "32",
    "socket:type2:output": "7.2kW",
    "socket:type2:voltage": "230",
    "website": "https://www.mobie.pt/"
  }
},
{
  "type": "node",
  "id": 8461999959,
  "lat": 38.7435850,
  "lon": -9.1489780,
  "tags": {
    "access": "private",
    "addr:country": "PT",
    "amenity": "charging_station",
    "authentication:membership_card": "yes",
    "authentication:none": "no",
    "capacity": "1",
    "fee": "yes",
    "motorcar": "yes",
    "name": "LSB-01513",
    "network": "Mobi.E",
    "opening_hours": "24/7",
    "operator": "Prio.E",
    "parking:fee": "no",
    "ref": "LSB-01513",
    "socket:type2": "1",
    "socket:type2:current": "32",
    "socket:type2:output": "7.2kW",
    "socket:type2:voltage": "230",
    "website": "https://www.mobie.pt/"
  }
},
{
  "type": "node",
  "id": 8461999960,
  "lat": 38.7160500,
  "lon": -9.1621630,
  "tags": {
    "access": "private",
    "addr:country": "PT",
    "amenity": "charging_station",
    "authentication:membership_card": "yes",
    "authentication:none": "no",
    "capacity": "2",
    "fee": "yes",
    "motorcar": "yes",
    "name": "LSB-01511/12",
    "network": "Mobi.E",
    "opening_hours": "24/7",
    "operator": "Prio.E",
    "parking:fee": "no",
    "ref": "LSB-01511;LSB-01512",
    "socket:type2": "2",
    "socket:type2:current": "32",
    "socket:type2:output": "7.2kW",
    "socket:type2:voltage": "230",
    "website": "https://www.mobie.pt/"
  }
},
{
  "type": "node",
  "id": 8462022954,
  "lat": 38.7259610,
  "lon": -9.1582690,
  "tags": {
    "access": "private",
    "addr:country": "PT",
    "amenity": "charging_station",
    "authentication:membership_card": "yes",
    "authentication:none": "no",
    "capacity": "2",
    "fee": "yes",
    "motorcar": "yes",
    "name": "LSB-01518/19",
    "network": "Mobi.E",
    "opening_hours": "24/7",
    "operator": "Prio.E",
    "parking:fee": "no",
    "ref": "LSB-01518;LSB-01519",
    "socket:type2": "2",
    "socket:type2:current": "32",
    "socket:type2:output": "7.4kW",
    "socket:type2:voltage": "230",
    "website": "https://www.mobie.pt/"
  }
},
{
  "type": "node",
  "id": 8462022955,
  "lat": 38.7377520,
  "lon": -9.1602017,
  "tags": {
    "access": "private",
    "addr:country": "PT",
    "amenity": "charging_station",
    "authentication:membership_card": "yes",
    "authentication:none": "no",
    "capacity": "1",
    "fee": "yes",
    "motorcar": "yes",
    "name": "LSB-01516",
    "network": "Mobi.E",
    "opening_hours": "24/7",
    "operator": "Prio.E",
    "parking:fee": "no",
    "ref": "LSB-01516",
    "socket:type2": "1",
    "socket:type2:current": "32",
    "socket:type2:output": "7.2kW",
    "socket:type2:voltage": "230",
    "website": "https://www.mobie.pt/"
  }
},
{
  "type": "node",
  "id": 8462084210,
  "lat": 38.7120880,
  "lon": -9.1475270,
  "tags": {
    "access": "private",
    "addr:country": "PT",
    "amenity": "charging_station",
    "authentication:membership_card": "yes",
    "authentication:none": "no",
    "capacity": "3",
    "fee": "yes",
    "motorcar": "yes",
    "name": "LSB-01520/21/22",
    "network": "Mobi.E",
    "opening_hours": "24/7",
    "operator": "Prio.E",
    "parking:fee": "no",
    "ref": "LSB-01520;LSB-01521;LSB-01522",
    "socket:type2": "3",
    "socket:type2:current": "32",
    "socket:type2:output": "7.4kW",
    "socket:type2:voltage": "230",
    "website": "https://www.mobie.pt/"
  }
},
{
  "type": "node",
  "id": 8480294435,
  "lat": 39.3606866,
  "lon": -9.1572487,
  "tags": {
    "access": "private",
    "addr:country": "PT",
    "amenity": "charging_station",
    "authentication:membership_card": "yes",
    "authentication:none": "no",
    "capacity": "1",
    "fee": "yes",
    "motorcar": "yes",
    "name": "OBD-00004",
    "network": "Mobi.E",
    "opening_hours": "24/7",
    "operator": "Prio.E",
    "parking:fee": "no",
    "ref": "OBD-00004",
    "socket:type2": "1",
    "socket:type2:current": "16",
    "socket:type2:output": "3.7kW",
    "socket:type2:voltage": "230",
    "website": "https://www.mobie.pt/"
  }
},
{
  "type": "node",
  "id": 8489965576,
  "lat": 38.0127520,
  "lon": -7.8607340,
  "tags": {
    "access": "customers",
    "addr:country": "PT",
    "amenity": "charging_station",
    "authentication:membership_card": "yes",
    "authentication:none": "no",
    "capacity": "2",
    "fee": "yes",
    "motorcar": "yes",
    "name": "BJA-00010/11 - Pousada Convento de São Francisco",
    "network": "Mobi.E",
    "opening_hours": "24/7",
    "operator": "EDP Comercial",
    "parking:fee": "no",
    "ref": "BJA-00010;BJA-00011",
    "socket:type2": "2",
    "socket:type2:current": "32",
    "socket:type2:output": "7.4kW",
    "socket:type2:voltage": "230",
    "website": "https://www.mobie.pt/"
  }
},
{
  "type": "node",
  "id": 8558518833,
  "lat": 41.1418787,
  "lon": -8.5735465,
  "tags": {
    "access": "customers",
    "addr:country": "PT",
    "amenity": "charging_station",
    "authentication:membership_card": "yes",
    "authentication:none": "no",
    "capacity": "2",
    "fee": "yes",
    "name": "GDM-00007/8 - Pestana Douro Hotel",
    "network": "Mobi.E",
    "opening_hours": "24/7",
    "operator": "EDP Comercial",
    "parking:fee": "no",
    "ref": "GDM-00007;GDM-00008",
    "socket:type2": "2",
    "socket:type2:current": "32",
    "socket:type2:output": "7.4kW",
    "socket:type2:voltage": "230",
    "website": "https://www.mobie.pt/"
  }
},
{
  "type": "node",
  "id": 8693796208,
  "lat": 40.9256255,
  "lon": -8.5604337,
  "tags": {
    "access": "customers",
    "addr:country": "PT",
    "amenity": "charging_station",
    "capacity": "2",
    "name": "Hotel Nova Cruz",
    "network": "none",
    "operator": "Hotel Nova Cruz",
    "socket:type2": "2",
    "socket:type2:current": "32",
    "socket:type2:output": "7.4kW",
    "socket:type2:voltage": "230"
  }
},
{
  "type": "node",
  "id": 8693944209,
  "lat": 40.3032172,
  "lon": -8.3209231,
  "tags": {
    "access": "customers",
    "addr:country": "PT",
    "amenity": "charging_station",
    "authentication:membership_card": "yes",
    "authentication:none": "no",
    "capacity": "2",
    "fee": "yes",
    "name": "CBR-00018 - Leitão do Aires",
    "network": "Mobi.E",
    "opening_hours": "24/7",
    "operator": "Logical Gravity",
    "parking:fee": "no",
    "ref": "CBR-00018",
    "socket:type2": "2",
    "socket:type2:current": "32",
    "socket:type2:output": "7.4kW",
    "socket:type2:voltage": "230",
    "website": "https://www.mobie.pt/"
  }
},
{
  "type": "node",
  "id": 8710878294,
  "lat": 40.8597338,
  "lon": -8.6591442,
  "tags": {
    "access": "customers",
    "addr:city": "Ovar",
    "addr:country": "PT",
    "addr:street": "Rua Família Colares Pinto",
    "amenity": "charging_station",
    "authentication:membership_card": "yes",
    "authentication:none": "no",
    "capacity": "2",
    "fee": "yes",
    "name": "OVR-00011/12 - Restaurante Oxalá",
    "network": "Mobi.E",
    "opening_hours": "24/7",
    "operator": "Iberdrola",
    "parking:fee": "no",
    "ref": "OVR-00011;OVR-00012",
    "socket:chademo": "1",
    "socket:chademo:current": "120",
    "socket:chademo:output": "50kW",
    "socket:chademo:voltage": "500",
    "socket:type2": "1",
    "socket:type2:current": "32",
    "socket:type2:output": "7.4kW",
    "socket:type2:voltage": "230",
    "socket:type2_combo": "1",
    "socket:type2_combo:current": "125",
    "socket:type2_combo:output": "50kW",
    "socket:type2_combo:voltage": "500",
    "website": "https://www.mobie.pt/"
  }
},
{
  "type": "node",
  "id": 8836883440,
  "lat": 39.1120400,
  "lon": -9.3931100,
  "tags": {
    "access": "customers",
    "addr:country": "PT",
    "amenity": "charging_station",
    "capacity": "1",
    "name": "Restaurante Praia Azul",
    "network": "none",
    "operator": "Restaurante Praia Azul",
    "socket:type2": "1",
    "socket:type2:current": "32",
    "socket:type2:output": "7.4kW",
    "socket:type2:voltage": "230"
  }
},
{
  "type": "node",
  "id": 8888392020,
  "lat": 38.7207985,
  "lon": -9.1594154,
  "tags": {
    "access": "customers",
    "addr:country": "PT",
    "amenity": "charging_station",
    "authentication:membership_card": "yes",
    "authentication:none": "no",
    "capacity": "2",
    "email": "ajuda@powerdot.pt",
    "fee": "yes",
    "motorcar": "yes",
    "name": "LSB-00209",
    "network": "Mobi.E",
    "opening_hours": "24/7",
    "operator": "Powerdot",
    "parking:fee": "yes",
    "phone": "+351 800 180 292",
    "ref": "LSB-00209",
    "socket:type2": "2",
    "socket:type2:current": "32",
    "socket:type2:output": "7.4kW",
    "socket:type2:voltage": "230",
    "website": "https://www.mobie.pt/"
  }
}

  ]
}
