{
  "version": 0.6,
  "generator": "Overpass API 0.7.56.9 76e5016d",
  "osm3s": {
    "copyright": "The data included in this document is from www.openstreetmap.org. The data is made available under ODbL."
  },
  "elements": [

{
  "type": "node",
  "id": 6399252557,
  "lat": 40.6480784,
  "lon": -8.6076708,
  "tags": {
    "access": "customers",
    "amenity": "charging_station",
    "name": "Magnum Cap",
    "network": "none",
    "operator": "Magnum Cap",
    "socket:chademo": "1",
    "socket:chademo:current": "120",
    "socket:chademo:output": "50kW",
    "socket:chademo:voltage": "500",
    "socket:type2_cable": "1",
    "socket:type2_cable:current": "32",
    "socket:type2_cable:output": "22kW",
    "socket:type2_cable:voltage": "400",
    "socket:type2_combo": "1",
    "socket:type2_combo:current": "125",
    "socket:type2_combo:output": "50kW",
    "socket:type2_combo:voltage": "500"
  }
},
{
  "type": "node",
  "id": 6506375214,
  "lat": 41.9571040,
  "lon": -8.7269249,
  "tags": {
    "access": "customers",
    "addr:country": "PT",
    "amenity": "charging_station",
    "capacity": "2",
    "fee": "no",
    "motorcar": "yes",
    "name": "Restaurante Colher de Pau Tesla Destination Charger",
    "network": "Tesla",
    "operator": "Tesla",
    "parking:fee": "no",
    "phone": "+351 251 792 016",
    "ref": "dc63457",
    "socket:tesla_destination": "1",
    "socket:tesla_destination:output": "11kW",
    "socket:type2_cable": "1",
    "socket:type2_cable:output": "11kW",
    "website": "https://www.tesla.com/pt_PT/findus/list/chargers/Portugal"
  }
},
{
  "type": "node",
  "id": 6966002198,
  "lat": 37.0852534,
  "lon": -7.9450116,
  "tags": {
    "access": "customers",
    "addr:country": "PT",
    "addr:postcode": "8005-502 Faro",
    "amenity": "charging_station",
    "capacity": "2",
    "fee": "no",
    "motorcar": "yes",
    "name": "Mercedes Country House Tesla Destination Charger",
    "network": "Tesla",
    "operator": "Tesla",
    "phone": "+351 289 790 790",
    "ref": "dc43791",
    "socket:tesla_destination": "1",
    "socket:tesla_destination:output": "22kW",
    "socket:type2_cable": "1",
    "socket:type2_cable:output": "22kW",
    "website": "https://www.tesla.com/pt_PT/findus/list/chargers/Portugal"
  }
},
{
  "type": "node",
  "id": 6966002231,
  "lat": 37.0985676,
  "lon": -7.7932998,
  "tags": {
    "access": "customers",
    "addr:country": "PT",
    "addr:postcode": "8700-069 Moncarapacho",
    "amenity": "charging_station",
    "capacity": "2",
    "fee": "no",
    "motorcar": "yes",
    "name": "Hotel Vila Monte Tesla Destination Charger",
    "network": "Tesla",
    "opening_hours": "24/7",
    "operator": "Tesla",
    "phone": "+351 289 790 790",
    "ref": "dc29184",
    "socket:tesla_destination": "1",
    "socket:tesla_destination:output": "22kW",
    "socket:type2_cable": "1",
    "socket:type2_cable:output": "22kW",
    "website": "https://www.tesla.com/pt_PT/findus/list/chargers/Portugal"
  }
},
{
  "type": "node",
  "id": 6966002232,
  "lat": 37.1801999,
  "lon": -7.4823573,
  "tags": {
    "access": "customers",
    "addr:country": "PT",
    "addr:place": "Praia Verde",
    "addr:postcode": "8950-434 Castro Marim",
    "amenity": "charging_station",
    "capacity": "2",
    "fee": "no",
    "motorcar": "yes",
    "name": "Praia Verde Boutique Hotel Tesla Destination Charger",
    "network": "Tesla",
    "operator": "Tesla",
    "phone": "+351 281 530 600",
    "ref": "dc60198",
    "socket:tesla_destination": "1",
    "socket:tesla_destination:output": "11kW",
    "socket:type2_cable": "1",
    "socket:type2_cable:output": "11kW",
    "website": "https://www.tesla.com/pt_PT/findus/list/chargers/Portugal"
  }
},
{
  "type": "node",
  "id": 6966131935,
  "lat": 37.0167049,
  "lon": -7.9345416,
  "tags": {
    "access": "customers",
    "addr:country": "PT",
    "addr:postcode": "8000-168 Faro",
    "amenity": "charging_station",
    "capacity": "4",
    "fee": "no",
    "motorcar": "yes",
    "name": "Hotel Faro Tesla Destination Charger",
    "network": "Tesla",
    "operator": "Tesla",
    "phone": "+351 289 830 830",
    "ref": "dc40070",
    "socket:tesla_destination": "2",
    "socket:tesla_destination:output": "22kW",
    "socket:type2_cable": "2",
    "socket:type2_cable:output": "22kW",
    "website": "https://www.tesla.com/pt_PT/findus/list/chargers/Portugal"
  }
},
{
  "type": "node",
  "id": 6966204428,
  "lat": 37.0387177,
  "lon": -8.0110744,
  "tags": {
    "access": "customers",
    "addr:country": "PT",
    "addr:postcode": "8135-162 Almancil",
    "amenity": "charging_station",
    "capacity": "2",
    "fee": "no",
    "motorcar": "yes",
    "name": "Martinhal Quinta do Lago Tesla Destination Charger",
    "network": "Tesla",
    "operator": "Tesla",
    "phone": "+351 289 008 300",
    "ref": "dc71612",
    "socket:tesla_destination": "1",
    "socket:tesla_destination:output": "22kW",
    "socket:type2_cable": "1",
    "socket:type2_cable:output": "22kW",
    "website": "https://www.tesla.com/pt_PT/findus/list/chargers/Portugal"
  }
},
{
  "type": "node",
  "id": 6966252892,
  "lat": 37.0731299,
  "lon": -8.1145298,
  "tags": {
    "access": "customers",
    "addr:country": "PT",
    "addr:postcode": "8125-478 Vilamoura",
    "amenity": "charging_station",
    "capacity": "2",
    "fee": "no",
    "motorcar": "yes",
    "name": "Crowne Plaza Vilamoura Tesla Destination Charger",
    "network": "Tesla",
    "operator": "Tesla",
    "phone": "+351 289 381 600",
    "ref": "dc34091",
    "socket:tesla_destination": "1",
    "socket:tesla_destination:output": "22kW",
    "socket:type2_cable": "1",
    "socket:type2_cable:output": "22kW",
    "website": "https://www.tesla.com/pt_PT/findus/list/chargers/Portugal"
  }
},
{
  "type": "node",
  "id": 6966252911,
  "lat": 37.0738062,
  "lon": -8.1161056,
  "tags": {
    "access": "customers",
    "addr:country": "PT",
    "addr:postcode": "8125-909 Quarteira",
    "amenity": "charging_station",
    "capacity": "4",
    "fee": "no",
    "motorcar": "yes",
    "name": "Casino Vilamoura Tesla Destination Charger",
    "network": "Tesla",
    "operator": "Tesla",
    "phone": "+351 289 310 000",
    "ref": "dc58354",
    "socket:tesla_destination": "2",
    "socket:tesla_destination:output": "22kW",
    "socket:type2_cable": "2",
    "socket:type2_cable:output": "22kW",
    "website": "https://www.tesla.com/pt_PT/findus/list/chargers/Portugal"
  }
},
{
  "type": "node",
  "id": 6968737908,
  "lat": 37.1570075,
  "lon": -8.0954084,
  "tags": {
    "access": "customers",
    "addr:country": "PT",
    "addr:postcode": "8100-337 Loulé",
    "amenity": "charging_station",
    "capacity": "2",
    "fee": "no",
    "motorcar": "yes",
    "name": "B&B Casa Mocho Branco Tesla Destination Charger",
    "network": "Tesla",
    "operator": "Tesla",
    "phone": "+351 933 133 823",
    "ref": "dc38955",
    "socket:tesla_destination": "1",
    "socket:tesla_destination:output": "22kW",
    "socket:type2_cable": "1",
    "socket:type2_cable:output": "22kW",
    "website": "https://www.tesla.com/pt_PT/findus/list/chargers/Portugal"
  }
},
{
  "type": "node",
  "id": 6969121785,
  "lat": 37.1032943,
  "lon": -8.1418857,
  "tags": {
    "access": "customers",
    "addr:country": "PT",
    "addr:postcode": "8125-309 Vilamoura",
    "amenity": "charging_station",
    "capacity": "2",
    "fee": "no",
    "motorcar": "yes",
    "name": "Hotel Anantara Vilamoura Tesla Destination Charger",
    "network": "Tesla",
    "operator": "Tesla",
    "phone": "+351 289 317 000",
    "ref": "dc29944",
    "socket:tesla_destination": "1",
    "socket:tesla_destination:output": "22kW",
    "socket:type2_cable": "1",
    "socket:type2_cable:output": "22kW",
    "website": "https://www.tesla.com/pt_PT/findus/list/chargers/Portugal"
  }
},
{
  "type": "node",
  "id": 6969803666,
  "lat": 37.1123725,
  "lon": -8.1507853,
  "tags": {
    "access": "customers",
    "addr:country": "PT",
    "addr:postcode": "8125-300 Vilamoura",
    "amenity": "charging_station",
    "capacity": "4",
    "fee": "no",
    "motorcar": "yes",
    "name": "Longevity Cegonha Country Club Tesla Destination Charger",
    "network": "Tesla",
    "operator": "Tesla",
    "phone": "+351 967 108 244",
    "ref": "dc28645",
    "socket:tesla_destination": "2",
    "socket:tesla_destination:output": "22kW",
    "socket:type2_cable": "2",
    "socket:type2_cable:output": "22kW",
    "website": "https://www.tesla.com/pt_PT/findus/list/chargers/Portugal"
  }
},
{
  "type": "node",
  "id": 6971366957,
  "lat": 37.0933346,
  "lon": -8.1786199,
  "tags": {
    "access": "customers",
    "addr:country": "PT",
    "addr:postcode": "8200-909 Albufeira",
    "amenity": "charging_station",
    "capacity": "2",
    "fee": "no",
    "motorcar": "yes",
    "name": "Pine Cliffs Resort Tesla Destination Charger",
    "network": "Tesla",
    "operator": "Tesla",
    "phone": "+351 289 500 300",
    "ref": "dc55313",
    "socket:tesla_destination": "1",
    "socket:tesla_destination:output": "22kW",
    "socket:type2_cable": "1",
    "socket:type2_cable:output": "22kW",
    "website": "https://www.tesla.com/pt_PT/findus/list/chargers/Portugal"
  }
},
{
  "type": "node",
  "id": 6971573781,
  "lat": 37.0917455,
  "lon": -8.2380597,
  "tags": {
    "access": "customers",
    "addr:country": "PT",
    "addr:postcode": "8200-161 Albufeira",
    "amenity": "charging_station",
    "capacity": "2",
    "fee": "no",
    "motorcar": "yes",
    "name": "Paraíso de Albufeira Tesla Destination Charger",
    "network": "Tesla",
    "operator": "Tesla",
    "phone": "+351 289 590 000",
    "ref": "dc33214",
    "socket:tesla_destination": "2",
    "socket:tesla_destination:output": "17kW",
    "socket:type2_cable": "2",
    "socket:type2_cable:output": "17kW",
    "website": "https://www.tesla.com/pt_PT/findus/list/chargers/Portugal"
  }
},
{
  "type": "node",
  "id": 6973556961,
  "lat": 37.0785152,
  "lon": -8.2896714,
  "tags": {
    "access": "customers",
    "addr:country": "PT",
    "addr:postcode": "8200-385 Albufeira",
    "amenity": "charging_station",
    "capacity": "2",
    "fee": "no",
    "motorcar": "yes",
    "name": "Hotel Baia Grande Tesla Destination Charger",
    "network": "Tesla",
    "operator": "Tesla",
    "phone": "+351 289 583 500",
    "ref": "dc70980",
    "socket:tesla_destination": "1",
    "socket:tesla_destination:output": "22kW",
    "socket:type2_cable": "1",
    "socket:type2_cable:output": "22kW",
    "website": "https://www.tesla.com/pt_PT/findus/list/chargers/Portugal"
  }
},
{
  "type": "node",
  "id": 6979846143,
  "lat": 37.1004368,
  "lon": -8.3795955,
  "tags": {
    "access": "customers",
    "addr:country": "PT",
    "addr:postcode": "8400-385 Albufeira",
    "amenity": "charging_station",
    "capacity": "2",
    "fee": "no",
    "motorcar": "yes",
    "name": "Vilalara Thalassa Resort Tesla Destination Charger",
    "network": "Tesla",
    "operator": "Tesla",
    "phone": "+351 282 320 000",
    "ref": "dc81856",
    "socket:tesla_destination": "1",
    "socket:tesla_destination:output": "22kW",
    "socket:type2_cable": "1",
    "socket:type2_cable:output": "22kW",
    "website": "https://www.tesla.com/pt_PT/findus/list/chargers/Portugal"
  }
},
{
  "type": "node",
  "id": 6979858406,
  "lat": 37.0930308,
  "lon": -8.4555191,
  "tags": {
    "access": "customers",
    "addr:country": "PT",
    "addr:postcode": "8400-525 Lagoa",
    "amenity": "charging_station",
    "capacity": "2",
    "fee": "no",
    "motorcar": "yes",
    "name": "Hotel Baia Cristal Tesla Destination Charger",
    "network": "Tesla",
    "operator": "Tesla",
    "phone": "+351 282 358 601",
    "ref": "dc70983",
    "socket:schuko": "1",
    "socket:schuko:output": "3kW",
    "socket:tesla_destination": "1",
    "socket:tesla_destination:output": "22kW",
    "socket:type2_cable": "1",
    "socket:type2_cable:output": "22kW",
    "website": "https://www.tesla.com/pt_PT/findus/list/chargers/Portugal"
  }
},
{
  "type": "node",
  "id": 6989961463,
  "lat": 37.1205567,
  "lon": -8.4913386,
  "tags": {
    "access": "customers",
    "addr:country": "PT",
    "addr:postcode": "8401-904 Carvoeiro",
    "amenity": "charging_station",
    "capacity": "1",
    "fee": "no",
    "motorcar": "yes",
    "name": "Vale d'Oliveiras Quinta Resort & SPA Tesla Destination Charger",
    "network": "Tesla",
    "operator": "Tesla",
    "phone": "+351 282 380 560",
    "ref": "dc39355",
    "socket:tesla_destination": "1",
    "socket:tesla_destination:output": "22kW",
    "socket:type2_cable": "1",
    "socket:type2_cable:output": "22kW",
    "website": "https://www.tesla.com/pt_PT/findus/list/chargers/Portugal"
  }
},
{
  "type": "node",
  "id": 6990026984,
  "lat": 37.1220591,
  "lon": -8.5266211,
  "tags": {
    "access": "customers",
    "addr:country": "PT",
    "addr:postcode": "8500-345 Portimão",
    "amenity": "charging_station",
    "capacity": "4",
    "fee": "yes",
    "motorcar": "yes",
    "name": "Marina de Portimão Tesla Destination Charger",
    "network": "Tesla",
    "operator": "Tesla",
    "phone": "+351 919 385 256",
    "ref": "dc56640",
    "socket:tesla_destination": "2",
    "socket:tesla_destination:output": "22kW",
    "socket:type2_cable": "2",
    "socket:type2_cable:output": "22kW",
    "website": "https://www.tesla.com/pt_PT/findus/list/chargers/Portugal"
  }
},
{
  "type": "node",
  "id": 6992084274,
  "lat": 37.1196638,
  "lon": -8.5373533,
  "tags": {
    "access": "customers",
    "addr:country": "PT",
    "addr:postcode": "8500-802 Portimão",
    "amenity": "charging_station",
    "capacity": "3",
    "fee": "no",
    "motorcar": "yes",
    "name": "Jupiter Algarve Hotel Tesla Destination Charger",
    "network": "Tesla",
    "operator": "Tesla",
    "phone": "+351 282 470 470",
    "ref": "dc39675",
    "socket:schuko": "1",
    "socket:schuko:output": "3kW",
    "socket:tesla_destination": "1",
    "socket:tesla_destination:output": "22kW",
    "socket:type2_cable": "1",
    "socket:type2_cable:output": "22kW",
    "website": "https://www.tesla.com/pt_PT/findus/list/chargers/Portugal"
  }
},
{
  "type": "node",
  "id": 6995101836,
  "lat": 37.1290864,
  "lon": -8.5339120,
  "tags": {
    "access": "customers",
    "addr:country": "PT",
    "addr:postcode": "8500-804 Portimão",
    "amenity": "charging_station",
    "capacity": "2",
    "fee": "no",
    "motorcar": "yes",
    "name": "Jupiter Marina Tesla Destination Charger",
    "network": "Tesla",
    "operator": "Tesla",
    "phone": "+351 282 002 200",
    "ref": "dc39676",
    "socket:tesla_destination": "1",
    "socket:tesla_destination:output": "22kW",
    "socket:type2_cable": "1",
    "socket:type2_cable:output": "22kW",
    "website": "https://www.tesla.com/pt_PT/findus/list/chargers/Portugal"
  }
},
{
  "type": "node",
  "id": 7013593502,
  "lat": 37.1214090,
  "lon": -8.5798462,
  "tags": {
    "access": "customers",
    "addr:country": "PT",
    "addr:postcode": "8500-088 Alvor",
    "amenity": "charging_station",
    "capacity": "2",
    "fee": "no",
    "motorcar": "yes",
    "name": "Pestana Alvor Praia Tesla Destination Charger",
    "network": "Tesla",
    "operator": "Tesla",
    "phone": "+351 282 400 900",
    "ref": "dc75449",
    "socket:tesla_destination": "1",
    "socket:tesla_destination:output": "22kW",
    "socket:type2_cable": "1",
    "socket:type2_cable:output": "22kW",
    "website": "https://www.tesla.com/pt_PT/findus/list/chargers/Portugal"
  }
},
{
  "type": "node",
  "id": 7028312084,
  "lat": 37.0105763,
  "lon": -8.9320162,
  "tags": {
    "access": "customers",
    "addr:country": "PT",
    "addr:postcode": "8650-357 Sagres",
    "amenity": "charging_station",
    "capacity": "2",
    "fee": "no",
    "motorcar": "yes",
    "name": "Memmo Baleeira Hotel Sagres Tesla Destination Charger",
    "network": "Tesla",
    "operator": "Tesla",
    "phone": "+351 282 240 200",
    "ref": "dc39472",
    "socket:tesla_destination": "1",
    "socket:tesla_destination:output": "22kW",
    "socket:type2_cable": "1",
    "socket:type2_cable:output": "22kW",
    "website": "https://www.tesla.com/pt_PT/findus/list/chargers/Portugal"
  }
},
{
  "type": "node",
  "id": 7028317346,
  "lat": 37.0232997,
  "lon": -8.9261422,
  "tags": {
    "access": "customers",
    "addr:country": "PT",
    "addr:postcode": "8650-908 Sagres",
    "amenity": "charging_station",
    "capacity": "4",
    "fee": "no",
    "motorcar": "yes",
    "name": "Martinhal Sagres Beach Familty Resort Tesla Destination Charger",
    "network": "Tesla",
    "operator": "Tesla",
    "phone": "+351 282 240 200",
    "ref": "dc71608",
    "socket:tesla_destination": "2",
    "socket:tesla_destination:output": "22kW",
    "socket:type2_cable": "2",
    "socket:type2_cable:output": "22kW",
    "website": "https://www.tesla.com/pt_PT/findus/list/chargers/Portugal"
  }
},
{
  "type": "node",
  "id": 7031087647,
  "lat": 37.1163283,
  "lon": -8.7002398,
  "tags": {
    "access": "customers",
    "addr:country": "PT",
    "addr:postcode": "8600-310 Lagos",
    "amenity": "charging_station",
    "capacity": "2",
    "fee": "no",
    "motorcar": "yes",
    "name": "Villa Monte D'Oiro Tesla Destination Charger",
    "network": "Tesla",
    "operator": "Tesla",
    "phone": "+351 918 734 500",
    "ref": "dc41905",
    "socket:tesla_destination": "1",
    "socket:tesla_destination:output": "11kW",
    "socket:type2_cable": "1",
    "socket:type2_cable:output": "11kW",
    "website": "https://www.tesla.com/pt_PT/findus/list/chargers/Portugal"
  }
},
{
  "type": "node",
  "id": 7031087871,
  "lat": 37.1106554,
  "lon": -8.6729993,
  "tags": {
    "access": "customers",
    "addr:country": "PT",
    "addr:postcode": "8600-315 Lagos",
    "amenity": "charging_station",
    "capacity": "1",
    "fee": "no",
    "motorcar": "yes",
    "name": "Marina Club Lagos Resort Tesla Destination Charger",
    "network": "Tesla",
    "operator": "Tesla",
    "phone": "+351 282 790 600",
    "ref": "dc47852",
    "socket:tesla_destination": "1",
    "socket:tesla_destination:output": "17kW",
    "socket:type2_cable": "1",
    "socket:type2_cable:output": "17kW",
    "website": "https://www.tesla.com/pt_PT/findus/list/chargers/Portugal"
  }
},
{
  "type": "node",
  "id": 7031340598,
  "lat": 37.0949349,
  "lon": -8.6737409,
  "tags": {
    "access": "customers",
    "addr:country": "PT",
    "addr:postcode": "8600-619 Lagos",
    "amenity": "charging_station",
    "capacity": "2",
    "fee": "no",
    "motorcar": "yes",
    "name": "Aqualuz Suite Hotel Apartamentos Lagos Tesla Destination Charger",
    "network": "Tesla",
    "operator": "Tesla",
    "phone": "+351 282 770 620",
    "ref": "dc38282",
    "socket:tesla_destination": "1",
    "socket:tesla_destination:output": "22kW",
    "socket:type2_cable": "1",
    "socket:type2_cable:output": "22kW",
    "website": "https://www.tesla.com/pt_PT/findus/list/chargers/Portugal"
  }
},
{
  "type": "node",
  "id": 7031340600,
  "lat": 37.1071907,
  "lon": -8.6753704,
  "tags": {
    "access": "customers",
    "addr:country": "PT",
    "addr:postcode": "8600-645 Lagos",
    "amenity": "charging_station",
    "capacity": "2",
    "fee": "no",
    "motorcar": "yes",
    "name": "Lagos Avenida Hotel Tesla Destination Charger",
    "network": "Tesla",
    "operator": "Tesla",
    "phone": "+351 282 780 090",
    "ref": "dc41908",
    "socket:tesla_destination": "1",
    "socket:tesla_destination:output": "22kW",
    "socket:type2": "2",
    "socket:type2:output": "7.4kW",
    "socket:type2_cable": "1",
    "socket:type2_cable:output": "22kW",
    "website": "https://www.tesla.com/pt_PT/findus/list/chargers/Portugal"
  }
},
{
  "type": "node",
  "id": 7031489672,
  "lat": 37.0916519,
  "lon": -8.6712156,
  "tags": {
    "access": "customers",
    "addr:country": "PT",
    "addr:postcode": "8600-310 Lagos",
    "amenity": "charging_station",
    "capacity": "2",
    "fee": "no",
    "motorcar": "yes",
    "name": "Villa Doris Suites Tesla Destination Charger",
    "network": "Tesla",
    "operator": "Tesla",
    "phone": "+351 282 770 620",
    "ref": "dc41907",
    "socket:tesla_destination": "1",
    "socket:tesla_destination:output": "17kW",
    "socket:type2_cable": "1",
    "socket:type2_cable:output": "17kW",
    "website": "https://www.tesla.com/pt_PT/findus/list/chargers/Portugal"
  }
},
{
  "type": "node",
  "id": 7031570579,
  "lat": 37.0882885,
  "lon": -8.6861891,
  "tags": {
    "access": "customers",
    "addr:country": "PT",
    "addr:postcode": "8600-513 Lagos",
    "amenity": "charging_station",
    "capacity": "2",
    "fee": "no",
    "motorcar": "yes",
    "name": "Villa Mar Azul Tesla Destination Charger",
    "network": "Tesla",
    "operator": "Tesla",
    "phone": "+351 282 760 261",
    "ref": "dc41906",
    "socket:tesla_destination": "1",
    "socket:tesla_destination:output": "11kW",
    "socket:type2_cable": "1",
    "socket:type2_cable:output": "11kW",
    "website": "https://www.tesla.com/pt_PT/findus/list/chargers/Portugal"
  }
},
{
  "type": "node",
  "id": 7031570580,
  "lat": 37.0891850,
  "lon": -8.6729202,
  "tags": {
    "access": "customers",
    "addr:country": "PT",
    "addr:postcode": "8600-544 Lagos",
    "amenity": "charging_station",
    "capacity": "2",
    "fee": "no",
    "motorcar": "yes",
    "name": "Costa d'Oiro Ambiance Village Tesla Destination Charger",
    "network": "Tesla",
    "operator": "Tesla",
    "phone": "+351 282 760 261",
    "ref": "dc39228",
    "socket:tesla_destination": "1",
    "socket:tesla_destination:output": "11kW",
    "socket:type2_cable": "1",
    "socket:type2_cable:output": "11kW",
    "website": "https://www.tesla.com/pt_PT/findus/list/chargers/Portugal"
  }
},
{
  "type": "node",
  "id": 8085492051,
  "lat": 37.0978991,
  "lon": -7.9976405,
  "tags": {
    "access": "customers",
    "addr:country": "PT",
    "addr:street": "Mar Shopping Algarve, Avenida Algarve",
    "amenity": "charging_station",
    "authentication:none": "yes",
    "capacity": "2",
    "fee": "no",
    "motorcar": "yes",
    "name": "Porsche Destination Charging",
    "network": "Porsche",
    "opening_hours": "Mo-Su 10:00-23:00",
    "operator": "Porsche",
    "parking:fee": "no",
    "socket:type2_cable": "2",
    "socket:type2_cable:current": "16",
    "socket:type2_cable:output": "11kW",
    "socket:type2_cable:voltage": "400"
  }
},
{
  "type": "node",
  "id": 8162483944,
  "lat": 37.4951679,
  "lon": -8.6543919,
  "tags": {
    "access": "customers",
    "addr:country": "PT",
    "amenity": "charging_station",
    "capacity": "2",
    "fee": "no",
    "motorcar": "yes",
    "name": "Paraiso Escondido - Living in Harmony Tesla Destination Charger",
    "network": "Tesla",
    "operator": "Tesla",
    "ref": "dc28536",
    "socket:tesla_destination": "1",
    "socket:tesla_destination:output": "11kW",
    "socket:type2_cable": "1",
    "socket:type2_cable:output": "11kW",
    "website": "https://www.tesla.com/pt_PT/findus/list/chargers/Portugal"
  }
},
{
  "type": "node",
  "id": 8162483945,
  "lat": 37.4845673,
  "lon": -8.6675373,
  "tags": {
    "access": "customers",
    "addr:country": "PT",
    "amenity": "charging_station",
    "capacity": "2",
    "fee": "no",
    "motorcar": "yes",
    "name": "Craveiral Farmhouse Tesla Destination Charger",
    "network": "Tesla",
    "operator": "Tesla",
    "ref": "dc56832",
    "socket:tesla_destination": "1",
    "socket:tesla_destination:output": "22kW",
    "socket:type2_cable": "1",
    "socket:type2_cable:output": "22kW",
    "website": "https://www.tesla.com/pt_PT/findus/list/chargers/Portugal"
  }
},
{
  "type": "node",
  "id": 8162484137,
  "lat": 37.6005570,
  "lon": -8.6214072,
  "tags": {
    "access": "customers",
    "addr:country": "PT",
    "amenity": "charging_station",
    "capacity": "2",
    "fee": "no",
    "motorcar": "yes",
    "name": "Quinta do Chocalhinho Tesla Destination Charger",
    "network": "Tesla",
    "operator": "Tesla",
    "ref": "dc80210",
    "socket:tesla_destination": "1",
    "socket:tesla_destination:output": "22kW",
    "socket:type2_cable": "1",
    "socket:type2_cable:output": "22kW",
    "website": "https://www.tesla.com/pt_PT/findus/list/chargers/Portugal"
  }
},
{
  "type": "node",
  "id": 8162519167,
  "lat": 37.8790962,
  "lon": -7.9410633,
  "tags": {
    "access": "customers",
    "addr:country": "PT",
    "amenity": "charging_station",
    "capacity": "2",
    "fee": "no",
    "motorcar": "yes",
    "name": "Herdade dos Grous Tesla Destination Charger",
    "network": "Tesla",
    "operator": "Tesla",
    "ref": "dc514630",
    "socket:tesla_destination": "1",
    "socket:tesla_destination:output": "11kW",
    "socket:type2_cable": "1",
    "socket:type2_cable:output": "11kW",
    "website": "https://www.tesla.com/pt_PT/findus/list/chargers/Portugal"
  }
},
{
  "type": "node",
  "id": 8162519168,
  "lat": 37.7214386,
  "lon": -8.6751038,
  "tags": {
    "access": "customers",
    "addr:country": "PT",
    "amenity": "charging_station",
    "capacity": "2",
    "fee": "no",
    "motorcar": "yes",
    "name": "NATURARTE - Boutique Hotel Tesla Destination Charger",
    "network": "Tesla",
    "operator": "Tesla",
    "ref": "dc50395",
    "socket:tesla_destination": "1",
    "socket:tesla_destination:output": "11kW",
    "socket:type2_cable": "1",
    "socket:type2_cable:output": "11kW",
    "website": "https://www.tesla.com/pt_PT/findus/list/chargers/Portugal"
  }
},
{
  "type": "node",
  "id": 8162525918,
  "lat": 37.9052312,
  "lon": -8.6428365,
  "tags": {
    "access": "customers",
    "addr:country": "PT",
    "amenity": "charging_station",
    "capacity": "2",
    "fee": "no",
    "motorcar": "yes",
    "name": "Monte Xisto Hotel Rural Tesla Destination Charger",
    "network": "Tesla",
    "operator": "Tesla",
    "ref": "dc40386",
    "socket:tesla_destination": "1",
    "socket:tesla_destination:output": "17kW",
    "socket:type2_cable": "1",
    "socket:type2_cable:output": "17kW",
    "website": "https://www.tesla.com/pt_PT/findus/list/chargers/Portugal"
  }
},
{
  "type": "node",
  "id": 8167648651,
  "lat": 38.0367497,
  "lon": -8.4273049,
  "tags": {
    "access": "customers",
    "addr:country": "PT",
    "amenity": "charging_station",
    "capacity": "2",
    "fee": "no",
    "motorcar": "yes",
    "name": "Hotel Rural Santa Barbara dos Mineiros Tesla Destination Charger",
    "network": "Tesla",
    "operator": "Tesla",
    "parking:fee": "no",
    "ref": "dc71545",
    "socket:tesla_destination": "1",
    "socket:tesla_destination:output": "14kW",
    "socket:type2_cable": "1",
    "socket:type2_cable:output": "14kW",
    "website": "https://www.tesla.com/pt_PT/findus/list/chargers/Portugal"
  }
},
{
  "type": "node",
  "id": 8167692143,
  "lat": 38.1915243,
  "lon": -8.5443297,
  "tags": {
    "access": "customers",
    "addr:country": "PT",
    "amenity": "charging_station",
    "capacity": "2",
    "fee": "no",
    "motorcar": "yes",
    "name": "Monte Lusitano I Tesla Destination Charger",
    "network": "Tesla",
    "operator": "Tesla",
    "parking:fee": "no",
    "ref": "dc75407",
    "socket:tesla_destination": "1",
    "socket:tesla_destination:output": "22kW",
    "socket:type2_cable": "1",
    "socket:type2_cable:output": "22kW",
    "website": "https://www.tesla.com/pt_PT/findus/list/chargers/Portugal"
  }
},
{
  "type": "node",
  "id": 8167692144,
  "lat": 38.1915391,
  "lon": -8.5428894,
  "tags": {
    "access": "customers",
    "addr:country": "PT",
    "amenity": "charging_station",
    "capacity": "2",
    "fee": "no",
    "motorcar": "yes",
    "name": "Monte Lusitano II Tesla Destination Charger",
    "network": "Tesla",
    "operator": "Tesla",
    "parking:fee": "no",
    "ref": "dc79036",
    "socket:tesla_destination": "1",
    "socket:tesla_destination:output": "22kW",
    "socket:type2_cable": "1",
    "socket:type2_cable:output": "22kW",
    "website": "https://www.tesla.com/pt_PT/findus/list/chargers/Portugal"
  }
},
{
  "type": "node",
  "id": 8168688307,
  "lat": 38.4930961,
  "lon": -8.9029920,
  "tags": {
    "access": "customers",
    "addr:country": "PT",
    "amenity": "charging_station",
    "capacity": "2",
    "fee": "no",
    "motorcar": "yes",
    "name": "Troia Design Hotel Tesla Destination Charger",
    "network": "Tesla",
    "operator": "Tesla",
    "parking:fee": "no",
    "ref": "dc81851",
    "socket:tesla_destination": "1",
    "socket:tesla_destination:output": "22kW",
    "socket:type2_cable": "1",
    "socket:type2_cable:output": "22kW",
    "website": "https://www.tesla.com/pt_PT/findus/list/chargers/Portugal"
  }
},
{
  "type": "node",
  "id": 8168695028,
  "lat": 38.2810046,
  "lon": -8.6990838,
  "tags": {
    "access": "customers",
    "addr:country": "PT",
    "amenity": "charging_station",
    "capacity": "2",
    "fee": "no",
    "motorcar": "yes",
    "name": "Sublime Comporta - Hotel and Spa Tesla Destination Charger",
    "network": "Tesla",
    "operator": "Tesla",
    "parking:fee": "no",
    "ref": "dc46181",
    "socket:tesla_destination": "1",
    "socket:tesla_destination:output": "22kW",
    "socket:type2_cable": "1",
    "socket:type2_cable:output": "22kW",
    "website": "https://www.tesla.com/pt_PT/findus/list/chargers/Portugal"
  }
},
{
  "type": "node",
  "id": 8168729215,
  "lat": 38.4474170,
  "lon": -9.1069428,
  "tags": {
    "access": "customers",
    "addr:country": "PT",
    "amenity": "charging_station",
    "capacity": "4",
    "fee": "no",
    "motorcar": "yes",
    "name": "Four Points by Sheraton Sesimbra Tesla Destination Charger",
    "network": "Tesla",
    "operator": "Tesla",
    "parking:fee": "yes",
    "socket:tesla_destination": "2",
    "socket:tesla_destination:output": "22kW",
    "socket:type2_cable": "2",
    "socket:type2_cable:output": "22kW",
    "website": "https://www.tesla.com/pt_PT/findus/list/chargers/Portugal"
  }
},
{
  "type": "node",
  "id": 8168730333,
  "lat": 38.4595139,
  "lon": -9.1732138,
  "tags": {
    "access": "customers",
    "addr:country": "PT",
    "amenity": "charging_station",
    "capacity": "2",
    "fee": "no",
    "motorcar": "yes",
    "name": "Quinta do Miguel Tesla Destination Charger",
    "network": "Tesla",
    "operator": "Tesla",
    "parking:fee": "no",
    "ref": "dc85336",
    "socket:tesla_destination": "1",
    "socket:tesla_destination:output": "22kW",
    "socket:type2_cable": "1",
    "socket:type2_cable:output": "22kW",
    "website": "https://www.tesla.com/pt_PT/findus/list/chargers/Portugal"
  }
},
{
  "type": "node",
  "id": 8168743190,
  "lat": 38.5290517,
  "lon": -8.8987541,
  "tags": {
    "access": "customers",
    "addr:country": "PT",
    "amenity": "charging_station",
    "capacity": "2",
    "fee": "no",
    "motorcar": "yes",
    "name": "Hotel Laitau Setubal Tesla Destination Charger",
    "network": "Tesla",
    "operator": "Tesla",
    "parking:fee": "no",
    "ref": "dc39383",
    "socket:tesla_destination": "1",
    "socket:tesla_destination:output": "22kW",
    "socket:type2_cable": "1",
    "socket:type2_cable:output": "22kW",
    "website": "https://www.tesla.com/pt_PT/findus/list/chargers/Portugal"
  }
},
{
  "type": "node",
  "id": 8168773229,
  "lat": 38.5308824,
  "lon": -8.9022893,
  "tags": {
    "access": "customers",
    "addr:country": "PT",
    "amenity": "charging_station",
    "capacity": "4",
    "fee": "no",
    "motorcar": "yes",
    "name": "Hotel do Sado Business & Nature Tesla Destination Charger",
    "network": "Tesla",
    "operator": "Tesla",
    "parking:fee": "no",
    "ref": "dc50393",
    "socket:tesla_destination": "2",
    "socket:tesla_destination:output": "11kW",
    "socket:type2_cable": "2",
    "socket:type2_cable:output": "11kW",
    "website": "https://www.tesla.com/pt_PT/findus/list/chargers/Portugal"
  }
},
{
  "type": "node",
  "id": 8186942169,
  "lat": 38.5392345,
  "lon": -8.9407213,
  "tags": {
    "access": "customers",
    "addr:country": "PT",
    "amenity": "charging_station",
    "capacity": "2",
    "fee": "no",
    "motorcar": "yes",
    "name": "Biovilla Tesla Destination Charger",
    "network": "Tesla",
    "operator": "Tesla",
    "parking:fee": "no",
    "ref": "dc24390",
    "socket:tesla_destination": "1",
    "socket:tesla_destination:output": "22kW",
    "socket:type2_cable": "1",
    "socket:type2_cable:output": "22kW",
    "website": "https://www.tesla.com/pt_PT/findus/list/chargers/Portugal"
  }
},
{
  "type": "node",
  "id": 8187028269,
  "lat": 38.6356261,
  "lon": -8.6944128,
  "tags": {
    "access": "customers",
    "addr:country": "PT",
    "amenity": "charging_station",
    "capacity": "4",
    "fee": "no",
    "motorcar": "yes",
    "name": "Casa Ermelinda Freitas Tesla Destination Charger",
    "network": "Tesla",
    "operator": "Tesla",
    "parking:fee": "no",
    "ref": "dc63316",
    "socket:tesla_destination": "2",
    "socket:tesla_destination:output": "22kW",
    "socket:type2_cable": "2",
    "socket:type2_cable:output": "22kW",
    "website": "https://www.tesla.com/pt_PT/findus/list/chargers/Portugal"
  }
},
{
  "type": "node",
  "id": 8187046416,
  "lat": 38.5533545,
  "lon": -7.9701070,
  "tags": {
    "access": "customers",
    "addr:country": "PT",
    "amenity": "charging_station",
    "capacity": "4",
    "fee": "no",
    "motorcar": "yes",
    "name": "Tivoli Évora Ecoresort Tesla Destination Charger",
    "network": "Tesla",
    "operator": "Tesla",
    "parking:fee": "no",
    "ref": "dc33179",
    "socket:tesla_destination": "2",
    "socket:tesla_destination:output": "22kW",
    "socket:type2_cable": "2",
    "socket:type2_cable:output": "22kW",
    "website": "https://www.tesla.com/pt_PT/findus/list/chargers/Portugal"
  }
},
{
  "type": "node",
  "id": 8194489196,
  "lat": 38.5695075,
  "lon": -7.8863972,
  "tags": {
    "access": "customers",
    "addr:country": "PT",
    "amenity": "charging_station",
    "capacity": "2",
    "fee": "no",
    "motorcar": "yes",
    "name": "Graça Hotel Évora Tesla Destination Charger",
    "network": "Tesla",
    "operator": "Tesla",
    "parking:fee": "no",
    "ref": "dc57791",
    "socket:tesla_destination": "1",
    "socket:tesla_destination:output": "22kW",
    "socket:type2_cable": "1",
    "socket:type2_cable:output": "22kW",
    "website": "https://www.tesla.com/pt_PT/findus/list/chargers/Portugal"
  }
},
{
  "type": "node",
  "id": 8194571742,
  "lat": 38.6010964,
  "lon": -7.8884666,
  "tags": {
    "access": "customers",
    "addr:country": "PT",
    "amenity": "charging_station",
    "capacity": "4",
    "fee": "no",
    "motorcar": "yes",
    "name": "Convento do Espinheiro - Hotel & SPA Tesla Destination Charger",
    "network": "Tesla",
    "operator": "Tesla",
    "parking:fee": "no",
    "ref": "dc71519",
    "socket:tesla_destination": "2",
    "socket:tesla_destination:output": "22kW",
    "socket:type2_cable": "2",
    "socket:type2_cable:output": "22kW",
    "website": "https://www.tesla.com/pt_PT/findus/list/chargers/Portugal"
  }
},
{
  "type": "node",
  "id": 8194606324,
  "lat": 38.7772126,
  "lon": -7.4201998,
  "tags": {
    "access": "customers",
    "addr:country": "PT",
    "amenity": "charging_station",
    "capacity": "2",
    "fee": "no",
    "motorcar": "yes",
    "name": "Alentejo Marmoris Hotel and Spa Tesla Destination Charger",
    "network": "Tesla",
    "operator": "Tesla",
    "parking:fee": "no",
    "ref": "dc23951",
    "socket:tesla_destination": "1",
    "socket:tesla_destination:output": "22kW",
    "socket:type2_cable": "1",
    "socket:type2_cable:output": "22kW",
    "website": "https://www.tesla.com/pt_PT/findus/list/chargers/Portugal"
  }
},
{
  "type": "node",
  "id": 8194701121,
  "lat": 38.9209033,
  "lon": -7.1718259,
  "tags": {
    "access": "customers",
    "addr:country": "PT",
    "amenity": "charging_station",
    "capacity": "2",
    "fee": "no",
    "motorcar": "yes",
    "name": "Eco Hotel Rural Monte da Provenca Tesla Destination Charger",
    "network": "Tesla",
    "operator": "Tesla",
    "ref": "dc22047",
    "socket:tesla_destination": "1",
    "socket:tesla_destination:output": "22kW",
    "socket:type2_cable": "1",
    "socket:type2_cable:output": "22kW",
    "website": "https://www.tesla.com/pt_PT/findus/list/chargers/Portugal"
  }
},
{
  "type": "node",
  "id": 8194701122,
  "lat": 38.8394099,
  "lon": -7.5887458,
  "tags": {
    "access": "customers",
    "addr:country": "PT",
    "amenity": "charging_station",
    "capacity": "2",
    "fee": "no",
    "motorcar": "yes",
    "name": "Pateo dos Solares Charm Hotel Tesla Destination Charger",
    "network": "Tesla",
    "operator": "Tesla",
    "ref": "dc51406",
    "socket:tesla_destination": "1",
    "socket:tesla_destination:output": "11kW",
    "socket:type2_cable": "1",
    "socket:type2_cable:output": "11kW",
    "website": "https://www.tesla.com/pt_PT/findus/list/chargers/Portugal"
  }
},
{
  "type": "node",
  "id": 8194708438,
  "lat": 39.4085208,
  "lon": -7.4043989,
  "tags": {
    "access": "customers",
    "addr:country": "PT",
    "amenity": "charging_station",
    "capacity": "2",
    "fee": "no",
    "motorcar": "yes",
    "name": "Quinta da Saimeira Tesla Destination Charger",
    "network": "Tesla",
    "operator": "Tesla",
    "ref": "dc78778",
    "socket:tesla_destination": "1",
    "socket:tesla_destination:output": "11kW",
    "socket:type2_cable": "1",
    "socket:type2_cable:output": "11kW",
    "website": "https://www.tesla.com/pt_PT/findus/list/chargers/Portugal"
  }
},
{
  "type": "node",
  "id": 8194708439,
  "lat": 39.0683071,
  "lon": -7.4891594,
  "tags": {
    "access": "customers",
    "addr:country": "PT",
    "amenity": "charging_station",
    "capacity": "2",
    "fee": "no",
    "motorcar": "yes",
    "name": "Torre de Palma Wine Hotel Tesla Destination Charger",
    "network": "Tesla",
    "operator": "Tesla",
    "ref": "dc28756",
    "socket:tesla_destination": "1",
    "socket:tesla_destination:output": "11kW",
    "socket:type2_cable": "1",
    "socket:type2_cable:output": "11kW",
    "website": "https://www.tesla.com/pt_PT/findus/list/chargers/Portugal"
  }
},
{
  "type": "node",
  "id": 8198479998,
  "lat": 38.7018963,
  "lon": -9.4576152,
  "tags": {
    "access": "customers",
    "addr:country": "PT",
    "amenity": "charging_station",
    "capacity": "4",
    "fee": "no",
    "motorcar": "yes",
    "name": "Martinhal Family Hotels & Resorts - Cascais Tesla Destination Charger",
    "network": "Tesla",
    "operator": "Tesla",
    "ref": "dc71611",
    "socket:tesla_destination": "2",
    "socket:tesla_destination:output": "22kW",
    "socket:type2_cable": "2",
    "socket:type2_cable:output": "22kW",
    "website": "https://www.tesla.com/pt_PT/findus/list/chargers/Portugal"
  }
},
{
  "type": "node",
  "id": 8198482850,
  "lat": 38.7056316,
  "lon": -9.2442763,
  "tags": {
    "access": "customers",
    "addr:country": "PT",
    "amenity": "charging_station",
    "capacity": "6",
    "fee": "no",
    "motorcar": "yes",
    "name": "Solplay Hotel de Apartamentos Tesla Destination Charger",
    "network": "Tesla",
    "operator": "Tesla",
    "ref": "dc36502",
    "socket:tesla_destination": "3",
    "socket:tesla_destination:output": "22kW",
    "socket:type2_cable": "3",
    "socket:type2_cable:output": "22kW",
    "website": "https://www.tesla.com/pt_PT/findus/list/chargers/Portugal"
  }
},
{
  "type": "node",
  "id": 8198482851,
  "lat": 38.8003386,
  "lon": -9.3939100,
  "tags": {
    "access": "customers",
    "addr:country": "PT",
    "amenity": "charging_station",
    "capacity": "2",
    "fee": "no",
    "motorcar": "yes",
    "name": "Casa do Valle Tesla Destination Charger",
    "network": "Tesla",
    "operator": "Tesla",
    "ref": "dc38278",
    "socket:tesla_destination": "1",
    "socket:tesla_destination:output": "17kW",
    "socket:type2_cable": "1",
    "socket:type2_cable:output": "17kW",
    "website": "https://www.tesla.com/pt_PT/findus/list/chargers/Portugal"
  }
},
{
  "type": "node",
  "id": 8198482852,
  "lat": 38.7613202,
  "lon": -9.3966982,
  "tags": {
    "access": "customers",
    "addr:country": "PT",
    "amenity": "charging_station",
    "capacity": "2",
    "fee": "no",
    "motorcar": "yes",
    "name": "Penha Longa Resort Tesla Destination Charger",
    "network": "Tesla",
    "operator": "Tesla",
    "ref": "dc13862",
    "socket:tesla_destination": "1",
    "socket:tesla_destination:output": "11kW",
    "socket:type2_cable": "1",
    "socket:type2_cable:output": "11kW",
    "website": "https://www.tesla.com/pt_PT/findus/list/chargers/Portugal"
  }
},
{
  "type": "node",
  "id": 8198508190,
  "lat": 38.7024678,
  "lon": -9.4105437,
  "tags": {
    "access": "customers",
    "addr:country": "PT",
    "amenity": "charging_station",
    "capacity": "2",
    "fee": "no",
    "motorcar": "yes",
    "name": "Hotel Cascais Miragem Tesla Destination Charger",
    "network": "Tesla",
    "operator": "Tesla",
    "ref": "dc39779",
    "socket:tesla_destination": "1",
    "socket:tesla_destination:output": "22kW",
    "socket:type2_cable": "1",
    "socket:type2_cable:output": "22kW",
    "website": "https://www.tesla.com/pt_PT/findus/list/chargers/Portugal"
  }
},
{
  "type": "node",
  "id": 8198508191,
  "lat": 38.6974355,
  "lon": -9.4201072,
  "tags": {
    "access": "customers",
    "addr:country": "PT",
    "amenity": "charging_station",
    "capacity": "2",
    "fee": "no",
    "motorcar": "yes",
    "name": "Hotel Baia Tesla Destination Charger",
    "network": "Tesla",
    "operator": "Tesla",
    "ref": "dc40000",
    "socket:tesla_destination": "1",
    "socket:tesla_destination:output": "17kW",
    "socket:type2_cable": "1",
    "socket:type2_cable:output": "17kW",
    "website": "https://www.tesla.com/pt_PT/findus/list/chargers/Portugal"
  }
},
{
  "type": "node",
  "id": 8198550881,
  "lat": 39.2351311,
  "lon": -8.6761851,
  "tags": {
    "access": "customers",
    "addr:country": "PT",
    "amenity": "charging_station",
    "capacity": "4",
    "fee": "no",
    "motorcar": "yes",
    "name": "Casa da Alcaçova Tesla Destination Charger",
    "network": "Tesla",
    "operator": "Tesla",
    "ref": "dc34240",
    "socket:tesla_destination": "2",
    "socket:tesla_destination:output": "22kW",
    "socket:type2_cable": "2",
    "socket:type2_cable:output": "22kW",
    "website": "https://www.tesla.com/pt_PT/findus/list/chargers/Portugal"
  }
},
{
  "type": "node",
  "id": 8198550882,
  "lat": 39.2329221,
  "lon": -8.6833030,
  "tags": {
    "access": "customers",
    "addr:country": "PT",
    "amenity": "charging_station",
    "capacity": "2",
    "fee": "no",
    "motorcar": "yes",
    "name": "Restaurante O Micas II Tesla Destination Charger",
    "network": "Tesla",
    "operator": "Tesla",
    "ref": "dc49977",
    "socket:tesla_destination": "1",
    "socket:tesla_destination:output": "22kW",
    "socket:type2_cable": "1",
    "socket:type2_cable:output": "22kW",
    "website": "https://www.tesla.com/pt_PT/findus/list/chargers/Portugal"
  }
},
{
  "type": "node",
  "id": 8198550883,
  "lat": 39.1793061,
  "lon": -9.3548785,
  "tags": {
    "access": "customers",
    "addr:country": "PT",
    "amenity": "charging_station",
    "capacity": "2",
    "fee": "no",
    "motorcar": "yes",
    "name": "Hotel Golf Mar Tesla Destination Charger",
    "network": "Tesla",
    "operator": "Tesla",
    "ref": "dc52749",
    "socket:tesla_destination": "1",
    "socket:tesla_destination:output": "22kW",
    "socket:type2_cable": "1",
    "socket:type2_cable:output": "22kW",
    "website": "https://www.tesla.com/pt_PT/findus/list/chargers/Portugal"
  }
},
{
  "type": "node",
  "id": 8198572859,
  "lat": 38.7047378,
  "lon": -9.3968430,
  "tags": {
    "access": "customers",
    "addr:country": "PT",
    "amenity": "charging_station",
    "capacity": "2",
    "fee": "no",
    "motorcar": "yes",
    "name": "Palacio Estoril Hotel Golf & Spa Tesla Destination Charger",
    "network": "Tesla",
    "operator": "Tesla",
    "ref": "dc9595",
    "socket:tesla_destination": "1",
    "socket:tesla_destination:output": "22kW",
    "socket:type2_cable": "1",
    "socket:type2_cable:output": "22kW",
    "website": "https://www.tesla.com/pt_PT/findus/list/chargers/Portugal"
  }
},
{
  "type": "node",
  "id": 8198572860,
  "lat": 38.7043506,
  "lon": -9.4058391,
  "tags": {
    "access": "customers",
    "addr:country": "PT",
    "amenity": "charging_station",
    "capacity": "2",
    "fee": "no",
    "motorcar": "yes",
    "name": "Intercontinental Estoril Tesla Destination Charger",
    "network": "Tesla",
    "operator": "Tesla",
    "ref": "dc25021",
    "socket:tesla_destination": "1",
    "socket:tesla_destination:output": "11kW",
    "socket:type2_cable": "1",
    "socket:type2_cable:output": "11kW",
    "website": "https://www.tesla.com/pt_PT/findus/list/chargers/Portugal"
  }
},
{
  "type": "node",
  "id": 8198583025,
  "lat": 38.7035332,
  "lon": -9.1866758,
  "tags": {
    "access": "customers",
    "addr:country": "PT",
    "amenity": "charging_station",
    "capacity": "2",
    "fee": "no",
    "motorcar": "yes",
    "name": "Pestana Palace Lisboa Tesla Destination Charger",
    "network": "Tesla",
    "operator": "Tesla",
    "ref": "dc33017",
    "socket:tesla_destination": "1",
    "socket:tesla_destination:output": "11kW",
    "socket:type2_cable": "1",
    "socket:type2_cable:output": "11kW",
    "website": "https://www.tesla.com/pt_PT/findus/list/chargers/Portugal"
  }
},
{
  "type": "node",
  "id": 8198583026,
  "lat": 38.6932581,
  "lon": -9.2108037,
  "tags": {
    "access": "customers",
    "addr:country": "PT",
    "amenity": "charging_station",
    "capacity": "2",
    "fee": "no",
    "motorcar": "yes",
    "name": "Altis Belem Hotel & Spa Tesla Destination Charger",
    "network": "Tesla",
    "operator": "Tesla",
    "ref": "dc9590",
    "socket:tesla_destination": "1",
    "socket:tesla_destination:output": "22kW",
    "socket:type2_cable": "1",
    "socket:type2_cable:output": "22kW",
    "website": "https://www.tesla.com/pt_PT/findus/list/chargers/Portugal"
  }
},
{
  "type": "node",
  "id": 8198602709,
  "lat": 38.7219100,
  "lon": -9.1493341,
  "tags": {
    "access": "customers",
    "addr:country": "PT",
    "amenity": "charging_station",
    "capacity": "4",
    "fee": "no",
    "motorcar": "yes",
    "name": "Hotel Vincci Liberdade Tesla Destination Charger",
    "network": "Tesla",
    "operator": "Tesla",
    "ref": "dc22787",
    "socket:tesla_destination": "2",
    "socket:tesla_destination:output": "11kW",
    "socket:type2_cable": "2",
    "socket:type2_cable:output": "11kW",
    "website": "https://www.tesla.com/pt_PT/findus/list/chargers/Portugal"
  }
},
{
  "type": "node",
  "id": 8198602710,
  "lat": 38.7169534,
  "lon": -9.1433783,
  "tags": {
    "access": "customers",
    "addr:country": "PT",
    "amenity": "charging_station",
    "capacity": "2",
    "fee": "no",
    "motorcar": "yes",
    "name": "BessaHotel Liberdade Tesla Destination Charger",
    "network": "Tesla",
    "operator": "Tesla",
    "ref": "dc14400",
    "socket:tesla_destination": "2",
    "socket:tesla_destination:output": "22kW",
    "socket:type2_cable": "2",
    "socket:type2_cable:output": "22kW",
    "website": "https://www.tesla.com/pt_PT/findus/list/chargers/Portugal"
  }
},
{
  "type": "node",
  "id": 8198602711,
  "lat": 38.7067828,
  "lon": -9.1638295,
  "tags": {
    "access": "customers",
    "addr:country": "PT",
    "amenity": "charging_station",
    "capacity": "2",
    "fee": "no",
    "motorcar": "yes",
    "name": "Olissippo Lapa Palace Tesla Destination Charger",
    "network": "Tesla",
    "operator": "Tesla",
    "ref": "dc9596",
    "socket:tesla_destination": "1",
    "socket:tesla_destination:output": "22kW",
    "socket:type2_cable": "1",
    "socket:type2_cable:output": "22kW",
    "website": "https://www.tesla.com/pt_PT/findus/list/chargers/Portugal"
  }
},
{
  "type": "node",
  "id": 8198605471,
  "lat": 38.7338412,
  "lon": -9.1538309,
  "tags": {
    "access": "customers",
    "addr:country": "PT",
    "amenity": "charging_station",
    "capacity": "4",
    "fee": "no",
    "motorcar": "yes",
    "name": "El Corte Ingles Lisboa Tesla Destination Charger",
    "network": "Tesla",
    "operator": "Tesla",
    "ref": "dc33466",
    "socket:tesla_destination": "2",
    "socket:tesla_destination:output": "17kW",
    "socket:type2_cable": "2",
    "socket:type2_cable:output": "17kW",
    "website": "https://www.tesla.com/pt_PT/findus/list/chargers/Portugal"
  }
},
{
  "type": "node",
  "id": 8198605472,
  "lat": 38.7264140,
  "lon": -9.1471129,
  "tags": {
    "access": "customers",
    "addr:country": "PT",
    "amenity": "charging_station",
    "capacity": "2",
    "fee": "no",
    "motorcar": "yes",
    "name": "H10 Duque de Loule Tesla Destination Charger",
    "network": "Tesla",
    "operator": "Tesla",
    "ref": "dc24156",
    "socket:tesla_destination": "1",
    "socket:tesla_destination:output": "22kW",
    "socket:type2_cable": "1",
    "socket:type2_cable:output": "22kW",
    "website": "https://www.tesla.com/pt_PT/findus/list/chargers/Portugal"
  }
},
{
  "type": "node",
  "id": 8198636078,
  "lat": 38.7395853,
  "lon": -9.1458607,
  "tags": {
    "access": "customers",
    "addr:country": "PT",
    "amenity": "charging_station",
    "capacity": "2",
    "fee": "no",
    "motorcar": "yes",
    "name": "Jupiter Lisboa Hotel Tesla Destination Charger",
    "network": "Tesla",
    "operator": "Tesla",
    "ref": "dc39674",
    "socket:tesla_destination": "1",
    "socket:tesla_destination:output": "11kW",
    "socket:type2_cable": "1",
    "socket:type2_cable:output": "11kW",
    "website": "https://www.tesla.com/pt_PT/findus/list/chargers/Portugal"
  }
},
{
  "type": "node",
  "id": 8198651865,
  "lat": 38.7702774,
  "lon": -9.1254061,
  "tags": {
    "access": "customers",
    "addr:country": "PT",
    "amenity": "charging_station",
    "capacity": "2",
    "fee": "no",
    "motorcar": "yes",
    "name": "Hotel Tryp Lisboa Aeroporto Tesla Destination Charger",
    "network": "Tesla",
    "operator": "Tesla",
    "ref": "dc25879",
    "socket:tesla_destination": "1",
    "socket:tesla_destination:output": "11kW",
    "socket:type2_cable": "1",
    "socket:type2_cable:output": "11kW",
    "website": "https://www.tesla.com/pt_PT/findus/list/chargers/Portugal"
  }
},
{
  "type": "node",
  "id": 8198651866,
  "lat": 38.7706643,
  "lon": -9.1252479,
  "tags": {
    "access": "customers",
    "addr:country": "PT",
    "amenity": "charging_station",
    "capacity": "2",
    "fee": "no",
    "motorcar": "yes",
    "name": "Hotel Star inn Lisbon Tesla Destination Charger",
    "network": "Tesla",
    "operator": "Tesla",
    "ref": "dc25880",
    "socket:tesla_destination": "1",
    "socket:tesla_destination:output": "17kW",
    "socket:type2_cable": "1",
    "socket:type2_cable:output": "17kW",
    "website": "https://www.tesla.com/pt_PT/findus/list/chargers/Portugal"
  }
},
{
  "type": "node",
  "id": 8198651867,
  "lat": 38.7396418,
  "lon": -9.1241696,
  "tags": {
    "access": "customers",
    "addr:country": "PT",
    "amenity": "charging_station",
    "capacity": "2",
    "fee": "no",
    "motorcar": "yes",
    "name": "Olaias Park Hotel Tesla Destination Charger",
    "network": "Tesla",
    "operator": "Tesla",
    "ref": "dc33540",
    "socket:tesla_destination": "1",
    "socket:tesla_destination:output": "22kW",
    "socket:type2_cable": "1",
    "socket:type2_cable:output": "22kW",
    "website": "https://www.tesla.com/pt_PT/findus/list/chargers/Portugal"
  }
},
{
  "type": "node",
  "id": 8198652345,
  "lat": 39.0376301,
  "lon": -9.2400934,
  "tags": {
    "access": "customers",
    "addr:country": "PT",
    "amenity": "charging_station",
    "capacity": "4",
    "fee": "no",
    "motorcar": "yes",
    "name": "Dolce CampoReal Lisboa Tesla Destination Charger",
    "network": "Tesla",
    "operator": "Tesla",
    "ref": "dc38685",
    "socket:tesla_destination": "2",
    "socket:tesla_destination:output": "22kW",
    "socket:type2_cable": "2",
    "socket:type2_cable:output": "22kW",
    "website": "https://www.tesla.com/pt_PT/findus/list/chargers/Portugal"
  }
},
{
  "type": "node",
  "id": 8198652346,
  "lat": 38.7695136,
  "lon": -9.0982595,
  "tags": {
    "access": "customers",
    "addr:country": "PT",
    "amenity": "charging_station",
    "capacity": "2",
    "fee": "no",
    "motorcar": "yes",
    "name": "Hotel Tryp Oriente Tesla Destination Charger",
    "network": "Tesla",
    "operator": "Tesla",
    "ref": "dc45846",
    "socket:tesla_destination": "1",
    "socket:tesla_destination:output": "17kW",
    "socket:type2_cable": "1",
    "socket:type2_cable:output": "17kW",
    "website": "https://www.tesla.com/pt_PT/findus/list/chargers/Portugal"
  }
},
{
  "type": "node",
  "id": 8198711839,
  "lat": 39.3628285,
  "lon": -9.3360642,
  "tags": {
    "access": "customers",
    "addr:country": "PT",
    "amenity": "charging_station",
    "capacity": "2",
    "fee": "no",
    "motorcar": "yes",
    "name": "Ride Resort - Action Resort & SPA Tesla Destination Charger",
    "network": "Tesla",
    "operator": "Tesla",
    "ref": "dc55709",
    "socket:tesla_destination": "1",
    "socket:tesla_destination:output": "22kW",
    "socket:type2_cable": "1",
    "socket:type2_cable:output": "22kW",
    "website": "https://www.tesla.com/pt_PT/findus/list/chargers/Portugal"
  }
},
{
  "type": "node",
  "id": 8198711840,
  "lat": 39.3571577,
  "lon": -9.3630740,
  "tags": {
    "access": "customers",
    "addr:country": "PT",
    "amenity": "charging_station",
    "capacity": "4",
    "fee": "no",
    "motorcar": "yes",
    "name": "MH Peniche Tesla Destination Charger",
    "network": "Tesla",
    "operator": "Tesla",
    "ref": "dc76495",
    "socket:tesla_destination": "2",
    "socket:tesla_destination:output": "22kW",
    "socket:type2_cable": "2",
    "socket:type2_cable:output": "22kW",
    "website": "https://www.tesla.com/pt_PT/findus/list/chargers/Portugal"
  }
},
{
  "type": "node",
  "id": 8198894641,
  "lat": 39.4050925,
  "lon": -9.2406915,
  "tags": {
    "access": "customers",
    "addr:country": "PT",
    "amenity": "charging_station",
    "capacity": "2",
    "fee": "no",
    "motorcar": "yes",
    "name": "Royal Óbidos Spa & Golf Resort Tesla Destination Charger",
    "network": "Tesla",
    "operator": "Tesla",
    "ref": "dc61074",
    "socket:tesla_destination": "1",
    "socket:tesla_destination:output": "22kW",
    "socket:type2_cable": "1",
    "socket:type2_cable:output": "22kW",
    "website": "https://www.tesla.com/pt_PT/findus/list/chargers/Portugal"
  }
},
{
  "type": "node",
  "id": 8198894642,
  "lat": 39.3860148,
  "lon": -9.1958463,
  "tags": {
    "access": "customers",
    "addr:country": "PT",
    "amenity": "charging_station",
    "capacity": "2",
    "fee": "no",
    "motorcar": "yes",
    "name": "Hotel Rio do Prado Tesla Destination Charger",
    "network": "Tesla",
    "operator": "Tesla",
    "ref": "dc33152",
    "socket:tesla_destination": "1",
    "socket:tesla_destination:output": "22kW",
    "socket:type2_cable": "1",
    "socket:type2_cable:output": "22kW",
    "website": "https://www.tesla.com/pt_PT/findus/list/chargers/Portugal"
  }
},
{
  "type": "node",
  "id": 8198894643,
  "lat": 39.3821065,
  "lon": -9.2460801,
  "tags": {
    "access": "customers",
    "addr:country": "PT",
    "amenity": "charging_station",
    "capacity": "2",
    "fee": "no",
    "motorcar": "yes",
    "name": "Bom Sucesso Resort Tesla Destination Charger",
    "network": "Tesla",
    "operator": "Tesla",
    "ref": "dc48648",
    "socket:tesla_destination": "1",
    "socket:tesla_destination:output": "11kW",
    "socket:type2_cable": "1",
    "socket:type2_cable:output": "11kW",
    "website": "https://www.tesla.com/pt_PT/findus/list/chargers/Portugal"
  }
},
{
  "type": "node",
  "id": 8198894644,
  "lat": 39.3897716,
  "lon": -9.2878810,
  "tags": {
    "access": "customers",
    "addr:country": "PT",
    "amenity": "charging_station",
    "capacity": "2",
    "fee": "no",
    "motorcar": "yes",
    "name": "Hotel Marriott Praia D'El Rey Tesla Destination Charger",
    "network": "Tesla",
    "operator": "Tesla",
    "ref": "dc31576",
    "socket:tesla_destination": "1",
    "socket:tesla_destination:output": "22kW",
    "socket:type2_cable": "1",
    "socket:type2_cable:output": "22kW",
    "website": "https://www.tesla.com/pt_PT/findus/list/chargers/Portugal"
  }
},
{
  "type": "node",
  "id": 8198915433,
  "lat": 39.4102678,
  "lon": -8.9629313,
  "tags": {
    "access": "customers",
    "addr:country": "PT",
    "amenity": "charging_station",
    "capacity": "2",
    "fee": "no",
    "motorcar": "yes",
    "name": "Restaurante O Bigodes Tesla Destination Charger",
    "network": "Tesla",
    "operator": "Tesla",
    "ref": "dc62260",
    "socket:tesla_destination": "1",
    "socket:tesla_destination:output": "11kW",
    "socket:type2_cable": "1",
    "socket:type2_cable:output": "11kW",
    "website": "https://www.tesla.com/pt_PT/findus/list/chargers/Portugal"
  }
},
{
  "type": "node",
  "id": 8198915434,
  "lat": 39.3638992,
  "lon": -8.9460627,
  "tags": {
    "access": "customers",
    "addr:country": "PT",
    "amenity": "charging_station",
    "capacity": "2",
    "fee": "no",
    "motorcar": "yes",
    "name": "SALARIUM Sal & Sabores Tesla Destination Charger",
    "network": "Tesla",
    "operator": "Tesla",
    "ref": "dc30217",
    "socket:tesla_destination": "1",
    "socket:tesla_destination:output": "22kW",
    "socket:type2_cable": "1",
    "socket:type2_cable:output": "22kW",
    "website": "https://www.tesla.com/pt_PT/findus/list/chargers/Portugal"
  }
},
{
  "type": "node",
  "id": 8198915435,
  "lat": 39.3376258,
  "lon": -8.9389339,
  "tags": {
    "access": "customers",
    "addr:country": "PT",
    "amenity": "charging_station",
    "capacity": "2",
    "fee": "no",
    "motorcar": "yes",
    "name": "Casa do Foral Tesla Destination Charger",
    "network": "Tesla",
    "operator": "Tesla",
    "ref": "dc52974",
    "socket:tesla_destination": "1",
    "socket:tesla_destination:output": "17kW",
    "socket:type2_cable": "1",
    "socket:type2_cable:output": "17kW",
    "website": "https://www.tesla.com/pt_PT/findus/list/chargers/Portugal"
  }
},
{
  "type": "node",
  "id": 8198922935,
  "lat": 39.4566031,
  "lon": -8.6677972,
  "tags": {
    "access": "customers",
    "addr:country": "PT",
    "amenity": "charging_station",
    "capacity": "2",
    "fee": "no",
    "motorcar": "yes",
    "name": "Hotel Eurosol Alcanena Tesla Destination Charger",
    "network": "Tesla",
    "operator": "Tesla",
    "ref": "dc39351",
    "socket:tesla_destination": "1",
    "socket:tesla_destination:output": "11kW",
    "socket:type2_cable": "1",
    "socket:type2_cable:output": "11kW",
    "website": "https://www.tesla.com/pt_PT/findus/list/chargers/Portugal"
  }
},
{
  "type": "node",
  "id": 8198922936,
  "lat": 39.4027614,
  "lon": -8.4881052,
  "tags": {
    "access": "customers",
    "addr:country": "PT",
    "amenity": "charging_station",
    "capacity": "2",
    "fee": "no",
    "motorcar": "yes",
    "name": "Hotel Lusitano Tesla Destination Charger",
    "network": "Tesla",
    "operator": "Tesla",
    "ref": "dc41349",
    "socket:tesla_destination": "1",
    "socket:tesla_destination:output": "22kW",
    "socket:type2_cable": "1",
    "socket:type2_cable:output": "22kW",
    "website": "https://www.tesla.com/pt_PT/findus/list/chargers/Portugal"
  }
},
{
  "type": "node",
  "id": 8198940839,
  "lat": 39.8518308,
  "lon": -8.8674407,
  "tags": {
    "access": "customers",
    "addr:country": "PT",
    "amenity": "charging_station",
    "capacity": "4",
    "fee": "no",
    "motorcar": "yes",
    "name": "Palace Hotel Monte Real Tesla Destination Charger",
    "network": "Tesla",
    "operator": "Tesla",
    "ref": "dc33585",
    "socket:tesla_destination": "1",
    "socket:tesla_destination:output": "11kW",
    "socket:type2_cable": "2",
    "socket:type2_cable:output": "11kW",
    "website": "https://www.tesla.com/pt_PT/findus/list/chargers/Portugal"
  }
},
{
  "type": "node",
  "id": 8198940840,
  "lat": 39.8075378,
  "lon": -8.8426832,
  "tags": {
    "access": "customers",
    "addr:country": "PT",
    "amenity": "charging_station",
    "capacity": "2",
    "fee": "no",
    "motorcar": "yes",
    "name": "Lisotel Hotel & Spa Tesla Destination Charger",
    "network": "Tesla",
    "operator": "Tesla",
    "ref": "dc24817",
    "socket:tesla_destination": "1",
    "socket:tesla_destination:output": "22kW",
    "socket:type2_cable": "1",
    "socket:type2_cable:output": "22kW",
    "website": "https://www.tesla.com/pt_PT/findus/list/chargers/Portugal"
  }
},
{
  "type": "node",
  "id": 8198940841,
  "lat": 39.7537327,
  "lon": -8.8131798,
  "tags": {
    "access": "customers",
    "addr:country": "PT",
    "amenity": "charging_station",
    "capacity": "2",
    "fee": "no",
    "motorcar": "yes",
    "name": "Hotel Tryp Leiria Tesla Destination Charger",
    "network": "Tesla",
    "operator": "Tesla",
    "ref": "dc51425",
    "socket:tesla_destination": "1",
    "socket:tesla_destination:output": "17kW",
    "socket:type2_cable": "1",
    "socket:type2_cable:output": "17kW",
    "website": "https://www.tesla.com/pt_PT/findus/list/chargers/Portugal"
  }
},
{
  "type": "node",
  "id": 8198947932,
  "lat": 39.7457170,
  "lon": -8.8030831,
  "tags": {
    "access": "customers",
    "addr:country": "PT",
    "amenity": "charging_station",
    "capacity": "2",
    "fee": "no",
    "motorcar": "yes",
    "name": "Hotel Eurosol Residence Tesla Destination Charger",
    "network": "Tesla",
    "operator": "Tesla",
    "ref": "dc39350",
    "socket:tesla_destination": "1",
    "socket:tesla_destination:output": "11kW",
    "socket:type2_cable": "1",
    "socket:type2_cable:output": "11kW",
    "website": "https://www.tesla.com/pt_PT/findus/list/chargers/Portugal"
  }
},
{
  "type": "node",
  "id": 8198947933,
  "lat": 39.7396756,
  "lon": -8.8101024,
  "tags": {
    "access": "customers",
    "addr:country": "PT",
    "amenity": "charging_station",
    "capacity": "2",
    "fee": "no",
    "motorcar": "yes",
    "name": "Hotel Eurosol LEIRIA & JARDIM - Tesla Destination Charger",
    "network": "Tesla",
    "operator": "Tesla",
    "ref": "dc39353",
    "socket:tesla_destination": "1",
    "socket:tesla_destination:output": "11kW",
    "socket:type2_cable": "1",
    "socket:type2_cable:output": "11kW",
    "website": "https://www.tesla.com/pt_PT/findus/list/chargers/Portugal"
  }
},
{
  "type": "node",
  "id": 8198947934,
  "lat": 39.6292181,
  "lon": -8.6735377,
  "tags": {
    "access": "customers",
    "addr:country": "PT",
    "amenity": "charging_station",
    "capacity": "2",
    "fee": "no",
    "motorcar": "yes",
    "name": "Hotel Estrela de Fátima Tesla Destination Charger",
    "network": "Tesla",
    "operator": "Tesla",
    "ref": "dc24335",
    "socket:tesla_destination": "1",
    "socket:tesla_destination:output": "22kW",
    "socket:type2_cable": "1",
    "socket:type2_cable:output": "22kW",
    "website": "https://www.tesla.com/pt_PT/findus/list/chargers/Portugal"
  }
},
{
  "type": "node",
  "id": 8198947935,
  "lat": 39.6280607,
  "lon": -8.6750190,
  "tags": {
    "access": "customers",
    "addr:country": "PT",
    "amenity": "charging_station",
    "capacity": "2",
    "fee": "no",
    "motorcar": "yes",
    "name": "Hotel Cruz Alta Tesla Destination Charger",
    "network": "Tesla",
    "operator": "Tesla",
    "ref": "dc26243",
    "socket:tesla_destination": "1",
    "socket:tesla_destination:output": "22kW",
    "socket:type2_cable": "1",
    "socket:type2_cable:output": "22kW",
    "website": "https://www.tesla.com/pt_PT/findus/list/chargers/Portugal"
  }
},
{
  "type": "node",
  "id": 8198947936,
  "lat": 39.5487821,
  "lon": -8.5247952,
  "tags": {
    "access": "customers",
    "addr:country": "PT",
    "amenity": "charging_station",
    "capacity": "2",
    "fee": "no",
    "motorcar": "yes",
    "name": "Casa Das Rendufas- Turismo Rural Com Figos Tesla Destination Charger",
    "network": "Tesla",
    "operator": "Tesla",
    "ref": "dc39359",
    "socket:tesla_destination": "1",
    "socket:tesla_destination:output": "11kW",
    "socket:type2_cable": "1",
    "socket:type2_cable:output": "11kW",
    "website": "https://www.tesla.com/pt_PT/findus/list/chargers/Portugal"
  }
},
{
  "type": "node",
  "id": 8198947937,
  "lat": 39.5035833,
  "lon": -9.1047907,
  "tags": {
    "access": "customers",
    "addr:country": "PT",
    "amenity": "charging_station",
    "capacity": "2",
    "fee": "no",
    "motorcar": "yes",
    "name": "Quinta das Soizas Tesla Destination Charger",
    "network": "Tesla",
    "operator": "Tesla",
    "ref": "dc54375",
    "socket:tesla_destination": "1",
    "socket:tesla_destination:output": "17kW",
    "socket:type2_cable": "1",
    "socket:type2_cable:output": "17kW",
    "website": "https://www.tesla.com/pt_PT/findus/list/chargers/Portugal"
  }
},
{
  "type": "node",
  "id": 8198991155,
  "lat": 40.4184625,
  "lon": -7.7051148,
  "tags": {
    "access": "customers",
    "addr:country": "PT",
    "amenity": "charging_station",
    "capacity": "2",
    "fee": "no",
    "motorcar": "yes",
    "name": "Hotel Eurosol Seia Camelo Tesla Destination Charger",
    "network": "Tesla",
    "operator": "Tesla",
    "ref": "dc39354",
    "socket:tesla_destination": "1",
    "socket:tesla_destination:output": "11kW",
    "socket:type2_cable": "1",
    "socket:type2_cable:output": "11kW",
    "website": "https://www.tesla.com/pt_PT/findus/list/chargers/Portugal"
  }
},
{
  "type": "node",
  "id": 8198991156,
  "lat": 40.4111883,
  "lon": -8.0417454,
  "tags": {
    "access": "customers",
    "addr:country": "PT",
    "amenity": "charging_station",
    "capacity": "2",
    "fee": "no",
    "motorcar": "yes",
    "name": "Parque de Campismo - Vitor M. P. Silva Tesla Destination Charger",
    "network": "Tesla",
    "operator": "Tesla",
    "ref": "dc32807",
    "socket:tesla_destination": "1",
    "socket:tesla_destination:output": "22kW",
    "socket:type2_cable": "1",
    "socket:type2_cable:output": "22kW",
    "website": "https://www.tesla.com/pt_PT/findus/list/chargers/Portugal"
  }
},
{
  "type": "node",
  "id": 8198991157,
  "lat": 40.3899291,
  "lon": -8.4512195,
  "tags": {
    "access": "customers",
    "addr:country": "PT",
    "amenity": "charging_station",
    "capacity": "2",
    "fee": "no",
    "motorcar": "yes",
    "name": "Rei dos Leitões Tesla Destination Charger",
    "network": "Tesla",
    "operator": "Tesla",
    "ref": "dc60047",
    "socket:tesla_destination": "1",
    "socket:tesla_destination:output": "22kW",
    "socket:type2_cable": "1",
    "socket:type2_cable:output": "22kW",
    "website": "https://www.tesla.com/pt_PT/findus/list/chargers/Portugal"
  }
},
{
  "type": "node",
  "id": 8198991158,
  "lat": 40.3848047,
  "lon": -8.3782661,
  "tags": {
    "access": "customers",
    "addr:country": "PT",
    "amenity": "charging_station",
    "capacity": "4",
    "fee": "no",
    "motorcar": "yes",
    "name": "Grande Hotel de Luso Tesla Destination Charger",
    "network": "Tesla",
    "operator": "Tesla",
    "ref": "dc54546",
    "socket:tesla_destination": "2",
    "socket:tesla_destination:output": "11kW",
    "socket:type2_cable": "2",
    "socket:type2_cable:output": "11kW",
    "website": "https://www.tesla.com/pt_PT/findus/list/chargers/Portugal"
  }
},
{
  "type": "node",
  "id": 8198991159,
  "lat": 40.3260149,
  "lon": -7.8419718,
  "tags": {
    "access": "customers",
    "addr:country": "PT",
    "amenity": "charging_station",
    "capacity": "2",
    "fee": "no",
    "motorcar": "yes",
    "name": "Aqua Village Health Resort & Spa Tesla Destination Charger",
    "network": "Tesla",
    "operator": "Tesla",
    "ref": "dc40363",
    "socket:tesla_destination": "1",
    "socket:tesla_destination:output": "22kW",
    "socket:type2_cable": "1",
    "socket:type2_cable:output": "22kW",
    "website": "https://www.tesla.com/pt_PT/findus/list/chargers/Portugal"
  }
},
{
  "type": "node",
  "id": 8198991160,
  "lat": 40.2656169,
  "lon": -7.6243146,
  "tags": {
    "access": "customers",
    "addr:country": "PT",
    "amenity": "charging_station",
    "capacity": "5",
    "fee": "no",
    "motorcar": "yes",
    "name": "H2otel Congress & Medical Spa Tesla Destination Charger",
    "network": "Tesla",
    "operator": "Tesla",
    "ref": "dc40417",
    "socket:tesla_destination": "1",
    "socket:tesla_destination:output": "22kW",
    "socket:type2_cable": "2",
    "socket:type2_cable:output": "22kW",
    "website": "https://www.tesla.com/pt_PT/findus/list/chargers/Portugal"
  }
},
{
  "type": "node",
  "id": 8198991161,
  "lat": 40.0837541,
  "lon": -8.3353213,
  "tags": {
    "access": "customers",
    "addr:country": "PT",
    "amenity": "charging_station",
    "capacity": "2",
    "fee": "no",
    "motorcar": "yes",
    "name": "Hotel Parque Serra da Lousã Tesla Destination Charger",
    "network": "Tesla",
    "operator": "Tesla",
    "ref": "dc38416",
    "socket:tesla_destination": "1",
    "socket:tesla_destination:output": "22kW",
    "socket:type2_cable": "1",
    "socket:type2_cable:output": "22kW",
    "website": "https://www.tesla.com/pt_PT/findus/list/chargers/Portugal"
  }
},
{
  "type": "node",
  "id": 8198991162,
  "lat": 40.0232437,
  "lon": -8.3748221,
  "tags": {
    "access": "customers",
    "addr:country": "PT",
    "amenity": "charging_station",
    "capacity": "2",
    "fee": "no",
    "motorcar": "yes",
    "name": "Duecitania Design Hotel Tesla Destination Charger",
    "network": "Tesla",
    "operator": "Tesla",
    "ref": "dc19358",
    "socket:tesla_destination": "1",
    "socket:tesla_destination:output": "11kW",
    "socket:type2_cable": "1",
    "socket:type2_cable:output": "11kW",
    "website": "https://www.tesla.com/pt_PT/findus/list/chargers/Portugal"
  }
},
{
  "type": "node",
  "id": 8198991163,
  "lat": 39.8782878,
  "lon": -8.6096750,
  "tags": {
    "access": "customers",
    "addr:country": "PT",
    "amenity": "charging_station",
    "capacity": "2",
    "fee": "no",
    "motorcar": "yes",
    "name": "Acquavilla House Tesla Destination Charger",
    "network": "Tesla",
    "operator": "Tesla",
    "ref": "dc56828",
    "socket:tesla_destination": "1",
    "socket:tesla_destination:output": "17kW",
    "socket:type2_cable": "1",
    "socket:type2_cable:output": "17kW",
    "website": "https://www.tesla.com/pt_PT/findus/list/chargers/Portugal"
  }
},
{
  "type": "node",
  "id": 8199071702,
  "lat": 40.6146691,
  "lon": -6.8275899,
  "tags": {
    "access": "customers",
    "addr:country": "PT",
    "amenity": "charging_station",
    "capacity": "3",
    "fee": "no",
    "motorcar": "yes",
    "name": "Quinta do Prado Verde Tesla Destination Charger",
    "network": "Tesla",
    "operator": "Tesla",
    "ref": "dc70194",
    "socket:tesla_destination": "1",
    "socket:tesla_destination:output": "22kW",
    "socket:type2_cable": "1",
    "socket:type2_cable:output": "22kW",
    "website": "https://www.tesla.com/pt_PT/findus/list/chargers/Portugal"
  }
},
{
  "type": "node",
  "id": 8199071703,
  "lat": 40.4955361,
  "lon": -7.5923869,
  "tags": {
    "access": "customers",
    "addr:country": "PT",
    "amenity": "charging_station",
    "capacity": "2",
    "fee": "no",
    "motorcar": "yes",
    "name": "Eurosol Gouveia Tesla Destination Charger",
    "network": "Tesla",
    "operator": "Tesla",
    "ref": "dc39352",
    "socket:tesla_destination": "1",
    "socket:tesla_destination:output": "11kW",
    "socket:type2_cable": "1",
    "socket:type2_cable:output": "11kW",
    "website": "https://www.tesla.com/pt_PT/findus/list/chargers/Portugal"
  }
},
{
  "type": "node",
  "id": 8199164856,
  "lat": 40.7143096,
  "lon": -8.1199707,
  "tags": {
    "access": "customers",
    "addr:country": "PT",
    "amenity": "charging_station",
    "capacity": "2",
    "fee": "no",
    "motorcar": "yes",
    "name": "Quinta Do Fontelo Tesla Destination Charger",
    "network": "Tesla",
    "operator": "Tesla",
    "ref": "dc23538",
    "socket:tesla_destination": "1",
    "socket:tesla_destination:output": "22kW",
    "socket:type2_cable": "1",
    "socket:type2_cable:output": "22kW",
    "website": "https://www.tesla.com/pt_PT/findus/list/chargers/Portugal"
  }
},
{
  "type": "node",
  "id": 8199164857,
  "lat": 40.6383585,
  "lon": -8.6451891,
  "tags": {
    "access": "customers",
    "addr:country": "PT",
    "amenity": "charging_station",
    "capacity": "2",
    "fee": "no",
    "motorcar": "yes",
    "name": "Melia Ria Hotel & Spa Tesla Destination Charger",
    "network": "Tesla",
    "operator": "Tesla",
    "ref": "dc54232",
    "socket:tesla_destination": "1",
    "socket:tesla_destination:output": "17kW",
    "socket:type2_cable": "1",
    "socket:type2_cable:output": "17kW",
    "website": "https://www.tesla.com/pt_PT/findus/list/chargers/Portugal"
  }
},
{
  "type": "node",
  "id": 8199164858,
  "lat": 40.6034321,
  "lon": -8.6729081,
  "tags": {
    "access": "customers",
    "addr:country": "PT",
    "amenity": "charging_station",
    "capacity": "2",
    "fee": "no",
    "motorcar": "yes",
    "name": "Hotel Ílhavo plaza Tesla Destination Charger",
    "network": "Tesla",
    "operator": "Tesla",
    "ref": "dc40814",
    "socket:tesla_destination": "1",
    "socket:tesla_destination:output": "22kW",
    "socket:type2_cable": "1",
    "socket:type2_cable:output": "22kW",
    "website": "https://www.tesla.com/pt_PT/findus/list/chargers/Portugal"
  }
},
{
  "type": "node",
  "id": 8199190764,
  "lat": 40.8556393,
  "lon": -7.0149958,
  "tags": {
    "access": "customers",
    "addr:country": "PT",
    "amenity": "charging_station",
    "capacity": "2",
    "fee": "no",
    "motorcar": "yes",
    "name": "Colmeal Countryside Hotel Tesla Destination Charger",
    "network": "Tesla",
    "operator": "Tesla",
    "ref": "dc41969",
    "socket:tesla_destination": "1",
    "socket:tesla_destination:output": "11kW",
    "socket:type2_cable": "1",
    "socket:type2_cable:output": "11kW",
    "website": "https://www.tesla.com/pt_PT/findus/list/chargers/Portugal"
  }
},
{
  "type": "node",
  "id": 8199190765,
  "lat": 40.8084710,
  "lon": -8.4496160,
  "tags": {
    "access": "customers",
    "addr:country": "PT",
    "amenity": "charging_station",
    "capacity": "2",
    "fee": "no",
    "motorcar": "yes",
    "name": "Hotel Vale do Rio Tesla Destination Charger",
    "network": "Tesla",
    "operator": "Tesla",
    "ref": "dc29858",
    "socket:tesla_destination": "1",
    "socket:tesla_destination:output": "22kW",
    "socket:type2_cable": "1",
    "socket:type2_cable:output": "22kW",
    "website": "https://www.tesla.com/pt_PT/findus/list/chargers/Portugal"
  }
},
{
  "type": "node",
  "id": 8199286788,
  "lat": 41.1032673,
  "lon": -8.0952716,
  "tags": {
    "access": "customers",
    "addr:country": "PT",
    "amenity": "charging_station",
    "capacity": "2",
    "fee": "no",
    "motorcar": "yes",
    "name": "Douro Royal Valley Hotel & Spa Tesla Destination Charger",
    "network": "Tesla",
    "operator": "Tesla",
    "ref": "dc26399",
    "socket:tesla_destination": "1",
    "socket:tesla_destination:output": "22kW",
    "socket:type2_cable": "1",
    "socket:type2_cable:output": "22kW",
    "website": "https://www.tesla.com/pt_PT/findus/list/chargers/Portugal"
  }
},
{
  "type": "node",
  "id": 8199286789,
  "lat": 41.0736109,
  "lon": -8.5053465,
  "tags": {
    "access": "customers",
    "addr:country": "PT",
    "amenity": "charging_station",
    "capacity": "4",
    "fee": "no",
    "motorcar": "yes",
    "name": "Tapada de São Domingos Tesla Destination Charger",
    "network": "Tesla",
    "operator": "Tesla",
    "ref": "dc29654",
    "socket:tesla_destination": "2",
    "socket:tesla_destination:output": "11kW",
    "socket:type2_cable": "2",
    "socket:type2_cable:output": "11kW",
    "website": "https://www.tesla.com/pt_PT/findus/list/chargers/Portugal"
  }
},
{
  "type": "node",
  "id": 8199286790,
  "lat": 41.0289635,
  "lon": -8.6424154,
  "tags": {
    "access": "customers",
    "addr:country": "PT",
    "amenity": "charging_station",
    "capacity": "2",
    "fee": "no",
    "motorcar": "yes",
    "name": "Hotel Solverde Spa & Wellness Center Tesla Destination Charger",
    "network": "Tesla",
    "operator": "Tesla",
    "ref": "dc24469",
    "socket:tesla_destination": "1",
    "socket:tesla_destination:output": "22kW",
    "socket:type2_cable": "1",
    "socket:type2_cable:output": "22kW",
    "website": "https://www.tesla.com/pt_PT/findus/list/chargers/Portugal"
  }
},
{
  "type": "node",
  "id": 8199286791,
  "lat": 41.0080545,
  "lon": -8.6450171,
  "tags": {
    "access": "customers",
    "addr:country": "PT",
    "amenity": "charging_station",
    "capacity": "2",
    "fee": "no",
    "motorcar": "yes",
    "name": "Hotel Apartamento Solverde Tesla Destination Charger",
    "network": "Tesla",
    "operator": "Tesla",
    "ref": "dc29115",
    "socket:tesla_destination": "1",
    "socket:tesla_destination:output": "22kW",
    "socket:type2_cable": "1",
    "socket:type2_cable:output": "22kW",
    "website": "https://www.tesla.com/pt_PT/findus/list/chargers/Portugal"
  }
},
{
  "type": "node",
  "id": 8199286792,
  "lat": 40.9574998,
  "lon": -8.5339093,
  "tags": {
    "access": "customers",
    "addr:country": "PT",
    "amenity": "charging_station",
    "capacity": "2",
    "fee": "no",
    "motorcar": "yes",
    "name": "Restaurante Terra Mãe Tesla Destination Charger",
    "network": "Tesla",
    "operator": "Tesla",
    "ref": "dc57787",
    "socket:tesla_destination": "1",
    "socket:tesla_destination:output": "22kW",
    "socket:type2_cable": "1",
    "socket:type2_cable:output": "22kW",
    "website": "https://www.tesla.com/pt_PT/findus/list/chargers/Portugal"
  }
},
{
  "type": "node",
  "id": 8199289503,
  "lat": 41.1767462,
  "lon": -7.5151527,
  "tags": {
    "access": "customers",
    "addr:country": "PT",
    "amenity": "charging_station",
    "capacity": "3",
    "fee": "no",
    "motorcar": "yes",
    "name": "Quinta do Ventozelo Tesla Destination Charger",
    "network": "Tesla",
    "operator": "Tesla",
    "ref": "dc93367",
    "socket:tesla_destination": "1",
    "socket:tesla_destination:output": "22kW",
    "socket:type2_cable": "2",
    "socket:type2_cable:output": "22kW",
    "website": "https://www.tesla.com/pt_PT/findus/list/chargers/Portugal"
  }
},
{
  "type": "node",
  "id": 8199289504,
  "lat": 41.1567414,
  "lon": -7.6400176,
  "tags": {
    "access": "customers",
    "addr:country": "PT",
    "amenity": "charging_station",
    "capacity": "2",
    "fee": "no",
    "motorcar": "yes",
    "name": "Quinta do Tedo Tesla Destination Charger",
    "network": "Tesla",
    "operator": "Tesla",
    "ref": "dc55275",
    "socket:tesla_destination": "1",
    "socket:tesla_destination:output": "22kW",
    "socket:type2_cable": "1",
    "socket:type2_cable:output": "22kW",
    "website": "https://www.tesla.com/pt_PT/findus/list/chargers/Portugal"
  }
},
{
  "type": "node",
  "id": 8199289505,
  "lat": 41.1884202,
  "lon": -7.7276024,
  "tags": {
    "access": "customers",
    "addr:country": "PT",
    "amenity": "charging_station",
    "capacity": "2",
    "fee": "no",
    "motorcar": "yes",
    "name": "Quinta Seara d'Ordens Tesla Destination Charger",
    "network": "Tesla",
    "operator": "Tesla",
    "ref": "dc76300",
    "socket:tesla_destination": "1",
    "socket:tesla_destination:output": "11kW",
    "socket:type2_cable": "1",
    "socket:type2_cable:output": "11kW",
    "website": "https://www.tesla.com/pt_PT/findus/list/chargers/Portugal"
  }
},
{
  "type": "node",
  "id": 8199290478,
  "lat": 41.3215131,
  "lon": -8.1203985,
  "tags": {
    "access": "customers",
    "addr:country": "PT",
    "amenity": "charging_station",
    "capacity": "2",
    "fee": "no",
    "motorcar": "yes",
    "name": "Hotel Monverde Tesla Destination Charger",
    "network": "Tesla",
    "operator": "Tesla",
    "ref": "dc41935",
    "socket:tesla_destination": "1",
    "socket:tesla_destination:output": "22kW",
    "socket:type2_cable": "1",
    "socket:type2_cable:output": "22kW",
    "website": "https://www.tesla.com/pt_PT/findus/list/chargers/Portugal"
  }
},
{
  "type": "node",
  "id": 8199290479,
  "lat": 41.2681060,
  "lon": -8.0778654,
  "tags": {
    "access": "customers",
    "addr:country": "PT",
    "amenity": "charging_station",
    "capacity": "2",
    "fee": "no",
    "motorcar": "yes",
    "name": "Casa da Calçada Tesla Destination Charger",
    "network": "Tesla",
    "operator": "Tesla",
    "ref": "dc42028",
    "socket:tesla_destination": "1",
    "socket:tesla_destination:output": "22kW",
    "socket:type2_cable": "1",
    "socket:type2_cable:output": "22kW",
    "website": "https://www.tesla.com/pt_PT/findus/list/chargers/Portugal"
  }
},
{
  "type": "node",
  "id": 8199311654,
  "lat": 41.1439690,
  "lon": -7.8110553,
  "tags": {
    "access": "customers",
    "addr:country": "PT",
    "amenity": "charging_station",
    "capacity": "2",
    "fee": "no",
    "motorcar": "yes",
    "name": "Six Senses Douro Valley Tesla Destination Charger",
    "network": "Tesla",
    "operator": "Tesla",
    "ref": "dc38939",
    "socket:tesla_destination": "1",
    "socket:tesla_destination:output": "22kW",
    "socket:type2_cable": "1",
    "socket:type2_cable:output": "22kW",
    "website": "https://www.tesla.com/pt_PT/findus/list/chargers/Portugal"
  }
},
{
  "type": "node",
  "id": 8199311655,
  "lat": 41.1107026,
  "lon": -8.0067587,
  "tags": {
    "access": "customers",
    "addr:country": "PT",
    "amenity": "charging_station",
    "capacity": "2",
    "fee": "no",
    "motorcar": "yes",
    "name": "Douro Palace Hotel Resort & Spa Tesla Destination Charger",
    "network": "Tesla",
    "operator": "Tesla",
    "ref": "dc23227",
    "socket:tesla_destination": "1",
    "socket:tesla_destination:output": "11kW",
    "socket:type2_cable": "1",
    "socket:type2_cable:output": "11kW",
    "website": "https://www.tesla.com/pt_PT/findus/list/chargers/Portugal"
  }
},
{
  "type": "node",
  "id": 8199379238,
  "lat": 41.1623280,
  "lon": -8.6450212,
  "tags": {
    "access": "customers",
    "addr:country": "PT",
    "amenity": "charging_station",
    "capacity": "2",
    "fee": "no",
    "motorcar": "yes",
    "name": "Bessa Hotel Boavista Tesla Destination Charger",
    "network": "Tesla",
    "operator": "Tesla",
    "ref": "dc17031",
    "socket:tesla_destination": "2",
    "socket:tesla_destination:output": "22kW",
    "socket:type2_cable": "2",
    "socket:type2_cable:output": "22kW",
    "website": "https://www.tesla.com/pt_PT/findus/list/chargers/Portugal"
  }
},
{
  "type": "node",
  "id": 8199379239,
  "lat": 41.1614718,
  "lon": -8.6402482,
  "tags": {
    "access": "customers",
    "addr:country": "PT",
    "amenity": "charging_station",
    "capacity": "2",
    "fee": "no",
    "motorcar": "yes",
    "name": "Sheraton Porto Hotel and Spa Tesla Destination Charger",
    "network": "Tesla",
    "operator": "Tesla",
    "ref": "dc25411",
    "socket:tesla_destination": "1",
    "socket:tesla_destination:output": "22kW",
    "socket:type2_cable": "1",
    "socket:type2_cable:output": "22kW",
    "website": "https://www.tesla.com/pt_PT/findus/list/chargers/Portugal"
  }
},
{
  "type": "node",
  "id": 8199379240,
  "lat": 41.1601098,
  "lon": -8.6404963,
  "tags": {
    "access": "customers",
    "addr:country": "PT",
    "amenity": "charging_station",
    "capacity": "2",
    "fee": "no",
    "motorcar": "yes",
    "name": "Hotel Crowne Plaza Porto Tesla Destination Charger",
    "network": "Tesla",
    "operator": "Tesla",
    "ref": "dc24669",
    "socket:tesla_destination": "1",
    "socket:tesla_destination:output": "22kW",
    "socket:type2_cable": "1",
    "socket:type2_cable:output": "22kW",
    "website": "https://www.tesla.com/pt_PT/findus/list/chargers/Portugal"
  }
},
{
  "type": "node",
  "id": 8199379241,
  "lat": 41.1563481,
  "lon": -8.6291941,
  "tags": {
    "access": "customers",
    "addr:country": "PT",
    "amenity": "charging_station",
    "capacity": "2",
    "fee": "no",
    "motorcar": "yes",
    "name": "Hotel da Música Porto Tesla Destination Charger",
    "network": "Tesla",
    "operator": "Tesla",
    "ref": "dc42035",
    "socket:tesla_destination": "1",
    "socket:tesla_destination:output": "17kW",
    "socket:type2_cable": "1",
    "socket:type2_cable:output": "17kW",
    "website": "https://www.tesla.com/pt_PT/findus/list/chargers/Portugal"
  }
},
{
  "type": "node",
  "id": 8199383574,
  "lat": 41.1498637,
  "lon": -8.6035328,
  "tags": {
    "access": "customers",
    "addr:country": "PT",
    "amenity": "charging_station",
    "capacity": "2",
    "fee": "no",
    "motorcar": "yes",
    "name": "BessaHotel Baixa Tesla Destination Charger",
    "network": "Tesla",
    "operator": "Tesla",
    "ref": "dc514131",
    "socket:tesla_destination": "2",
    "socket:tesla_destination:output": "22kW",
    "socket:type2_cable": "2",
    "socket:type2_cable:output": "22kW",
    "website": "https://www.tesla.com/pt_PT/findus/list/chargers/Portugal"
  }
},
{
  "type": "node",
  "id": 8199383575,
  "lat": 41.1484976,
  "lon": -8.6115100,
  "tags": {
    "access": "customers",
    "addr:country": "PT",
    "amenity": "charging_station",
    "capacity": "2",
    "fee": "no",
    "motorcar": "yes",
    "name": "Maison Albar Hotels Le Monumental Palace Tesla Destination Charger",
    "network": "Tesla",
    "operator": "Tesla",
    "ref": "dc26773",
    "socket:tesla_destination": "1",
    "socket:tesla_destination:output": "22kW",
    "socket:type2_cable": "1",
    "socket:type2_cable:output": "22kW",
    "website": "https://www.tesla.com/pt_PT/findus/list/chargers/Portugal"
  }
},
{
  "type": "node",
  "id": 8199383576,
  "lat": 41.1466395,
  "lon": -8.6092593,
  "tags": {
    "access": "customers",
    "addr:country": "PT",
    "amenity": "charging_station",
    "capacity": "2",
    "fee": "no",
    "motorcar": "yes",
    "name": "Hotel Teatro Porto Tesla Destination Charger",
    "network": "Tesla",
    "operator": "Tesla",
    "ref": "dc9655",
    "socket:tesla_destination": "1",
    "socket:tesla_destination:output": "22kW",
    "socket:type2_cable": "1",
    "socket:type2_cable:output": "22kW",
    "website": "https://www.tesla.com/pt_PT/findus/list/chargers/Portugal"
  }
},
{
  "type": "node",
  "id": 8199383577,
  "lat": 41.1332720,
  "lon": -8.6131673,
  "tags": {
    "access": "customers",
    "addr:country": "PT",
    "amenity": "charging_station",
    "capacity": "2",
    "fee": "no",
    "motorcar": "yes",
    "name": "The Yeatman Hotel Tesla Destination Charger",
    "network": "Tesla",
    "operator": "Tesla",
    "ref": "dc23363",
    "socket:tesla_destination": "1",
    "socket:tesla_destination:output": "22kW",
    "socket:type2_cable": "1",
    "socket:type2_cable:output": "22kW",
    "website": "https://www.tesla.com/pt_PT/findus/list/chargers/Portugal"
  }
},
{
  "type": "node",
  "id": 8199383578,
  "lat": 41.1263777,
  "lon": -8.6349776,
  "tags": {
    "access": "customers",
    "addr:country": "PT",
    "amenity": "charging_station",
    "capacity": "2",
    "fee": "no",
    "motorcar": "yes",
    "name": "Park Hotel Gaia Tesla Destination Charger",
    "network": "Tesla",
    "operator": "Tesla",
    "ref": "dc51421",
    "socket:tesla_destination": "1",
    "socket:tesla_destination:output": "22kW",
    "socket:type2_cable": "1",
    "socket:type2_cable:output": "22kW",
    "website": "https://www.tesla.com/pt_PT/findus/list/chargers/Portugal"
  }
},
{
  "type": "node",
  "id": 8199383861,
  "lat": 41.2027317,
  "lon": -8.6927611,
  "tags": {
    "access": "customers",
    "addr:country": "PT",
    "amenity": "charging_station",
    "capacity": "2",
    "fee": "no",
    "motorcar": "yes",
    "name": "TRYP Porto Expo Hotel Tesla Destination Charger",
    "network": "Tesla",
    "operator": "Tesla",
    "ref": "dc47243",
    "socket:tesla_destination": "1",
    "socket:tesla_destination:output": "17kW",
    "socket:type2_cable": "1",
    "socket:type2_cable:output": "17kW",
    "website": "https://www.tesla.com/pt_PT/findus/list/chargers/Portugal"
  }
},
{
  "type": "node",
  "id": 8199383862,
  "lat": 41.1949456,
  "lon": -8.6900166,
  "tags": {
    "access": "customers",
    "addr:country": "PT",
    "amenity": "charging_station",
    "capacity": "2",
    "fee": "no",
    "motorcar": "yes",
    "name": "Holiday Inn Express Porto Exponor Tesla Destination Charger",
    "network": "Tesla",
    "operator": "Tesla",
    "ref": "dc22790",
    "socket:tesla_destination": "1",
    "socket:tesla_destination:output": "22kW",
    "socket:type2_cable": "1",
    "socket:type2_cable:output": "22kW",
    "website": "https://www.tesla.com/pt_PT/findus/list/chargers/Portugal"
  }
},
{
  "type": "node",
  "id": 8199383863,
  "lat": 41.1621417,
  "lon": -8.6060265,
  "tags": {
    "access": "customers",
    "addr:country": "PT",
    "amenity": "charging_station",
    "capacity": "2",
    "fee": "no",
    "motorcar": "yes",
    "name": "Parque da Constituição Tesla Destination Charger",
    "network": "Tesla",
    "operator": "Tesla",
    "ref": "dc57255",
    "socket:tesla_destination": "1",
    "socket:tesla_destination:output": "17kW",
    "socket:type2_cable": "1",
    "socket:type2_cable:output": "17kW",
    "website": "https://www.tesla.com/pt_PT/findus/list/chargers/Portugal"
  }
},
{
  "type": "node",
  "id": 8199423474,
  "lat": 41.5884768,
  "lon": -8.5356675,
  "tags": {
    "access": "customers",
    "addr:country": "PT",
    "amenity": "charging_station",
    "capacity": "2",
    "fee": "no",
    "motorcar": "yes",
    "name": "Torre de Gomariz Tesla Destination Charger",
    "network": "Tesla",
    "operator": "Tesla",
    "ref": "dc41880",
    "socket:tesla_destination": "1",
    "socket:tesla_destination:output": "22kW",
    "socket:type2_cable": "1",
    "socket:type2_cable:output": "22kW",
    "website": "https://www.tesla.com/pt_PT/findus/list/chargers/Portugal"
  }
},
{
  "type": "node",
  "id": 8199423475,
  "lat": 41.5569401,
  "lon": -8.3948421,
  "tags": {
    "access": "customers",
    "addr:country": "PT",
    "amenity": "charging_station",
    "capacity": "2",
    "fee": "no",
    "motorcar": "yes",
    "name": "Melia Braga Hotel & Spa Tesla Destination Charger",
    "network": "Tesla",
    "operator": "Tesla",
    "ref": "dc45836",
    "socket:tesla_destination": "1",
    "socket:tesla_destination:output": "17kW",
    "socket:type2_cable": "1",
    "socket:type2_cable:output": "17kW",
    "website": "https://www.tesla.com/pt_PT/findus/list/chargers/Portugal"
  }
},
{
  "type": "node",
  "id": 8199423477,
  "lat": 41.5038635,
  "lon": -7.8018346,
  "tags": {
    "access": "customers",
    "addr:country": "PT",
    "amenity": "charging_station",
    "capacity": "4",
    "fee": "no",
    "motorcar": "yes",
    "name": "Pena Park Hotel Tesla Destination Charger",
    "network": "Tesla",
    "operator": "Tesla",
    "ref": "dc23782",
    "socket:tesla_destination": "2",
    "socket:tesla_destination:output": "22kW",
    "socket:type2_cable": "2",
    "socket:type2_cable:output": "22kW",
    "website": "https://www.tesla.com/pt_PT/findus/list/chargers/Portugal"
  }
},
{
  "type": "node",
  "id": 8199423478,
  "lat": 41.2406152,
  "lon": -8.6598042,
  "tags": {
    "access": "customers",
    "addr:country": "PT",
    "amenity": "charging_station",
    "capacity": "2",
    "fee": "no",
    "motorcar": "yes",
    "name": "Oporto Airport & Business Hotel Tesla Destination Charger",
    "network": "Tesla",
    "operator": "Tesla",
    "ref": "dc62028",
    "socket:tesla_destination": "1",
    "socket:tesla_destination:output": "14kW",
    "socket:type2_cable": "1",
    "socket:type2_cable:output": "14kW",
    "website": "https://www.tesla.com/pt_PT/findus/list/chargers/Portugal"
  }
},
{
  "type": "node",
  "id": 8199423479,
  "lat": 41.2376992,
  "lon": -8.6674377,
  "tags": {
    "access": "customers",
    "addr:country": "PT",
    "amenity": "charging_station",
    "capacity": "2",
    "fee": "no",
    "motorcar": "yes",
    "name": "Park Hotel Porto Aeroporto Tesla Destination Charger",
    "network": "Tesla",
    "operator": "Tesla",
    "ref": "dc51420",
    "socket:tesla_destination": "1",
    "socket:tesla_destination:output": "22kW",
    "socket:type2_cable": "1",
    "socket:type2_cable:output": "22kW",
    "website": "https://www.tesla.com/pt_PT/findus/list/chargers/Portugal"
  }
},
{
  "type": "node",
  "id": 8199446702,
  "lat": 41.7602394,
  "lon": -7.4889053,
  "tags": {
    "access": "customers",
    "addr:country": "PT",
    "amenity": "charging_station",
    "capacity": "2",
    "fee": "no",
    "motorcar": "yes",
    "name": "Hotel Casino Chaves Tesla Destination Charger",
    "network": "Tesla",
    "operator": "Tesla",
    "ref": "dc31176",
    "socket:tesla_destination": "1",
    "socket:tesla_destination:output": "22kW",
    "socket:type2_cable": "1",
    "socket:type2_cable:output": "22kW",
    "website": "https://www.tesla.com/pt_PT/findus/list/chargers/Portugal"
  }
},
{
  "type": "node",
  "id": 8199446703,
  "lat": 41.7095386,
  "lon": -8.7720687,
  "tags": {
    "access": "customers",
    "addr:country": "PT",
    "amenity": "charging_station",
    "capacity": "2",
    "fee": "no",
    "motorcar": "yes",
    "name": "Restaurante Rocha Camelo Lda Tesla Destination Charger",
    "network": "Tesla",
    "operator": "Tesla",
    "ref": "dc48983",
    "socket:tesla_destination": "1",
    "socket:tesla_destination:output": "22kW",
    "socket:type2_cable": "1",
    "socket:type2_cable:output": "22kW",
    "website": "https://www.tesla.com/pt_PT/findus/list/chargers/Portugal"
  }
},
{
  "type": "node",
  "id": 8199446704,
  "lat": 41.6967328,
  "lon": -8.8200447,
  "tags": {
    "access": "customers",
    "addr:country": "PT",
    "amenity": "charging_station",
    "capacity": "4",
    "fee": "no",
    "motorcar": "yes",
    "name": "Hotel do Parque Tesla Destination Charger",
    "network": "Tesla",
    "operator": "Tesla",
    "ref": "dc63048",
    "socket:tesla_destination": "2",
    "socket:tesla_destination:output": "22kW",
    "socket:type2_cable": "2",
    "socket:type2_cable:output": "22kW",
    "website": "https://www.tesla.com/pt_PT/findus/list/chargers/Portugal"
  }
},
{
  "type": "node",
  "id": 8199482686,
  "lat": 41.7750984,
  "lon": -8.5344538,
  "tags": {
    "access": "customers",
    "addr:country": "PT",
    "amenity": "charging_station",
    "capacity": "2",
    "fee": "no",
    "motorcar": "yes",
    "name": "Carmo's Boutique Hotel Tesla Destination Charger",
    "network": "Tesla",
    "operator": "Tesla",
    "ref": "dc38742",
    "socket:tesla_destination": "1",
    "socket:tesla_destination:output": "11kW",
    "socket:type2_cable": "1",
    "socket:type2_cable:output": "11kW",
    "website": "https://www.tesla.com/pt_PT/findus/list/chargers/Portugal"
  }
},
{
  "type": "node",
  "id": 8199623599,
  "lat": 41.9391376,
  "lon": -8.7437157,
  "tags": {
    "access": "customers",
    "addr:country": "PT",
    "amenity": "charging_station",
    "capacity": "2",
    "fee": "no",
    "motorcar": "yes",
    "name": "Camara Municipal Vila Nova de Cerveira Tesla Destination Charger",
    "network": "Tesla",
    "operator": "Tesla",
    "ref": "dc62676",
    "socket:tesla_destination": "1",
    "socket:tesla_destination:output": "22kW",
    "socket:type2_cable": "1",
    "socket:type2_cable:output": "22kW",
    "website": "https://www.tesla.com/pt_PT/findus/list/chargers/Portugal"
  }
},
{
  "type": "node",
  "id": 8199623600,
  "lat": 41.8935016,
  "lon": -8.7983510,
  "tags": {
    "access": "customers",
    "addr:country": "PT",
    "amenity": "charging_station",
    "capacity": "2",
    "fee": "no",
    "motorcar": "yes",
    "name": "Prazer da Natureza Resort & SPA Tesla Destination Charger",
    "network": "Tesla",
    "operator": "Tesla",
    "ref": "dc75448",
    "socket:tesla_destination": "1",
    "socket:tesla_destination:output": "22kW",
    "socket:type2_cable": "1",
    "socket:type2_cable:output": "22kW",
    "website": "https://www.tesla.com/pt_PT/findus/list/chargers/Portugal"
  }
},
{
  "type": "node",
  "id": 8199623601,
  "lat": 41.8655540,
  "lon": -8.8481650,
  "tags": {
    "access": "customers",
    "addr:country": "PT",
    "amenity": "charging_station",
    "capacity": "4",
    "fee": "no",
    "motorcar": "yes",
    "name": "Hotel Porta do Sol Conference Center & Spa Tesla Destination Charger",
    "network": "Tesla",
    "operator": "Tesla",
    "ref": "dc72205",
    "socket:tesla_destination": "2",
    "socket:tesla_destination:output": "14kW",
    "socket:type2_cable": "2",
    "socket:type2_cable:output": "14kW",
    "website": "https://www.tesla.com/pt_PT/findus/list/chargers/Portugal"
  }
},
{
  "type": "node",
  "id": 8199629477,
  "lat": 41.7873830,
  "lon": -8.5218287,
  "tags": {
    "access": "customers",
    "addr:country": "PT",
    "amenity": "charging_station",
    "capacity": "2",
    "fee": "no",
    "motorcar": "yes",
    "name": "Quinta do Ameal Wine & Tourism Terroir Tesla Destination Charger",
    "network": "Tesla",
    "operator": "Tesla",
    "ref": "dc57253",
    "socket:tesla_destination": "1",
    "socket:tesla_destination:output": "14kW",
    "socket:type2_cable": "1",
    "socket:type2_cable:output": "14kW",
    "website": "https://www.tesla.com/pt_PT/findus/list/chargers/Portugal"
  }
},
{
  "type": "node",
  "id": 8199671207,
  "lat": 39.6634798,
  "lon": -8.8244113,
  "tags": {
    "access": "customers",
    "addr:country": "PT",
    "amenity": "charging_station",
    "capacity": "3",
    "fee": "no",
    "motorcar": "yes",
    "name": "Villa Batalha Hotel Tesla Destination Charger",
    "network": "Tesla",
    "operator": "Tesla",
    "ref": "dc513566",
    "socket:tesla_destination": "3",
    "socket:tesla_destination:output": "11kW",
    "socket:type2_cable": "3",
    "socket:type2_cable:output": "11kW",
    "website": "https://www.tesla.com/pt_PT/findus/list/chargers/Portugal"
  }
},
{
  "type": "node",
  "id": 8199671418,
  "lat": 39.3350142,
  "lon": -9.3539049,
  "tags": {
    "access": "customers",
    "addr:country": "PT",
    "amenity": "charging_station",
    "capacity": "3",
    "fee": "no",
    "motorcar": "yes",
    "name": "MH Atlantico Tesla Destination Charger",
    "network": "Tesla",
    "operator": "Tesla",
    "ref": "dc49724",
    "socket:tesla_destination": "2",
    "socket:tesla_destination:output": "7.4kW",
    "socket:type2_cable": "1",
    "socket:type2_cable:output": "22kW",
    "website": "https://www.tesla.com/pt_PT/findus/list/chargers/Portugal"
  }
},
{
  "type": "node",
  "id": 8232470379,
  "lat": 37.0602976,
  "lon": -7.9662814,
  "tags": {
    "access": "private",
    "addr:city": "Faro",
    "addr:country": "PT",
    "amenity": "charging_station",
    "capacity": "1",
    "motorcar": "yes",
    "name": "Centro Porsche Faro",
    "network": "Porsche",
    "opening_hours": "Mo-Fr 09:00-17:00",
    "operator": "Porsche",
    "parking:fee": "no",
    "socket:type2_cable": "1",
    "socket:type2_cable:current": "32",
    "socket:type2_cable:output": "22kW",
    "socket:type2_cable:voltage": "400",
    "socket:type2_combo": "1",
    "socket:type2_combo:current": "125",
    "socket:type2_combo:output": "50kW",
    "socket:type2_combo:voltage": "500"
  }
},
{
  "type": "node",
  "id": 8234966159,
  "lat": 39.7638945,
  "lon": -8.7852135,
  "tags": {
    "access": "private",
    "addr:city": "Leiria",
    "addr:country": "PT",
    "addr:street": "Rua do Outeiro do Pomar",
    "amenity": "charging_station",
    "authentication:none": "no",
    "capacity": "2",
    "name": "Lubrisport Audi",
    "network": "none",
    "operator": "Lubrisport",
    "parking:fee": "no",
    "socket:type2_cable": "1",
    "socket:type2_cable:current": "32",
    "socket:type2_cable:output": "22kW",
    "socket:type2_cable:voltage": "400",
    "socket:type2_combo": "1",
    "socket:type2_combo:current": "125",
    "socket:type2_combo:output": "50kW",
    "socket:type2_combo:voltage": "500"
  }
},
{
  "type": "node",
  "id": 8255641306,
  "lat": 37.2358615,
  "lon": -7.4695846,
  "tags": {
    "access": "customers",
    "addr:country": "PT",
    "amenity": "charging_station",
    "authentication:none": "yes",
    "capacity": "1",
    "fee": "no",
    "motorcar": "yes",
    "name": "Porsche Destination Charging",
    "network": "Porsche",
    "opening_hours": "09:00-20:00",
    "operator": "Porsche",
    "parking:fee": "no",
    "socket:type2_cable": "1",
    "socket:type2_cable:current": "16",
    "socket:type2_cable:output": "11kW",
    "socket:type2_cable:voltage": "400"
  }
},
{
  "type": "node",
  "id": 8257507607,
  "lat": 37.1519232,
  "lon": -7.6085390,
  "tags": {
    "access": "customers",
    "addr:country": "PT",
    "amenity": "charging_station",
    "authentication:none": "yes",
    "capacity": "2",
    "fee": "no",
    "motorcar": "yes",
    "name": "Porsche Destination Charging",
    "network": "Porsche",
    "opening_hours": "09:00-20:00",
    "operator": "Porsche",
    "parking:fee": "no",
    "socket:type2_cable": "2",
    "socket:type2_cable:current": "16",
    "socket:type2_cable:output": "11kW",
    "socket:type2_cable:voltage": "400"
  }
},
{
  "type": "node",
  "id": 8262546659,
  "lat": 37.0737313,
  "lon": -8.1160466,
  "tags": {
    "access": "customers",
    "addr:country": "PT",
    "amenity": "charging_station",
    "authentication:none": "yes",
    "capacity": "2",
    "fee": "no",
    "motorcar": "yes",
    "name": "Porsche Destination Charging",
    "network": "Porsche",
    "opening_hours": "24/7",
    "operator": "Porsche",
    "parking:fee": "no",
    "socket:type2_cable": "2",
    "socket:type2_cable:current": "16",
    "socket:type2_cable:output": "11kW",
    "socket:type2_cable:voltage": "400"
  }
},
{
  "type": "node",
  "id": 8262554176,
  "lat": 37.0312677,
  "lon": -8.0221170,
  "tags": {
    "access": "customers",
    "addr:country": "PT",
    "amenity": "charging_station",
    "authentication:none": "yes",
    "capacity": "1",
    "fee": "no",
    "motorcar": "yes",
    "name": "Porsche Destination Charging",
    "network": "Porsche",
    "opening_hours": "24/7",
    "operator": "Porsche",
    "parking:fee": "no",
    "socket:type2_cable": "1",
    "socket:type2_cable:current": "16",
    "socket:type2_cable:output": "11kW",
    "socket:type2_cable:voltage": "400"
  }
},
{
  "type": "node",
  "id": 8262556573,
  "lat": 37.0931613,
  "lon": -8.1117095,
  "tags": {
    "access": "customers",
    "addr:country": "PT",
    "amenity": "charging_station",
    "authentication:none": "yes",
    "capacity": "2",
    "fee": "no",
    "motorcar": "yes",
    "name": "Porsche Destination Charging",
    "network": "Porsche",
    "opening_hours": "24/7",
    "operator": "Porsche",
    "parking:fee": "no",
    "socket:type2_cable": "2",
    "socket:type2_cable:current": "16",
    "socket:type2_cable:output": "11kW",
    "socket:type2_cable:voltage": "400"
  }
},
{
  "type": "node",
  "id": 8262586524,
  "lat": 37.0928543,
  "lon": -8.1845704,
  "tags": {
    "access": "customers",
    "addr:country": "PT",
    "amenity": "charging_station",
    "authentication:none": "yes",
    "capacity": "1",
    "fee": "no",
    "motorcar": "yes",
    "name": "Porsche Destination Charging",
    "network": "Porsche",
    "opening_hours": "24/7",
    "operator": "Porsche",
    "parking:fee": "no",
    "socket:type2_cable": "1",
    "socket:type2_cable:current": "16",
    "socket:type2_cable:output": "11kW",
    "socket:type2_cable:voltage": "400"
  }
},
{
  "type": "node",
  "id": 8262595320,
  "lat": 37.0946900,
  "lon": -8.1894708,
  "tags": {
    "access": "customers",
    "addr:country": "PT",
    "amenity": "charging_station",
    "capacity": "2",
    "name": "Clube Humbria",
    "network": "none",
    "operator": "Clube Humbria",
    "socket:type2_cable": "2",
    "socket:type2_cable:current": "16",
    "socket:type2_cable:output": "11kW",
    "socket:type2_cable:voltage": "400"
  }
},
{
  "type": "node",
  "id": 8262640179,
  "lat": 37.1088924,
  "lon": -8.4751341,
  "tags": {
    "access": "customers",
    "addr:country": "PT",
    "amenity": "charging_station",
    "authentication:none": "yes",
    "capacity": "2",
    "fee": "no",
    "motorcar": "yes",
    "name": "Porsche Destination Charging",
    "network": "Porsche",
    "opening_hours": "24/7",
    "operator": "Porsche",
    "parking:fee": "no",
    "socket:type2_cable": "2",
    "socket:type2_cable:current": "16",
    "socket:type2_cable:output": "11kW",
    "socket:type2_cable:voltage": "400"
  }
},
{
  "type": "node",
  "id": 8262653923,
  "lat": 37.1183238,
  "lon": -8.5344297,
  "tags": {
    "access": "customers",
    "addr:country": "PT",
    "amenity": "charging_station",
    "authentication:none": "yes",
    "capacity": "2",
    "fee": "no",
    "motorcar": "yes",
    "name": "Porsche Destination Charging",
    "network": "Porsche",
    "opening_hours": "24/7",
    "operator": "Porsche",
    "parking:fee": "no",
    "socket:type2_cable": "2",
    "socket:type2_cable:current": "16",
    "socket:type2_cable:output": "11kW",
    "socket:type2_cable:voltage": "400"
  }
},
{
  "type": "node",
  "id": 8265055939,
  "lat": 38.1822841,
  "lon": -7.5923520,
  "tags": {
    "access": "customers",
    "addr:country": "PT",
    "amenity": "charging_station",
    "authentication:none": "yes",
    "capacity": "1",
    "fee": "no",
    "motorcar": "yes",
    "name": "Porsche Destination Charging",
    "network": "Porsche",
    "operator": "Porsche",
    "parking:fee": "no",
    "socket:type2_cable": "1",
    "socket:type2_cable:current": "16",
    "socket:type2_cable:output": "11kW",
    "socket:type2_cable:voltage": "400"
  }
},
{
  "type": "node",
  "id": 8269975157,
  "lat": 37.0956720,
  "lon": -8.1790826,
  "tags": {
    "access": "customers",
    "addr:country": "PT",
    "amenity": "charging_station",
    "capacity": "2",
    "fee": "no",
    "motorcar": "yes",
    "name": "Pine Cliffs Resort Tesla Destination Charger",
    "network": "Tesla",
    "operator": "Tesla",
    "parking:fee": "no",
    "socket:tesla_destination": "1",
    "socket:tesla_destination:output": "22kW",
    "socket:type2_cable": "1",
    "socket:type2_cable:output": "22kW",
    "website": "https://www.tesla.com/pt_PT/findus/list/chargers/Portugal"
  }
},
{
  "type": "node",
  "id": 8270243974,
  "lat": 37.1002641,
  "lon": -8.7212160,
  "tags": {
    "access": "customers",
    "addr:country": "PT",
    "amenity": "charging_station",
    "authentication:none": "yes",
    "capacity": "1",
    "fee": "no",
    "motorcar": "yes",
    "name": "Porsche Destination Charging",
    "network": "Porsche",
    "opening_hours": "24/7",
    "operator": "Porsche",
    "parking:fee": "no",
    "socket:type2_cable": "1",
    "socket:type2_cable:current": "16",
    "socket:type2_cable:output": "11kW",
    "socket:type2_cable:voltage": "400"
  }
},
{
  "type": "node",
  "id": 8275718986,
  "lat": 38.2243186,
  "lon": -7.8268589,
  "tags": {
    "access": "customers",
    "addr:country": "PT",
    "amenity": "charging_station",
    "capacity": "2",
    "fee": "no",
    "name": "Quinta do Quetzal",
    "network": "none",
    "operator": "Quinta do Quetzal",
    "parking:fee": "no",
    "socket:tesla_destination": "1",
    "socket:tesla_destination:output": "22kW",
    "socket:type2_cable": "1",
    "socket:type2_cable:output": "22kW"
  }
},
{
  "type": "node",
  "id": 8280537145,
  "lat": 39.0506676,
  "lon": -7.9097767,
  "tags": {
    "access": "customers",
    "addr:country": "PT",
    "amenity": "charging_station",
    "authentication:none": "yes",
    "capacity": "1",
    "fee": "no",
    "motorcar": "yes",
    "name": "Porsche Destination Charging",
    "network": "Porsche",
    "operator": "Porsche",
    "parking:fee": "no",
    "socket:type2_cable": "1",
    "socket:type2_cable:current": "16",
    "socket:type2_cable:output": "11kW",
    "socket:type2_cable:voltage": "400"
  }
},
{
  "type": "node",
  "id": 8280581499,
  "lat": 38.7105628,
  "lon": -9.4611597,
  "tags": {
    "access": "customers",
    "addr:country": "PT",
    "amenity": "charging_station",
    "capacity": "2",
    "fee": "no",
    "name": "Sheraton Cascais Resort",
    "network": "none",
    "operator": "Sheraton Cascais Resort",
    "parking:fee": "no",
    "socket:tesla_destination": "1",
    "socket:tesla_destination:output": "22kW",
    "socket:type2_cable": "1",
    "socket:type2_cable:output": "22kW"
  }
},
{
  "type": "node",
  "id": 8280581639,
  "lat": 38.7244901,
  "lon": -9.4754961,
  "tags": {
    "access": "customers",
    "addr:country": "PT",
    "amenity": "charging_station",
    "authentication:none": "yes",
    "capacity": "2",
    "fee": "no",
    "motorcar": "yes",
    "name": "Porsche Destination Charging",
    "network": "Porsche",
    "operator": "Porsche",
    "parking:fee": "no",
    "socket:type2_cable": "2",
    "socket:type2_cable:current": "16",
    "socket:type2_cable:output": "11kW",
    "socket:type2_cable:voltage": "400"
  }
},
{
  "type": "node",
  "id": 8280596650,
  "lat": 38.7550643,
  "lon": -9.4544220,
  "tags": {
    "access": "customers",
    "addr:country": "PT",
    "amenity": "charging_station",
    "authentication:none": "yes",
    "capacity": "2",
    "fee": "no",
    "motorcar": "yes",
    "name": "Porsche Destination Charging",
    "network": "Porsche",
    "operator": "Porsche",
    "parking:fee": "no",
    "socket:type2_cable": "2",
    "socket:type2_cable:current": "16",
    "socket:type2_cable:output": "11kW",
    "socket:type2_cable:voltage": "400"
  }
},
{
  "type": "node",
  "id": 8280712068,
  "lat": 39.1531593,
  "lon": -9.3625449,
  "tags": {
    "access": "customers",
    "addr:country": "PT",
    "amenity": "charging_station",
    "authentication:none": "yes",
    "capacity": "2",
    "fee": "no",
    "motorcar": "yes",
    "name": "Porsche Destination Charging",
    "network": "Porsche",
    "operator": "Porsche",
    "parking:fee": "no",
    "socket:type2_cable": "2",
    "socket:type2_cable:current": "16",
    "socket:type2_cable:output": "11kW",
    "socket:type2_cable:voltage": "400"
  }
},
{
  "type": "node",
  "id": 8280832762,
  "lat": 39.3157088,
  "lon": -8.9207395,
  "tags": {
    "access": "private",
    "addr:country": "PT",
    "amenity": "charging_station",
    "authentication:none": "no",
    "capacity": "3",
    "fee": "no",
    "name": "Graforio",
    "network": "none",
    "opening_hours": "24/7",
    "operator": "Graforio",
    "parking:fee": "no",
    "socket:type2_cable": "3",
    "socket:type2_cable:current": "32",
    "socket:type2_cable:output": "22kW",
    "socket:type2_cable:voltage": "400"
  }
},
{
  "type": "node",
  "id": 8281924346,
  "lat": 39.5361205,
  "lon": -8.9617257,
  "tags": {
    "access": "customers",
    "addr:country": "PT",
    "amenity": "charging_station",
    "authentication:none": "yes",
    "capacity": "2",
    "fee": "no",
    "motorcar": "yes",
    "name": "Porsche Destination Charging",
    "network": "Porsche",
    "operator": "Porsche",
    "parking:fee": "no",
    "socket:type2_cable": "2",
    "socket:type2_cable:current": "16",
    "socket:type2_cable:output": "11kW",
    "socket:type2_cable:voltage": "400"
  }
},
{
  "type": "node",
  "id": 8284074297,
  "lat": 38.7025076,
  "lon": -9.4105303,
  "tags": {
    "access": "customers",
    "addr:country": "PT",
    "amenity": "charging_station",
    "authentication:none": "yes",
    "capacity": "1",
    "fee": "no",
    "motorcar": "yes",
    "name": "Porsche Destination Charging",
    "network": "Porsche",
    "opening_hours": "24/7",
    "operator": "Porsche",
    "socket:type2_cable": "1",
    "socket:type2_cable:current": "16",
    "socket:type2_cable:output": "11kW",
    "socket:type2_cable:voltage": "400"
  }
},
{
  "type": "node",
  "id": 8285045469,
  "lat": 40.1664878,
  "lon": -7.4954941,
  "tags": {
    "access": "customers",
    "addr:country": "PT",
    "amenity": "charging_station",
    "authentication:none": "yes",
    "capacity": "2",
    "fee": "no",
    "motorcar": "yes",
    "name": "Porsche Destination Charging",
    "network": "Porsche",
    "operator": "Porsche",
    "parking:fee": "no",
    "socket:type2_cable": "2",
    "socket:type2_cable:current": "16",
    "socket:type2_cable:output": "11kW",
    "socket:type2_cable:voltage": "400"
  }
},
{
  "type": "node",
  "id": 8285049489,
  "lat": 40.1324295,
  "lon": -7.5112863,
  "tags": {
    "access": "customers",
    "addr:country": "PT",
    "amenity": "charging_station",
    "capacity": "2",
    "fee": "no",
    "name": "Convento do Seixo Boutique Hotel & Spa",
    "network": "none",
    "operator": "Convento do Seixo Boutique Hotel",
    "parking:fee": "no",
    "socket:tesla_destination": "1",
    "socket:tesla_destination:output": "22kW",
    "socket:type2_cable": "1",
    "socket:type2_cable:output": "22kW"
  }
},
{
  "type": "node",
  "id": 8285058935,
  "lat": 40.2159767,
  "lon": -8.4136722,
  "tags": {
    "access": "customers",
    "addr:country": "PT",
    "amenity": "charging_station",
    "authentication:none": "yes",
    "capacity": "2",
    "fee": "no",
    "motorcar": "yes",
    "name": "Porsche Destination Charging",
    "network": "Porsche",
    "operator": "Porsche",
    "parking:fee": "no",
    "private": "footway",
    "socket:type2_cable": "2",
    "socket:type2_cable:current": "16",
    "socket:type2_cable:output": "11kW",
    "socket:type2_cable:voltage": "400"
  }
},
{
  "type": "node",
  "id": 8285074947,
  "lat": 40.1963588,
  "lon": -8.4345402,
  "tags": {
    "access": "customers",
    "addr:country": "PT",
    "amenity": "charging_station",
    "authentication:none": "yes",
    "capacity": "2",
    "fee": "no",
    "motorcar": "yes",
    "name": "Porsche Destination Charging",
    "network": "Porsche",
    "operator": "Porsche",
    "parking:fee": "no",
    "socket:type2_cable": "2",
    "socket:type2_cable:current": "16",
    "socket:type2_cable:output": "11kW",
    "socket:type2_cable:voltage": "400"
  }
},
{
  "type": "node",
  "id": 8286130173,
  "lat": 40.2590764,
  "lon": -7.9385112,
  "tags": {
    "access": "customers",
    "addr:country": "PT",
    "amenity": "charging_station",
    "capacity": "2",
    "name": "Quinta da Palmeira Country House",
    "network": "none",
    "operator": "Quinta da Palmeira Country House",
    "socket:tesla_destination": "1",
    "socket:tesla_destination:output": "22kW",
    "socket:type2_cable": "1",
    "socket:type2_cable:output": "22kW"
  }
},
{
  "type": "node",
  "id": 8287704638,
  "lat": 41.1648097,
  "lon": -7.6283339,
  "tags": {
    "access": "customers",
    "addr:country": "PT",
    "amenity": "charging_station",
    "capacity": "2",
    "name": "Quinta do Crasto",
    "network": "none",
    "operator": "Quinta do Crasto",
    "socket:tesla_destination": "1",
    "socket:tesla_destination:output": "11kW",
    "socket:type2_cable": "1",
    "socket:type2_cable:output": "11kW"
  }
},
{
  "type": "node",
  "id": 8287713628,
  "lat": 41.1629742,
  "lon": -7.5476410,
  "tags": {
    "access": "customers",
    "addr:country": "PT",
    "amenity": "charging_station",
    "capacity": "2",
    "name": "Quinta da Côrte",
    "network": "none",
    "operator": "Quinta da Côrte",
    "socket:tesla_destination": "1",
    "socket:tesla_destination:output": "22kW",
    "socket:type2_cable": "1",
    "socket:type2_cable:output": "22kW"
  }
},
{
  "type": "node",
  "id": 8289966177,
  "lat": 39.6487005,
  "lon": -8.8392815,
  "tags": {
    "access": "customers",
    "addr:country": "PT",
    "amenity": "charging_station",
    "authentication:none": "yes",
    "capacity": "2",
    "fee": "no",
    "motorcar": "yes",
    "name": "Porsche Destination Charging",
    "network": "Porsche",
    "opening_hours": "Mo-Su 12:00-22:00",
    "operator": "Porsche",
    "parking:fee": "no",
    "socket:type2_cable": "2",
    "socket:type2_cable:current": "16",
    "socket:type2_cable:output": "11kW",
    "socket:type2_cable:voltage": "400"
  }
},
{
  "type": "node",
  "id": 8298138506,
  "lat": 38.7219313,
  "lon": -9.2177079,
  "tags": {
    "access": "customers",
    "addr:country": "PT",
    "amenity": "charging_station",
    "capacity": "2",
    "name": "Holiday Inn Express Lisboa Alfragide",
    "network": "none",
    "operator": "Holiday Inn Express Lisboa Alfragide",
    "socket:tesla_destination": "1",
    "socket:tesla_destination:output": "11kW",
    "socket:type2_cable": "1",
    "socket:type2_cable:output": "11kW"
  }
},
{
  "type": "node",
  "id": 8301211338,
  "lat": 38.7240810,
  "lon": -9.1502803,
  "tags": {
    "access": "customers",
    "addr:country": "PT",
    "amenity": "charging_station",
    "capacity": "2",
    "name": "Hotel Florida",
    "network": "none",
    "operator": "Hotel Florida",
    "socket:tesla_destination": "1",
    "socket:tesla_destination:output": "22kW",
    "socket:type2_cable": "1",
    "socket:type2_cable:output": "22kW"
  }
},
{
  "type": "node",
  "id": 8307371534,
  "lat": 41.1514852,
  "lon": -7.6824201,
  "tags": {
    "access": "customers",
    "addr:country": "PT",
    "amenity": "charging_station",
    "authentication:none": "yes",
    "capacity": "2",
    "fee": "no",
    "motorcar": "yes",
    "name": "Porsche Destination Charging",
    "network": "Porsche",
    "operator": "Porsche",
    "parking:fee": "no",
    "socket:type2_cable": "2",
    "socket:type2_cable:current": "16",
    "socket:type2_cable:output": "11kW",
    "socket:type2_cable:voltage": "400"
  }
},
{
  "type": "node",
  "id": 8308440084,
  "lat": 41.2028558,
  "lon": -8.7146755,
  "tags": {
    "access": "customers",
    "addr:country": "PT",
    "amenity": "charging_station",
    "authentication:none": "yes",
    "capacity": "2",
    "fee": "no",
    "motorcar": "yes",
    "name": "Porsche Destination Charging",
    "network": "Porsche",
    "operator": "Porsche",
    "parking:fee": "no",
    "socket:type2_cable": "2",
    "socket:type2_cable:current": "16",
    "socket:type2_cable:output": "11kW",
    "socket:type2_cable:voltage": "400"
  }
},
{
  "type": "node",
  "id": 8308541433,
  "lat": 41.1614748,
  "lon": -8.6846817,
  "tags": {
    "access": "customers",
    "addr:country": "PT",
    "amenity": "charging_station",
    "authentication:none": "yes",
    "capacity": "2",
    "fee": "no",
    "motorcar": "yes",
    "name": "Porsche Destination Charging",
    "network": "Porsche",
    "operator": "Porsche",
    "parking:fee": "no",
    "socket:type2_cable": "2",
    "socket:type2_cable:current": "16",
    "socket:type2_cable:output": "11kW",
    "socket:type2_cable:voltage": "400"
  }
},
{
  "type": "node",
  "id": 8308550979,
  "lat": 41.1471280,
  "lon": -8.6321358,
  "tags": {
    "access": "customers",
    "addr:country": "PT",
    "amenity": "charging_station",
    "authentication:none": "yes",
    "capacity": "2",
    "fee": "no",
    "motorcar": "yes",
    "name": "Porsche Destination Charging",
    "network": "Porsche",
    "operator": "Porsche",
    "parking:fee": "no",
    "socket:type2_cable": "2",
    "socket:type2_cable:current": "16",
    "socket:type2_cable:output": "11kW",
    "socket:type2_cable:voltage": "400"
  }
},
{
  "type": "node",
  "id": 8308946954,
  "lat": 38.7305740,
  "lon": -9.1557916,
  "tags": {
    "access": "customers",
    "addr:country": "PT",
    "amenity": "charging_station",
    "authentication:none": "yes",
    "capacity": "1",
    "fee": "no",
    "motorcar": "yes",
    "name": "Porsche Destination Charging",
    "network": "Porsche",
    "operator": "Porsche",
    "parking:fee": "no",
    "socket:type2_cable": "1",
    "socket:type2_cable:current": "16",
    "socket:type2_cable:output": "11kW",
    "socket:type2_cable:voltage": "400"
  }
},
{
  "type": "node",
  "id": 8309468598,
  "lat": 40.9846392,
  "lon": -8.6415182,
  "tags": {
    "access": "customers",
    "addr:country": "PT",
    "amenity": "charging_station",
    "authentication:none": "yes",
    "capacity": "1",
    "fee": "no",
    "motorcar": "yes",
    "name": "Porsche Destination Charging",
    "network": "Porsche",
    "operator": "Porsche",
    "parking:fee": "no",
    "socket:type2_cable": "1",
    "socket:type2_cable:current": "16",
    "socket:type2_cable:output": "11kW",
    "socket:type2_cable:voltage": "400"
  }
},
{
  "type": "node",
  "id": 8309516334,
  "lat": 41.1323285,
  "lon": -8.5748076,
  "tags": {
    "access": "customers",
    "addr:country": "PT",
    "amenity": "charging_station",
    "authentication:none": "yes",
    "capacity": "4",
    "fee": "no",
    "motorcar": "yes",
    "name": "Porsche Destination Charging",
    "network": "Porsche",
    "operator": "Porsche",
    "parking:fee": "no",
    "socket:type2_cable": "4",
    "socket:type2_cable:current": "16",
    "socket:type2_cable:output": "11kW",
    "socket:type2_cable:voltage": "400"
  }
},
{
  "type": "node",
  "id": 8309582383,
  "lat": 41.4180241,
  "lon": -7.0061579,
  "tags": {
    "access": "customers",
    "addr:country": "PT",
    "amenity": "charging_station",
    "authentication:none": "yes",
    "capacity": "2",
    "fee": "no",
    "motorcar": "yes",
    "name": "Porsche Destination Charging",
    "network": "Porsche",
    "operator": "Porsche",
    "parking:fee": "no",
    "socket:type2_cable": "2",
    "socket:type2_cable:current": "16",
    "socket:type2_cable:output": "11kW",
    "socket:type2_cable:voltage": "400"
  }
},
{
  "type": "node",
  "id": 8312981685,
  "lat": 41.7606881,
  "lon": -7.4887048,
  "tags": {
    "access": "customers",
    "addr:country": "PT",
    "amenity": "charging_station",
    "authentication:none": "yes",
    "capacity": "1",
    "fee": "no",
    "motorcar": "yes",
    "name": "Porsche Destination Charging",
    "network": "Porsche",
    "operator": "Porsche",
    "parking:fee": "no",
    "socket:type2_cable": "1",
    "socket:type2_cable:current": "16",
    "socket:type2_cable:output": "11kW",
    "socket:type2_cable:voltage": "400"
  }
},
{
  "type": "node",
  "id": 8313043951,
  "lat": 41.4566586,
  "lon": -8.7762871,
  "tags": {
    "access": "customers",
    "addr:country": "PT",
    "amenity": "charging_station",
    "authentication:none": "yes",
    "capacity": "2",
    "fee": "no",
    "motorcar": "yes",
    "name": "Porsche Destination Charging",
    "network": "Porsche",
    "operator": "Porsche",
    "parking:fee": "no",
    "socket:type2_cable": "2",
    "socket:type2_cable:current": "16",
    "socket:type2_cable:output": "11kW",
    "socket:type2_cable:voltage": "400"
  }
},
{
  "type": "node",
  "id": 8313058708,
  "lat": 41.7500137,
  "lon": -8.5737294,
  "tags": {
    "access": "customers",
    "addr:country": "PT",
    "amenity": "charging_station",
    "authentication:none": "yes",
    "capacity": "1",
    "fee": "no",
    "motorcar": "yes",
    "name": "Porsche Destination Charging",
    "network": "Porsche",
    "operator": "Porsche",
    "parking:fee": "no",
    "socket:type2_cable": "1",
    "socket:type2_cable:current": "16",
    "socket:type2_cable:output": "11kW",
    "socket:type2_cable:voltage": "400"
  }
},
{
  "type": "node",
  "id": 8398426961,
  "lat": 37.9309000,
  "lon": -8.8072211,
  "tags": {
    "access": "private",
    "addr:country": "PT",
    "amenity": "charging_station",
    "authentication:membership_card": "yes",
    "authentication:none": "no",
    "capacity": "2",
    "fee": "yes",
    "motorcar": "yes",
    "name": "SNS-00001 - EDP",
    "network": "Mobi.E",
    "operator": "EDP Comercial",
    "parking:fee": "no",
    "ref": "SNS-00001",
    "socket:chademo": "1",
    "socket:chademo:current": "60",
    "socket:chademo:output": "25kW",
    "socket:chademo:voltage": "500",
    "socket:type2_cable": "1",
    "socket:type2_cable:current": "32",
    "socket:type2_cable:output": "22kW",
    "socket:type2_cable:voltage": "400",
    "website": "https://www.mobie.pt/"
  }
},
{
  "type": "node",
  "id": 8422173529,
  "lat": 37.0946440,
  "lon": -8.1894842,
  "tags": {
    "access": "customers",
    "addr:country": "PT",
    "amenity": "charging_station",
    "authentication:none": "yes",
    "capacity": "2",
    "fee": "no",
    "motorcar": "yes",
    "name": "Porsche Destination Charging",
    "network": "Porsche",
    "operator": "Porsche",
    "parking:fee": "no",
    "socket:type2_cable": "2",
    "socket:type2_cable:current": "16",
    "socket:type2_cable:output": "11kW",
    "socket:type2_cable:voltage": "400"
  }
},
{
  "type": "node",
  "id": 8426984784,
  "lat": 38.7075782,
  "lon": -9.4567609,
  "tags": {
    "access": "customers",
    "addr:country": "PT",
    "amenity": "charging_station",
    "authentication:none": "yes",
    "capacity": "2",
    "fee": "no",
    "motorcar": "yes",
    "name": "Porsche Destination Charging",
    "network": "Porsche",
    "operator": "Porsche",
    "parking:fee": "no",
    "socket:type2_cable": "2",
    "socket:type2_cable:current": "16",
    "socket:type2_cable:output": "11kW",
    "socket:type2_cable:voltage": "400"
  }
},
{
  "type": "node",
  "id": 8427002574,
  "lat": 37.1015487,
  "lon": -8.3797735,
  "tags": {
    "access": "customers",
    "addr:country": "PT",
    "amenity": "charging_station",
    "authentication:none": "yes",
    "capacity": "2",
    "fee": "no",
    "motorcar": "yes",
    "name": "Porsche Destination Charging",
    "network": "Porsche",
    "operator": "Porsche",
    "parking:fee": "no",
    "socket:type2_cable": "2",
    "socket:type2_cable:current": "16",
    "socket:type2_cable:output": "11kW",
    "socket:type2_cable:voltage": "400"
  }
},
{
  "type": "node",
  "id": 8427006803,
  "lat": 39.3860319,
  "lon": -9.1958477,
  "tags": {
    "access": "customers",
    "addr:country": "PT",
    "amenity": "charging_station",
    "authentication:none": "yes",
    "capacity": "2",
    "fee": "no",
    "motorcar": "yes",
    "name": "Porsche Destination Charging",
    "network": "Porsche",
    "operator": "Porsche",
    "parking:fee": "no",
    "socket:type2_cable": "2",
    "socket:type2_cable:current": "16",
    "socket:type2_cable:output": "11kW",
    "socket:type2_cable:voltage": "400"
  }
},
{
  "type": "node",
  "id": 8427051065,
  "lat": 41.0289241,
  "lon": -8.6424369,
  "tags": {
    "access": "customers",
    "addr:country": "PT",
    "amenity": "charging_station",
    "authentication:none": "yes",
    "capacity": "1",
    "fee": "no",
    "motorcar": "yes",
    "name": "Porsche Destination Charging",
    "network": "Porsche",
    "operator": "Porsche",
    "parking:fee": "no",
    "socket:type2_cable": "1",
    "socket:type2_cable:current": "16",
    "socket:type2_cable:output": "11kW",
    "socket:type2_cable:voltage": "400"
  }
},
{
  "type": "node",
  "id": 8427068928,
  "lat": 37.1689316,
  "lon": -8.8585331,
  "tags": {
    "access": "customers",
    "addr:country": "PT",
    "amenity": "charging_station",
    "authentication:none": "yes",
    "capacity": "1",
    "fee": "no",
    "motorcar": "yes",
    "name": "Monte da Vilarinha Porsche Destination Charging",
    "network": "Porsche",
    "operator": "Porsche",
    "parking:fee": "no",
    "socket:type2_cable": "1",
    "socket:type2_cable:current": "16",
    "socket:type2_cable:output": "11kW",
    "socket:type2_cable:voltage": "400"
  }
},
{
  "type": "node",
  "id": 8427068929,
  "lat": 37.1029007,
  "lon": -8.6752751,
  "tags": {
    "access": "customers",
    "addr:country": "PT",
    "amenity": "charging_station",
    "authentication:none": "yes",
    "capacity": "1",
    "fee": "no",
    "motorcar": "yes",
    "name": "Porsche Destination Charging",
    "network": "Porsche",
    "operator": "Porsche",
    "parking:fee": "no",
    "socket:type2_cable": "1",
    "socket:type2_cable:current": "16",
    "socket:type2_cable:output": "11kW",
    "socket:type2_cable:voltage": "400"
  }
},
{
  "type": "node",
  "id": 8427070603,
  "lat": 41.8654941,
  "lon": -8.8481730,
  "tags": {
    "access": "customers",
    "addr:country": "PT",
    "amenity": "charging_station",
    "authentication:none": "yes",
    "capacity": "2",
    "fee": "no",
    "motorcar": "yes",
    "name": "Porsche Destination Charging",
    "network": "Porsche",
    "operator": "Porsche",
    "parking:fee": "no",
    "socket:type2_cable": "2",
    "socket:type2_cable:current": "16",
    "socket:type2_cable:output": "11kW",
    "socket:type2_cable:voltage": "400"
  }
},
{
  "type": "node",
  "id": 8427086029,
  "lat": 39.8518215,
  "lon": -8.8674970,
  "tags": {
    "access": "customers",
    "addr:country": "PT",
    "amenity": "charging_station",
    "authentication:none": "yes",
    "capacity": "2",
    "fee": "no",
    "motorcar": "yes",
    "name": "Porsche Destination Charging",
    "network": "Porsche",
    "operator": "Porsche",
    "parking:fee": "no",
    "socket:type2_cable": "2",
    "socket:type2_cable:current": "16",
    "socket:type2_cable:output": "11kW",
    "socket:type2_cable:voltage": "400"
  }
},
{
  "type": "node",
  "id": 8497568095,
  "lat": 37.0238951,
  "lon": -7.8473496,
  "tags": {
    "access": "customers",
    "addr:country": "PT",
    "amenity": "charging_station",
    "capacity": "2",
    "fee": "no",
    "motorcar": "yes",
    "name": "Real Marina Hotel & Spa Tesla Destination Charger",
    "network": "Tesla",
    "operator": "Tesla",
    "parking:fee": "no",
    "socket:tesla_destination": "1",
    "socket:tesla_destination:output": "22kW",
    "socket:type2_cable": "1",
    "socket:type2_cable:output": "22kW",
    "website": "https://www.tesla.com/pt_PT/findus/list/chargers/Portugal"
  }
},
{
  "type": "node",
  "id": 8497573223,
  "lat": 39.5458100,
  "lon": -8.2925186,
  "tags": {
    "access": "customers",
    "addr:country": "PT",
    "amenity": "charging_station",
    "capacity": "2",
    "fee": "no",
    "motorcar": "yes",
    "name": "Hotel Segredos de Vale Manso Tesla Destination Charger",
    "network": "Tesla",
    "operator": "Tesla",
    "parking:fee": "no",
    "socket:tesla_destination": "1",
    "socket:tesla_destination:output": "22kW",
    "socket:type2_cable": "1",
    "socket:type2_cable:output": "22kW",
    "website": "https://www.tesla.com/pt_PT/findus/list/chargers/Portugal"
  }
},
{
  "type": "node",
  "id": 8688493181,
  "lat": 37.8375592,
  "lon": -7.9667568,
  "tags": {
    "access": "customers",
    "addr:country": "PT",
    "amenity": "charging_station",
    "authentication:none": "yes",
    "capacity": "2",
    "fee": "no",
    "motorcar": "yes",
    "name": "Porsche Destination Charging",
    "network": "Porsche",
    "operator": "Porsche",
    "parking:fee": "no",
    "socket:type2_cable": "2",
    "socket:type2_cable:current": "16",
    "socket:type2_cable:output": "11kW",
    "socket:type2_cable:voltage": "400"
  }
},
{
  "type": "node",
  "id": 8688493182,
  "lat": 37.1802282,
  "lon": -7.4823935,
  "tags": {
    "access": "customers",
    "addr:country": "PT",
    "amenity": "charging_station",
    "authentication:none": "yes",
    "capacity": "1",
    "fee": "no",
    "motorcar": "yes",
    "name": "Porsche Destination Charging",
    "network": "Porsche",
    "operator": "Porsche",
    "parking:fee": "no",
    "socket:type2_cable": "1",
    "socket:type2_cable:current": "16",
    "socket:type2_cable:output": "11kW",
    "socket:type2_cable:voltage": "400"
  }
},
{
  "type": "node",
  "id": 8757866924,
  "lat": 41.5498480,
  "lon": -8.0265550,
  "tags": {
    "access": "customers",
    "addr:country": "PT",
    "amenity": "charging_station",
    "capacity": "4",
    "fee": "no",
    "name": "Quinta do Raposinho Tesla Destination Charger",
    "network": "Tesla",
    "operator": "Tesla",
    "parking:fee": "no",
    "socket:tesla_destination": "2",
    "socket:tesla_destination:output": "22kW",
    "socket:type2_cable": "2",
    "socket:type2_cable:output": "22kW",
    "website": "https://www.tesla.com/pt_PT/findus/list/chargers/Portugal"
  }
}

  ]
}
