{
"type": "FeatureCollection",
"features": [
{
  "type": "Feature",
  "id": "node/8158062237",
  "properties": {
    "access": "customers",
    "addr:country": "PT",
    "amenity": "charging_station",
    "capacity": "2",
    "fee": "no",
    "motorcar": "yes",
    "name": "The Lake Spa Resort Tesla Destination Charger",
    "network": "Tesla",
    "operator": "Tesla",
    "socket:tesla_destination": "1",
    "socket:tesla_destination:output": "6kW",
    "socket:type2_cable": "1",
    "socket:type2_cable:output": "6kW",
    "website": "https://www.tesla.com/pt_PT/findus/list/chargers/Portugal",
    "id": "node/8158062237"
  },
  "geometry": {
    "type": "Point",
    "coordinates": [
      -8.1264705,
      37.0789248
    ]
  }
},
{
  "type": "Feature",
  "id": "node/8168676359",
  "properties": {
    "access": "customers",
    "addr:country": "PT",
    "amenity": "charging_station",
    "capacity": "2",
    "fee": "no",
    "motorcar": "yes",
    "name": "Herdade das Barradas da Serra Tesla Destination Charger",
    "network": "Tesla",
    "operator": "Tesla",
    "parking:fee": "no",
    "ref": "dc28732",
    "socket:tesla_destination": "1",
    "socket:tesla_destination:output": "9kW",
    "socket:type2_cable": "1",
    "socket:type2_cable:output": "9kW",
    "website": "https://www.tesla.com/pt_PT/findus/list/chargers/Portugal",
    "id": "node/8168676359"
  },
  "geometry": {
    "type": "Point",
    "coordinates": [
      -8.6172415,
      38.1942237
    ]
  }
},
{
  "type": "Feature",
  "id": "node/8199423476",
  "properties": {
    "access": "customers",
    "addr:country": "PT",
    "amenity": "charging_station",
    "capacity": "2",
    "fee": "no",
    "motorcar": "yes",
    "name": "Devesa & Devesa Lda Parking Garage Tesla Destination Charger",
    "network": "Tesla",
    "operator": "Tesla",
    "ref": "dc24460",
    "socket:tesla_destination": "1",
    "socket:tesla_destination:output": "8kW",
    "socket:type2_cable": "1",
    "socket:type2_cable:output": "8kW",
    "website": "https://www.tesla.com/pt_PT/findus/list/chargers/Portugal",
    "id": "node/8199423476"
  },
  "geometry": {
    "type": "Point",
    "coordinates": [
      -8.4158472,
      41.5516959
    ]
  }
},
{
  "type": "Feature",
  "id": "node/8199482687",
  "properties": {
    "access": "customers",
    "addr:country": "PT",
    "amenity": "charging_station",
    "capacity": "2",
    "fee": "no",
    "motorcar": "yes",
    "name": "Parque Cerdeira Tesla Destination Charger",
    "network": "Tesla",
    "operator": "Tesla",
    "ref": "dc52381",
    "socket:tesla_destination": "1",
    "socket:tesla_destination:output": "8kW",
    "socket:type2_cable": "1",
    "socket:type2_cable:output": "8kW",
    "website": "https://www.tesla.com/pt_PT/findus/list/chargers/Portugal",
    "id": "node/8199482687"
  },
  "geometry": {
    "type": "Point",
    "coordinates": [
      -8.1897672,
      41.7637307
    ]
  }
},
{
  "type": "Feature",
  "id": "node/8199623608",
  "properties": {
    "access": "customers",
    "addr:country": "PT",
    "amenity": "charging_station",
    "capacity": "4",
    "fee": "no",
    "motorcar": "yes",
    "name": "Quinta da Arrifana Tesla Destination Charger",
    "network": "Tesla",
    "operator": "Tesla",
    "ref": "dc47275",
    "socket:tesla_destination": "2",
    "socket:tesla_destination:output": "7.4kW",
    "socket:type2_cable": "2",
    "socket:type2_cable:output": "7.4kW",
    "website": "https://www.tesla.com/pt_PT/findus/list/chargers/Portugal",
    "id": "node/8199623608"
  },
  "geometry": {
    "type": "Point",
    "coordinates": [
      -8.6357461,
      41.787406
    ]
  }
},
{
  "type": "Feature",
  "id": "node/8286156611",
  "properties": {
    "access": "customers",
    "addr:country": "PT",
    "amenity": "charging_station",
    "capacity": "2",
    "name": "Casa de São Lourenço",
    "network": "none",
    "operator": "Casa de São Lourenço",
    "socket:tesla_destination": "1",
    "socket:tesla_destination:output": "7.4kW",
    "socket:type2_cable": "1",
    "socket:type2_cable:output": "7.4kW",
    "id": "node/8286156611"
  },
  "geometry": {
    "type": "Point",
    "coordinates": [
      -7.5399779,
      40.4187167
    ]
  }
},
{
  "type": "Feature",
  "id": "node/8287603389",
  "properties": {
    "access": "customers",
    "addr:country": "PT",
    "amenity": "charging_station",
    "capacity": "2",
    "name": "Douro41 Hotel & SPA",
    "network": "none",
    "operator": "Douro41 Hotel & SPA",
    "socket:tesla_destination": "1",
    "socket:tesla_destination:output": "7kW",
    "socket:type2_cable": "1",
    "socket:type2_cable:output": "7kW",
    "id": "node/8287603389"
  },
  "geometry": {
    "type": "Point",
    "coordinates": [
      -8.3514588,
      41.0381137
    ]
  }
},
{
  "type": "Feature",
  "id": "node/8308367265",
  "properties": {
    "access": "customers",
    "addr:country": "PT",
    "amenity": "charging_station",
    "capacity": "1",
    "name": "Fafmusica",
    "network": "none",
    "operator": "Fafmusica",
    "socket:type2_cable": "1",
    "socket:type2_cable:current": "20",
    "socket:type2_cable:output": "4.6kW",
    "socket:type2_cable:voltage": "230",
    "id": "node/8308367265"
  },
  "geometry": {
    "type": "Point",
    "coordinates": [
      -8.1684409,
      41.4437246
    ]
  }
}
]
}
