{
"type": "FeatureCollection",
"features": [
{
  "type": "Feature",
  "id": "node/7133557515",
  "properties": {
    "access": "permissive",
    "addr:city": "Aldeia das Açoteias",
    "addr:country": "PT",
    "addr:street": "Estrada das Açoteias",
    "amenity": "charging_station",
    "authentication:membership_card": "yes",
    "authentication:none": "no",
    "capacity": "2",
    "fee": "yes",
    "motorcar": "yes",
    "name": "ABF-00003",
    "network": "Mobi.E",
    "opening_hours": "24/7",
    "operator": "Mobi.E",
    "parking:fee": "no",
    "ref": "ABF-00003",
    "socket:type2": "2",
    "socket:type2:current": "16",
    "socket:type2:output": "11kW",
    "socket:type2:voltage": "400",
    "website": "https://www.mobie.pt",
    "id": "node/7133557515"
  },
  "geometry": {
    "type": "Point",
    "coordinates": [
      -8.1774625,
      37.0946707
    ]
  }
},
{
  "type": "Feature",
  "id": "node/7563719576",
  "properties": {
    "access": "permissive",
    "addr:city": "Aldeia das Açoteias",
    "addr:country": "PT",
    "addr:street": "Estrada das Açoteias",
    "amenity": "charging_station",
    "authentication:membership_card": "yes",
    "authentication:none": "no",
    "capacity": "2",
    "fee": "yes",
    "motorcar": "yes",
    "name": "ABF-00004",
    "network": "Mobi.E",
    "opening_hours": "24/7",
    "operator": "Mobi.E",
    "parking:fee": "no",
    "ref": "ABF-00004",
    "socket:type2": "2",
    "socket:type2:output": "11kW",
    "website": "https://www.mobie.pt",
    "id": "node/7563719576"
  },
  "geometry": {
    "type": "Point",
    "coordinates": [
      -8.1773311,
      37.0959193
    ]
  }
},
{
  "type": "Feature",
  "id": "node/7785698988",
  "properties": {
    "access": "customers",
    "amenity": "charging_station",
    "capacity": "0",
    "name": "Alvoco da Serra",
    "network": "none",
    "operator": "Serra da Estrela",
    "socket:type2": "1",
    "socket:type2:current": "16",
    "socket:type2:output": "11kW",
    "socket:type2:voltage": "400",
    "id": "node/7785698988"
  },
  "geometry": {
    "type": "Point",
    "coordinates": [
      -7.6713656,
      40.2951973
    ]
  }
},
{
  "type": "Feature",
  "id": "node/8085979209",
  "properties": {
    "access": "permissive",
    "addr:country": "PT",
    "amenity": "charging_station",
    "authentication:membership_card": "yes",
    "authentication:none": "no",
    "capacity": "2",
    "email": "apoio.cliente@kmlowcost.com",
    "fee": "yes",
    "motorcar": "yes",
    "name": "IPS-00003",
    "network": "Mobi.E",
    "opening_hours": "Mo-Fr 09:00-18:00",
    "operator": "KLC",
    "parking:fee": "no",
    "phone": "+351 800 296 929",
    "ref": "IPS-00003",
    "socket:type2": "2",
    "socket:type2:current": "32",
    "socket:type2:output": "22kW",
    "socket:type2:voltage": "400",
    "website": "https://www.mobie.pt",
    "id": "node/8085979209"
  },
  "geometry": {
    "type": "Point",
    "coordinates": [
      -9.0490293,
      38.652903
    ]
  }
},
{
  "type": "Feature",
  "id": "node/8089522316",
  "properties": {
    "access": "permissive",
    "addr:country": "PT",
    "amenity": "charging_station",
    "authentication:membership_card": "yes",
    "authentication:none": "no",
    "capacity": "2",
    "email": "electric@prioenergy.com",
    "fee": "yes",
    "motorcar": "yes",
    "name": "CLD-00007",
    "network": "Mobi.E",
    "opening_hours": "Mo-Fr 09:00-18:00",
    "operator": "Prio.E",
    "parking:fee": "no",
    "phone": "+351 800 450 111",
    "ref": "CLD-00007",
    "socket:type2": "2",
    "socket:type2:current": "32",
    "socket:type2:output": "22kW",
    "socket:type2:voltage": "400",
    "website": "https://www.mobie.pt",
    "id": "node/8089522316"
  },
  "geometry": {
    "type": "Point",
    "coordinates": [
      -9.1347409,
      39.3959932
    ]
  }
},
{
  "type": "Feature",
  "id": "node/8104906836",
  "properties": {
    "access": "customers",
    "addr:country": "PT",
    "amenity": "charging_station",
    "authentication:membership_card": "yes",
    "authentication:none": "no",
    "capacity": "2",
    "email": "mobilidade.electricacrc@galp.com",
    "fee": "yes",
    "motorcar": "yes",
    "name": "LSB-00052 - Expofor",
    "network": "Mobi.E",
    "opening_hours": "24/7",
    "operator": "Galp Power",
    "parking:fee": "no",
    "phone": "+351 800 249 249",
    "ref": "LSB-00052",
    "socket:type2": "2",
    "socket:type2:current": "32",
    "socket:type2:output": "22kW",
    "socket:type2:voltage": "400",
    "website": "https://www.mobie.pt",
    "id": "node/8104906836"
  },
  "geometry": {
    "type": "Point",
    "coordinates": [
      -9.0997561,
      38.7852512
    ]
  }
},
{
  "type": "Feature",
  "id": "node/8109646968",
  "properties": {
    "access": "permissive",
    "addr:country": "PT",
    "amenity": "charging_station",
    "authentication:membership_card": "yes",
    "authentication:none": "no",
    "capacity": "2",
    "email": "suporte@emobtec.pt",
    "fee": "yes",
    "motorcar": "yes",
    "name": "GRD-00006 - Instituto Politécnico da Guarda",
    "network": "Mobi.E",
    "opening_hours": "Mo-Fr 09:00-17:00",
    "operator": "Emobtec",
    "parking:fee": "no",
    "phone": "+351 800 500 216",
    "ref": "GRD-00006",
    "socket:type2": "2",
    "socket:type2:current": "32",
    "socket:type2:output": "22kW",
    "socket:type2:voltage": "400",
    "website": "https://www.mobie.pt",
    "id": "node/8109646968"
  },
  "geometry": {
    "type": "Point",
    "coordinates": [
      -7.2847,
      40.5411916
    ]
  }
},
{
  "type": "Feature",
  "id": "node/8113069560",
  "properties": {
    "access": "permissive",
    "addr:country": "PT",
    "amenity": "charging_station",
    "authentication:membership_card": "yes",
    "authentication:none": "no",
    "capacity": "2",
    "email": "info@evce.pt",
    "fee": "yes",
    "motorcar": "yes",
    "name": "UTAD-00004",
    "network": "Mobi.E",
    "opening_hours": "24/7",
    "operator": "EVCE",
    "parking:fee": "no",
    "phone": "+351 253 623 190",
    "ref": "UTAD-00004",
    "socket:type2": "2",
    "socket:type2:current": "32",
    "socket:type2:output": "22kW",
    "socket:type2:voltage": "400",
    "website": "https://www.mobie.pt",
    "id": "node/8113069560"
  },
  "geometry": {
    "type": "Point",
    "coordinates": [
      -7.7371001,
      41.3013278
    ]
  }
},
{
  "type": "Feature",
  "id": "node/8113094743",
  "properties": {
    "access": "customers",
    "addr:country": "PT",
    "amenity": "charging_station",
    "authentication:membership_card": "yes",
    "authentication:none": "no",
    "capacity": "2",
    "email": "suporte@evpower.pt",
    "fee": "yes",
    "motorcar": "yes",
    "name": "CESPU-00004",
    "network": "Mobi.E",
    "opening_hours": "24/7",
    "operator": "EV Power",
    "parking:fee": "no",
    "phone": "+351 800 254 565",
    "ref": "CESPU-00004",
    "socket:type2": "2",
    "socket:type2:current": "32",
    "socket:type2:output": "22kW",
    "socket:type2:voltage": "400",
    "website": "https://www.mobie.pt",
    "id": "node/8113094743"
  },
  "geometry": {
    "type": "Point",
    "coordinates": [
      -8.5140315,
      41.4066547
    ]
  }
},
{
  "type": "Feature",
  "id": "node/8113094744",
  "properties": {
    "access": "customers",
    "addr:country": "PT",
    "amenity": "charging_station",
    "authentication:membership_card": "yes",
    "authentication:none": "no",
    "capacity": "2",
    "email": "suporte@evpower.pt",
    "fee": "yes",
    "motorcar": "yes",
    "name": "CESPU-00003",
    "network": "Mobi.E",
    "opening_hours": "24/7",
    "operator": "EV Power",
    "parking:fee": "no",
    "phone": "+351 800 254 565",
    "ref": "CESPU-00003",
    "socket:type2": "2",
    "socket:type2:current": "32",
    "socket:type2:output": "22kW",
    "socket:type2:voltage": "400",
    "website": "https://www.mobie.pt",
    "id": "node/8113094744"
  },
  "geometry": {
    "type": "Point",
    "coordinates": [
      -8.5140248,
      41.406713
    ]
  }
},
{
  "type": "Feature",
  "id": "node/8116408192",
  "properties": {
    "access": "customers",
    "addr:city": "Caliços",
    "addr:country": "PT",
    "addr:housenumber": "2",
    "addr:postcode": "8100-299 Loulé",
    "addr:street": "Leroy Merlin, Avenida Algarve",
    "amenity": "charging_station",
    "authentication:membership_card": "yes",
    "authentication:none": "no",
    "capacity": "4",
    "email": "geral@bluecharge.pt",
    "fee": "yes",
    "location": "underground",
    "motorcar": "yes",
    "name": "LLE-00041/42",
    "network": "Mobi.E",
    "opening_hours": "Mo-Su 09:00-21:00",
    "operator": "Bluecharge",
    "parking:fee": "no",
    "phone": "+351 914 537 278",
    "ref": "LLE-00041;LLE-00042",
    "socket:type2": "4",
    "socket:type2:current": "16",
    "socket:type2:output": "11kW",
    "socket:type2:voltage": "400",
    "website": "https://www.mobie.pt",
    "id": "node/8116408192"
  },
  "geometry": {
    "type": "Point",
    "coordinates": [
      -8.00009,
      37.1017049
    ]
  }
},
{
  "type": "Feature",
  "id": "node/8116444244",
  "properties": {
    "access": "customers",
    "addr:country": "PT",
    "amenity": "charging_station",
    "authentication:membership_card": "yes",
    "authentication:none": "no",
    "capacity": "4",
    "email": "geral@bluecharge.pt",
    "fee": "yes",
    "motorcar": "yes",
    "name": "OER-00026/27 - Leroy Merlin",
    "network": "Mobi.E",
    "opening_hours": "24/7",
    "operator": "Bluecharge",
    "parking:fee": "no",
    "phone": "+351 914 537 278",
    "ref": "OER-00026;OER-00027",
    "socket:type2": "4",
    "socket:type2:current": "16",
    "socket:type2:output": "11kW",
    "socket:type2:voltage": "400",
    "website": "https://www.mobie.pt",
    "id": "node/8116444244"
  },
  "geometry": {
    "type": "Point",
    "coordinates": [
      -9.215409,
      38.7256086
    ]
  }
},
{
  "type": "Feature",
  "id": "node/8116475846",
  "properties": {
    "access": "customers",
    "addr:country": "PT",
    "amenity": "charging_station",
    "authentication:membership_card": "yes",
    "authentication:none": "no",
    "capacity": "4",
    "email": "mobilidade.electricacrc@galp.com",
    "fee": "yes",
    "motorcar": "yes",
    "name": "VNG-00037/38 - Makro",
    "network": "Mobi.E",
    "opening_hours": "Mo-Su 09:00-20:00",
    "operator": "Galp Power",
    "parking:fee": "no",
    "phone": "+351 800 249 249",
    "ref": "VNG-00037;VNG-00038",
    "socket:type2": "4",
    "socket:type2:current": "32",
    "socket:type2:output": "22kW",
    "socket:type2:voltage": "400",
    "website": "https://www.mobie.pt",
    "id": "node/8116475846"
  },
  "geometry": {
    "type": "Point",
    "coordinates": [
      -8.6257066,
      41.1205021
    ]
  }
},
{
  "type": "Feature",
  "id": "node/8155634978",
  "properties": {
    "access": "private",
    "addr:city": "Coimbra",
    "addr:country": "PT",
    "amenity": "charging_station",
    "authentication:membership_card": "yes",
    "authentication:none": "no",
    "capacity": "2",
    "email": "apoio.cliente@kmlowcost.com",
    "fee": "yes",
    "motorcar": "yes",
    "name": "CBR-00028",
    "network": "Mobi.E",
    "opening_hours": "24/7",
    "operator": "KLC",
    "parking:fee": "no",
    "phone": "+351 800 296 929",
    "ref": "CBR-00028",
    "socket:type2": "2",
    "socket:type2:current": "32",
    "socket:type2:output": "22kW",
    "socket:type2:voltage": "400",
    "website": "https://www.mobie.pt",
    "id": "node/8155634978"
  },
  "geometry": {
    "type": "Point",
    "coordinates": [
      -8.4129967,
      40.1921105
    ]
  }
},
{
  "type": "Feature",
  "id": "node/8155668797",
  "properties": {
    "access": "permissive",
    "addr:city": "Coimbra",
    "addr:country": "PT",
    "amenity": "charging_station",
    "authentication:membership_card": "yes",
    "authentication:none": "no",
    "capacity": "2",
    "email": "apoio.cliente@kmlowcost.com",
    "fee": "yes",
    "motorcar": "yes",
    "name": "CBR-00029",
    "network": "Mobi.E",
    "opening_hours": "Mo-Fr 09:00-17:00",
    "operator": "KLC",
    "parking:fee": "no",
    "phone": "+351 800 296 929",
    "ref": "CBR-00029",
    "socket:type2": "2",
    "socket:type2:current": "32",
    "socket:type2:output": "22kW",
    "socket:type2:voltage": "400",
    "website": "https://www.mobie.pt",
    "id": "node/8155668797"
  },
  "geometry": {
    "type": "Point",
    "coordinates": [
      -8.453722,
      40.2048616
    ]
  }
},
{
  "type": "Feature",
  "id": "node/8155678964",
  "properties": {
    "access": "permissive",
    "addr:city": "Coimbra",
    "addr:country": "PT",
    "amenity": "charging_station",
    "authentication:membership_card": "yes",
    "authentication:none": "no",
    "capacity": "2",
    "email": "apoio.cliente@kmlowcost.com",
    "fee": "yes",
    "motorcar": "yes",
    "name": "CBR-00031",
    "network": "Mobi.E",
    "opening_hours": "Mo-Fr 09:00-17:00",
    "operator": "KLC",
    "parking:fee": "no",
    "phone": "+351 800 296 929",
    "ref": "CBR-00031",
    "socket:type2": "2",
    "socket:type2:current": "32",
    "socket:type2:output": "22kW",
    "socket:type2:voltage": "400",
    "website": "https://www.mobie.pt",
    "id": "node/8155678964"
  },
  "geometry": {
    "type": "Point",
    "coordinates": [
      -8.4609452,
      40.1983932
    ]
  }
},
{
  "type": "Feature",
  "id": "node/8155693771",
  "properties": {
    "access": "permissive",
    "addr:city": "Coimbra",
    "addr:country": "PT",
    "amenity": "charging_station",
    "authentication:membership_card": "yes",
    "authentication:none": "no",
    "capacity": "2",
    "email": "apoio.cliente@kmlowcost.com",
    "fee": "yes",
    "motorcar": "yes",
    "name": "CBR-00026",
    "network": "Mobi.E",
    "opening_hours": "Mo-Fr 09:00-17:00",
    "operator": "KLC",
    "parking:fee": "no",
    "phone": "+351 800 296 929",
    "ref": "CBR-00026",
    "socket:type2": "2",
    "socket:type2:current": "32",
    "socket:type2:output": "22kW",
    "socket:type2:voltage": "400",
    "website": "https://www.mobie.pt",
    "id": "node/8155693771"
  },
  "geometry": {
    "type": "Point",
    "coordinates": [
      -8.4537649,
      40.2117177
    ]
  }
},
{
  "type": "Feature",
  "id": "node/8155693772",
  "properties": {
    "access": "permissive",
    "addr:city": "Coimbra",
    "addr:country": "PT",
    "amenity": "charging_station",
    "authentication:membership_card": "yes",
    "authentication:none": "no",
    "capacity": "2",
    "email": "apoio.cliente@kmlowcost.com",
    "fee": "yes",
    "motorcar": "yes",
    "name": "CBR-00027",
    "network": "Mobi.E",
    "opening_hours": "Mo-Fr 09:00-17:00",
    "operator": "KLC",
    "parking:fee": "no",
    "phone": "+351 800 296 929",
    "ref": "CBR-00027",
    "socket:type2": "2",
    "socket:type2:current": "32",
    "socket:type2:output": "22kW",
    "socket:type2:voltage": "400",
    "website": "https://www.mobie.pt",
    "id": "node/8155693772"
  },
  "geometry": {
    "type": "Point",
    "coordinates": [
      -8.4532164,
      40.2100944
    ]
  }
},
{
  "type": "Feature",
  "id": "node/8238712864",
  "properties": {
    "access": "customers",
    "addr:country": "PT",
    "amenity": "charging_station",
    "capacity": "1",
    "name": "Herdade da Malhadinha Nova",
    "network": "none",
    "operator": "Herdade da Malhadinha Nova",
    "socket:type2": "2",
    "socket:type2:current": "32",
    "socket:type2:output": "22kW",
    "socket:type2:voltage": "400",
    "id": "node/8238712864"
  },
  "geometry": {
    "type": "Point",
    "coordinates": [
      -7.9668286,
      37.8376044
    ]
  }
},
{
  "type": "Feature",
  "id": "node/8255574845",
  "properties": {
    "access": "private",
    "addr:country": "PT",
    "amenity": "charging_station",
    "capacity": "1",
    "name": "Ramalho & Mendes",
    "network": "none",
    "official_name": "Ramalho & Mendes, Lda.",
    "operator": "Ramalho & Mendes Lda.",
    "socket:type2": "1",
    "socket:type2:current": "16",
    "socket:type2:output": "11kW",
    "socket:type2:voltage": "400",
    "id": "node/8255574845"
  },
  "geometry": {
    "type": "Point",
    "coordinates": [
      -8.4367141,
      39.9239453
    ]
  }
},
{
  "type": "Feature",
  "id": "node/8255633446",
  "properties": {
    "access": "customers",
    "addr:country": "PT",
    "amenity": "charging_station",
    "capacity": "2",
    "name": "Hotel Feira Pedra Bela",
    "network": "none",
    "operator": "Hotel Feira Pedra Bela",
    "socket:type2": "2",
    "socket:type2:current": "32",
    "socket:type2:output": "22kW",
    "socket:type2:voltage": "400",
    "id": "node/8255633446"
  },
  "geometry": {
    "type": "Point",
    "coordinates": [
      -8.5136399,
      40.9505436
    ]
  }
},
{
  "type": "Feature",
  "id": "node/8255636046",
  "properties": {
    "access": "customers",
    "addr:country": "PT",
    "amenity": "charging_station",
    "capacity": "1",
    "name": "Hotel Rural Quinta de Santo Estêvão",
    "network": "none",
    "operator": "Hotel Rural Quinta de Santo Estêvão",
    "socket:type2": "1",
    "socket:type2:current": "32",
    "socket:type2:output": "22kW",
    "socket:type2:voltage": "400",
    "id": "node/8255636046"
  },
  "geometry": {
    "type": "Point",
    "coordinates": [
      -7.5121406,
      40.8538206
    ]
  }
},
{
  "type": "Feature",
  "id": "node/8262666665",
  "properties": {
    "access": "customers",
    "addr:country": "PT",
    "amenity": "charging_station",
    "capacity": "1",
    "name": "Nau Morgado Golf Hotel",
    "network": "none",
    "operator": "Nau Morgado Golf Hotel",
    "socket:type2": "1",
    "socket:type2:current": "16",
    "socket:type2:output": "11kW",
    "socket:type2:voltage": "400",
    "id": "node/8262666665"
  },
  "geometry": {
    "type": "Point",
    "coordinates": [
      -8.5680404,
      37.1969501
    ]
  }
},
{
  "type": "Feature",
  "id": "node/8269975156",
  "properties": {
    "access": "customers",
    "addr:country": "PT",
    "amenity": "charging_station",
    "authentication:membership_card": "yes",
    "authentication:none": "no",
    "capacity": "2",
    "fee": "yes",
    "motorcar": "yes",
    "name": "ABF-00011",
    "network": "Mobi.E",
    "opening_hours": "24/7",
    "operator": "Bluecharge",
    "parking:fee": "no",
    "ref": "ABF-00011",
    "socket:type2": "2",
    "socket:type2:current": "32",
    "socket:type2:output": "22kW",
    "socket:type2:voltage": "400",
    "start_date": "2021-03-21",
    "website": "https://www.mobie.pt",
    "id": "node/8269975156"
  },
  "geometry": {
    "type": "Point",
    "coordinates": [
      -8.2050947,
      37.0916648
    ]
  }
},
{
  "type": "Feature",
  "id": "node/8269980883",
  "properties": {
    "access": "private",
    "addr:country": "PT",
    "amenity": "charging_station",
    "capacity": "1",
    "name": "Ourabay Hotel",
    "network": "none",
    "operator": "Ourabay Hotel",
    "socket:type2": "1",
    "socket:type2:current": "32",
    "socket:type2:output": "22kW",
    "socket:type2:voltage": "400",
    "id": "node/8269980883"
  },
  "geometry": {
    "type": "Point",
    "coordinates": [
      -8.232704,
      37.0934341
    ]
  }
},
{
  "type": "Feature",
  "id": "node/8270014602",
  "properties": {
    "access": "customers",
    "addr:country": "PT",
    "amenity": "charging_station",
    "capacity": "2",
    "fee": "no",
    "name": "O Teodósio",
    "network": "none",
    "opening_hours": "Mo-Su 12:00-21:30",
    "operator": "O Teodósio",
    "socket:type2": "2",
    "socket:type2:current": "32",
    "socket:type2:output": "22kW",
    "socket:type2:voltage": "400",
    "id": "node/8270014602"
  },
  "geometry": {
    "type": "Point",
    "coordinates": [
      -8.2991168,
      37.1315841
    ]
  }
},
{
  "type": "Feature",
  "id": "node/8270017091",
  "properties": {
    "access": "customers",
    "addr:country": "PT",
    "amenity": "charging_station",
    "capacity": "1",
    "name": "Hotel Nau Salgados Palm Village",
    "network": "none",
    "operator": "Hotel Nau Salgados Palm Village",
    "socket:type2": "1",
    "socket:type2:current": "32",
    "socket:type2:output": "22kW",
    "socket:type2:voltage": "400",
    "id": "node/8270017091"
  },
  "geometry": {
    "type": "Point",
    "coordinates": [
      -8.31992,
      37.0947841
    ]
  }
},
{
  "type": "Feature",
  "id": "node/8270046347",
  "properties": {
    "access": "customers",
    "addr:country": "PT",
    "amenity": "charging_station",
    "authentication:membership_card": "yes",
    "authentication:none": "no",
    "capacity": "2",
    "fee": "yes",
    "motorcar": "yes",
    "name": "SLV-00005 - Pestana Golf Resort",
    "network": "Mobi.E",
    "opening_hours": "24/7",
    "operator": "Veimonte",
    "parking:fee": "no",
    "ref": "SLV-00005",
    "socket:type2": "2",
    "socket:type2:current": "32",
    "socket:type2:output": "22kW",
    "socket:type2:voltage": "400",
    "website": "https://www.mobie.pt",
    "id": "node/8270046347"
  },
  "geometry": {
    "type": "Point",
    "coordinates": [
      -8.427093,
      37.1681718
    ]
  }
},
{
  "type": "Feature",
  "id": "node/8270166839",
  "properties": {
    "access": "customers",
    "addr:country": "PT",
    "amenity": "charging_station",
    "authentication:membership_card": "yes",
    "authentication:none": "no",
    "capacity": "2",
    "fee": "yes",
    "motorcar": "yes",
    "name": "LGA-00006 - Pestana Golf Resort Vale da Pinta",
    "network": "Mobi.E",
    "opening_hours": "24/7",
    "operator": "Veimonte",
    "parking:fee": "no",
    "ref": "LGA-00006",
    "socket:type2": "2",
    "socket:type2:current": "32",
    "socket:type2:output": "22kW",
    "socket:type2:voltage": "400",
    "website": "https://www.mobie.pt",
    "id": "node/8270166839"
  },
  "geometry": {
    "type": "Point",
    "coordinates": [
      -8.4779102,
      37.1325934
    ]
  }
},
{
  "type": "Feature",
  "id": "node/8270194487",
  "properties": {
    "access": "customers",
    "addr:country": "PT",
    "amenity": "charging_station",
    "authentication:membership_card": "yes",
    "authentication:none": "no",
    "capacity": "2",
    "fee": "yes",
    "motorcar": "yes",
    "name": "LGA-00005 - Pestana Golf Resort Gramacho",
    "network": "Mobi.E",
    "opening_hours": "24/7",
    "operator": "Veimonte",
    "parking:fee": "no",
    "ref": "LGA-00005",
    "socket:type2": "2",
    "socket:type2:current": "32",
    "socket:type2:output": "22kW",
    "socket:type2:voltage": "400",
    "website": "https://www.mobie.pt",
    "id": "node/8270194487"
  },
  "geometry": {
    "type": "Point",
    "coordinates": [
      -8.487896,
      37.1250853
    ]
  }
},
{
  "type": "Feature",
  "id": "node/8270308912",
  "properties": {
    "access": "customers",
    "addr:country": "PT",
    "amenity": "charging_station",
    "authentication:membership_card": "yes",
    "authentication:none": "no",
    "capacity": "2",
    "email": "suporte@mobiletric.com",
    "fee": "yes",
    "motorcar": "yes",
    "name": "SCR-00006 - Four Views Oasis",
    "network": "Mobi.E",
    "opening_hours": "24/7",
    "operator": "Mobiletric",
    "parking:fee": "no",
    "phone": "+351 800 210 204",
    "ref": "SCR-00006",
    "socket:type2": "2",
    "socket:type2:current": "16",
    "socket:type2:output": "11kW",
    "socket:type2:voltage": "400",
    "website": "https://www.mobie.pt",
    "id": "node/8270308912"
  },
  "geometry": {
    "type": "Point",
    "coordinates": [
      -16.8256494,
      32.6464492
    ]
  }
},
{
  "type": "Feature",
  "id": "node/8270470890",
  "properties": {
    "access": "customers",
    "addr:country": "PT",
    "amenity": "charging_station",
    "capacity": "2",
    "fee": "yes",
    "name": "Orbitur Sitava Camping",
    "network": "none",
    "opening_hours": "24/7",
    "operator": "Orbitur",
    "parking:fee": "no",
    "socket:type2": "2",
    "socket:type2:current": "32",
    "socket:type2:output": "22kW",
    "socket:type2:voltage": "400",
    "id": "node/8270470890"
  },
  "geometry": {
    "type": "Point",
    "coordinates": [
      -8.7899101,
      37.7782326
    ]
  }
},
{
  "type": "Feature",
  "id": "node/8275081880",
  "properties": {
    "access": "private",
    "addr:country": "PT",
    "amenity": "charging_station",
    "authentication:membership_card": "yes",
    "authentication:none": "no",
    "capacity": "2",
    "email": "suporte@evpower.pt",
    "fee": "yes",
    "motorcar": "yes",
    "name": "UEVORA-00002",
    "network": "Mobi.E",
    "opening_hours": "24/7",
    "operator": "EV Power",
    "parking:fee": "no",
    "phone": "+351 800 254 565",
    "ref": "UEVORA-00002",
    "socket:type2": "2",
    "socket:type2:current": "16",
    "socket:type2:output": "11kW",
    "socket:type2:voltage": "400",
    "website": "https://www.mobie.pt",
    "id": "node/8275081880"
  },
  "geometry": {
    "type": "Point",
    "coordinates": [
      -8.0176055,
      38.5276112
    ]
  }
},
{
  "type": "Feature",
  "id": "node/8275202544",
  "properties": {
    "access": "private",
    "addr:country": "PT",
    "amenity": "charging_station",
    "authentication:membership_card": "yes",
    "authentication:none": "no",
    "capacity": "2",
    "email": "suporte@evpower.pt",
    "fee": "yes",
    "motorcar": "yes",
    "name": "UEVORA-00001",
    "network": "Mobi.E",
    "opening_hours": "24/7",
    "operator": "EV Power",
    "parking:fee": "no",
    "phone": "+351 800 254 565",
    "ref": "UEVORA-00001",
    "socket:type2": "2",
    "socket:type2:current": "16",
    "socket:type2:output": "11kW",
    "socket:type2:voltage": "400",
    "website": "https://www.mobie.pt",
    "id": "node/8275202544"
  },
  "geometry": {
    "type": "Point",
    "coordinates": [
      -7.9048924,
      38.5786702
    ]
  }
},
{
  "type": "Feature",
  "id": "node/8275229538",
  "properties": {
    "access": "customers",
    "addr:country": "PT",
    "amenity": "charging_station",
    "capacity": "12",
    "name": "Recheio",
    "network": "none",
    "opening_hours": "Mo-Fr 07:00-18:30; Sa 07:00-18:00; Su 08:00-13:00",
    "operator": "Recheio",
    "socket:type2": "12",
    "socket:type2:current": "16",
    "socket:type2:output": "11kW",
    "socket:type2:voltage": "400",
    "id": "node/8275229538"
  },
  "geometry": {
    "type": "Point",
    "coordinates": [
      -9.145056,
      38.6330685
    ]
  }
},
{
  "type": "Feature",
  "id": "node/8275285774",
  "properties": {
    "access": "customers",
    "addr:country": "PT",
    "amenity": "charging_station",
    "capacity": "2",
    "fee": "yes",
    "name": "Sadiauto",
    "network": "none",
    "opening_hours": "Mo-Fr 09:00-18:00",
    "operator": "Sadiauto",
    "socket:type2": "2",
    "socket:type2:current": "16",
    "socket:type2:output": "11kW",
    "socket:type2:voltage": "400",
    "id": "node/8275285774"
  },
  "geometry": {
    "type": "Point",
    "coordinates": [
      -9.1679312,
      38.6461007
    ]
  }
},
{
  "type": "Feature",
  "id": "node/8275596349",
  "properties": {
    "access": "customers",
    "addr:country": "PT",
    "amenity": "charging_station",
    "capacity": "2",
    "motorcar": "yes",
    "name": "Entreposto Renault",
    "network": "Renault",
    "operator": "Renault",
    "socket:type2": "2",
    "socket:type2:current": "32",
    "socket:type2:output": "22kW",
    "socket:type2:voltage": "400",
    "id": "node/8275596349"
  },
  "geometry": {
    "type": "Point",
    "coordinates": [
      -7.8949937,
      37.0253384
    ]
  }
},
{
  "type": "Feature",
  "id": "node/8279646490",
  "properties": {
    "access": "customers",
    "addr:country": "PT",
    "amenity": "charging_station",
    "capacity": "2",
    "name": "Pestana Troia Eco-Resort & Residences",
    "network": "none",
    "operator": "Pestana Troia Eco-Resort & Residences",
    "socket:type2": "2",
    "socket:type2:current": "32",
    "socket:type2:output": "22kW",
    "socket:type2:voltage": "400",
    "id": "node/8279646490"
  },
  "geometry": {
    "type": "Point",
    "coordinates": [
      -8.8674085,
      38.4634571
    ]
  }
},
{
  "type": "Feature",
  "id": "node/8279649961",
  "properties": {
    "access": "private",
    "addr:country": "PT",
    "amenity": "charging_station",
    "authentication:membership_card": "yes",
    "authentication:none": "no",
    "capacity": "2",
    "email": "apoio.cliente@kmlowcost.com",
    "fee": "yes",
    "motorcar": "yes",
    "name": "IPS-00001 - Campus do IPS - Estefanilha",
    "network": "Mobi.E",
    "opening_hours": "24/7",
    "operator": "KLC",
    "parking:fee": "no",
    "phone": "+351 800 296 929",
    "ref": "IPS-00001",
    "socket:type2": "2",
    "socket:type2:current": "32",
    "socket:type2:output": "22kW",
    "socket:type2:voltage": "400",
    "website": "https://www.mobie.pt",
    "id": "node/8279649961"
  },
  "geometry": {
    "type": "Point",
    "coordinates": [
      -8.8390844,
      38.5219654
    ]
  }
},
{
  "type": "Feature",
  "id": "node/8279649962",
  "properties": {
    "access": "private",
    "addr:country": "PT",
    "amenity": "charging_station",
    "authentication:membership_card": "yes",
    "authentication:none": "no",
    "capacity": "2",
    "email": "apoio.cliente@kmlowcost.com",
    "fee": "yes",
    "motorcar": "yes",
    "name": "IPS-00002 - Campus do IPS - Estefanilha",
    "network": "Mobi.E",
    "opening_hours": "24/7",
    "operator": "KLC",
    "parking:fee": "no",
    "phone": "+351 800 296 929",
    "ref": "IPS-00002",
    "socket:type2": "2",
    "socket:type2:current": "32",
    "socket:type2:output": "22kW",
    "socket:type2:voltage": "400",
    "website": "https://www.mobie.pt",
    "id": "node/8279649962"
  },
  "geometry": {
    "type": "Point",
    "coordinates": [
      -8.8390414,
      38.5224848
    ]
  }
},
{
  "type": "Feature",
  "id": "node/8279677299",
  "properties": {
    "access": "private",
    "addr:country": "PT",
    "amenity": "charging_station",
    "authentication:membership_card": "yes",
    "authentication:none": "no",
    "capacity": "4",
    "email": "suporte@mobiletric.com",
    "fee": "yes",
    "motorcar": "yes",
    "name": "FCT-00003/4",
    "network": "Mobi.E",
    "opening_hours": "24/7",
    "operator": "Mobiletric",
    "parking:fee": "no",
    "phone": "+351 800 210 204",
    "ref": "FCT-00003;FCT-00004",
    "socket:type2": "2",
    "socket:type2:current": "32",
    "socket:type2:output": "22kW",
    "socket:type2:voltage": "400",
    "website": "https://www.mobie.pt",
    "id": "node/8279677299"
  },
  "geometry": {
    "type": "Point",
    "coordinates": [
      -9.205794,
      38.6624696
    ]
  }
},
{
  "type": "Feature",
  "id": "node/8279724371",
  "properties": {
    "access": "customers",
    "addr:country": "PT",
    "amenity": "charging_station",
    "capacity": "1",
    "name": "Hospedaria d'El Rei",
    "network": "none",
    "operator": "Hospedaria d'El Rei",
    "socket:type2": "1",
    "socket:type2:current": "32",
    "socket:type2:output": "22kW",
    "socket:type2:voltage": "400",
    "id": "node/8279724371"
  },
  "geometry": {
    "type": "Point",
    "coordinates": [
      -7.8981534,
      38.5649787
    ]
  }
},
{
  "type": "Feature",
  "id": "node/8280518909",
  "properties": {
    "access": "customers",
    "addr:country": "PT",
    "amenity": "charging_station",
    "authentication:membership_card": "yes",
    "authentication:none": "no",
    "capacity": "2",
    "email": "mobilidade-eletrica@edp.pt",
    "fee": "yes",
    "motorcar": "yes",
    "name": "ELV-00002/3 - Hotel VIla Galé Collection",
    "network": "Mobi.E",
    "opening_hours": "24/7",
    "operator": "EDP Comercial",
    "parking:fee": "no",
    "phone": "+351 800 222 222",
    "ref": "ELV-00002;ELV-00003",
    "socket:type2": "2",
    "socket:type2:current": "32",
    "socket:type2:output": "22kW",
    "socket:type2:voltage": "400",
    "website": "https://www.mobie.pt",
    "id": "node/8280518909"
  },
  "geometry": {
    "type": "Point",
    "coordinates": [
      -7.1670999,
      38.8805049
    ]
  }
},
{
  "type": "Feature",
  "id": "node/8280625577",
  "properties": {
    "access": "customers",
    "addr:country": "PT",
    "amenity": "charging_station",
    "authentication:membership_card": "yes",
    "authentication:none": "no",
    "capacity": "2",
    "email": "ajuda@powerdot.pt",
    "fee": "yes",
    "motorcar": "yes",
    "name": "LRS-00046",
    "network": "Mobi.E",
    "opening_hours": "24/7",
    "operator": "Powerdot",
    "parking:fee": "yes",
    "phone": "+351 800 180 292",
    "ref": "LRS-00046",
    "socket:type2": "2",
    "socket:type2:current": "32",
    "socket:type2:output": "22kW",
    "socket:type2:voltage": "400",
    "website": "https://www.mobie.pt",
    "id": "node/8280625577"
  },
  "geometry": {
    "type": "Point",
    "coordinates": [
      -9.107729,
      38.8679655
    ]
  }
},
{
  "type": "Feature",
  "id": "node/8280712204",
  "properties": {
    "access": "customers",
    "addr:country": "PT",
    "amenity": "charging_station",
    "capacity": "2",
    "fee": "no",
    "name": "Casa das Peles",
    "network": "none",
    "operator": "Casa das Peles",
    "parking:fee": "no",
    "socket:type2": "2",
    "socket:type2:current": "32",
    "socket:type2:output": "22kW",
    "socket:type2:voltage": "400",
    "id": "node/8280712204"
  },
  "geometry": {
    "type": "Point",
    "coordinates": [
      -8.8038093,
      39.1398895
    ]
  }
},
{
  "type": "Feature",
  "id": "node/8280757514",
  "properties": {
    "access": "customers",
    "addr:country": "PT",
    "amenity": "charging_station",
    "capacity": "1",
    "motorcar": "yes",
    "name": "Renault Roques Vale do Tejo",
    "network": "Renault",
    "operator": "Renault",
    "socket:type2": "1",
    "socket:type2:current": "32",
    "socket:type2:output": "22kW",
    "socket:type2:voltage": "400",
    "id": "node/8280757514"
  },
  "geometry": {
    "type": "Point",
    "coordinates": [
      -8.7109244,
      39.2607438
    ]
  }
},
{
  "type": "Feature",
  "id": "node/8280784217",
  "properties": {
    "access": "customers",
    "addr:country": "PT",
    "amenity": "charging_station",
    "authentication:membership_card": "yes",
    "authentication:none": "no",
    "capacity": "2",
    "email": "suporte@evpower.pt",
    "fee": "yes",
    "motorcar": "yes",
    "name": "PTG-00006",
    "network": "Mobi.E",
    "opening_hours": "24/7",
    "operator": "EV Power",
    "parking:fee": "no",
    "phone": "+351 800 254 565",
    "ref": "PTG-00006",
    "socket:type2": "2",
    "socket:type2:current": "16",
    "socket:type2:output": "11kW",
    "socket:type2:voltage": "400",
    "website": "https://www.mobie.pt",
    "id": "node/8280784217"
  },
  "geometry": {
    "type": "Point",
    "coordinates": [
      -7.441858,
      39.2696059
    ]
  }
},
{
  "type": "Feature",
  "id": "node/8280870169",
  "properties": {
    "access": "customers",
    "addr:country": "PT",
    "amenity": "charging_station",
    "capacity": "1",
    "motorcar": "yes",
    "name": "Nissan Auto Júlio",
    "network": "Nissan",
    "operator": "Auto Júlio",
    "parking:fee": "no",
    "socket:type2": "1",
    "socket:type2:current": "32",
    "socket:type2:output": "22kW",
    "socket:type2:voltage": "400",
    "id": "node/8280870169"
  },
  "geometry": {
    "type": "Point",
    "coordinates": [
      -9.1305144,
      39.3918673
    ]
  }
},
{
  "type": "Feature",
  "id": "node/8280884329",
  "properties": {
    "access": "customers",
    "addr:country": "PT",
    "amenity": "charging_station",
    "authentication:membership_card": "yes",
    "authentication:none": "no",
    "capacity": "16",
    "fee": "no",
    "name": "Recheio Óbidos",
    "network": "none",
    "operator": "Recheio Óbidos",
    "parking:fee": "no",
    "socket:type2": "16",
    "socket:type2:current": "32",
    "socket:type2:output": "22kW",
    "socket:type2:voltage": "400",
    "website": "https://www.mobie.pt/",
    "id": "node/8280884329"
  },
  "geometry": {
    "type": "Point",
    "coordinates": [
      -9.1399705,
      39.3746613
    ]
  }
},
{
  "type": "Feature",
  "id": "node/8283808791",
  "properties": {
    "access": "customers",
    "addr:country": "PT",
    "amenity": "charging_station",
    "capacity": "1",
    "name": "Your Hotel & Spa",
    "network": "none",
    "operator": "Your Hotel & Spa",
    "socket:type2": "1",
    "socket:type2:current": "32",
    "socket:type2:output": "22kW",
    "socket:type2:voltage": "400",
    "id": "node/8283808791"
  },
  "geometry": {
    "type": "Point",
    "coordinates": [
      -9.0022244,
      39.5692481
    ]
  }
},
{
  "type": "Feature",
  "id": "node/8283834256",
  "properties": {
    "access": "private",
    "addr:country": "PT",
    "amenity": "charging_station",
    "capacity": "2",
    "name": "Novas Tecnologias Auto",
    "network": "none",
    "operator": "Novas Tecnologias Auto",
    "socket:type2": "2",
    "socket:type2:current": "32",
    "socket:type2:output": "22kW",
    "socket:type2:voltage": "400",
    "id": "node/8283834256"
  },
  "geometry": {
    "type": "Point",
    "coordinates": [
      -8.8349766,
      39.6683453
    ]
  }
},
{
  "type": "Feature",
  "id": "node/8283975482",
  "properties": {
    "access": "private",
    "addr:country": "PT",
    "amenity": "charging_station",
    "capacity": "2",
    "motorcar": "yes",
    "name": "Centro Porsche Leiria",
    "network": "Porsche",
    "operator": "Porsche",
    "socket:type2": "1",
    "socket:type2:current": "32",
    "socket:type2:output": "22kW",
    "socket:type2:voltage": "400",
    "socket:type2_combo": "1",
    "socket:type2_combo:current": "125",
    "socket:type2_combo:output": "50kW",
    "socket:type2_combo:voltage": "500",
    "id": "node/8283975482"
  },
  "geometry": {
    "type": "Point",
    "coordinates": [
      -8.8302183,
      39.7159889
    ]
  }
},
{
  "type": "Feature",
  "id": "node/8284917412",
  "properties": {
    "access": "private",
    "addr:country": "PT",
    "amenity": "charging_station",
    "capacity": "2",
    "name": "MCoutinho",
    "network": "none",
    "operator": "MCoutinho",
    "socket:type2": "2",
    "socket:type2:current": "32",
    "socket:type2:output": "22kW",
    "socket:type2:voltage": "400",
    "id": "node/8284917412"
  },
  "geometry": {
    "type": "Point",
    "coordinates": [
      -8.7882578,
      39.7627357
    ]
  }
},
{
  "type": "Feature",
  "id": "node/8284944414",
  "properties": {
    "access": "customers",
    "addr:country": "PT",
    "amenity": "charging_station",
    "authentication:membership_card": "yes",
    "authentication:none": "no",
    "capacity": "2",
    "fee": "yes",
    "motorcar": "yes",
    "name": "CTB-00008",
    "network": "Mobi.E",
    "opening_hours": "Mo-Fr 09:00-18:00",
    "operator": "ENAT",
    "parking:fee": "no",
    "ref": "CTB-00008",
    "socket:type2": "2",
    "socket:type2:current": "32",
    "socket:type2:output": "22kW",
    "socket:type2:voltage": "400",
    "website": "https://www.mobie.pt",
    "id": "node/8284944414"
  },
  "geometry": {
    "type": "Point",
    "coordinates": [
      -7.5087717,
      39.8103863
    ]
  }
},
{
  "type": "Feature",
  "id": "node/8285004918",
  "properties": {
    "access": "customers",
    "addr:country": "PT",
    "amenity": "charging_station",
    "capacity": "1",
    "motorcar": "yes",
    "name": "Renault Silva & Santos",
    "network": "Renault",
    "operator": "Renault",
    "socket:type2": "1",
    "socket:type2:current": "32",
    "socket:type2:output": "22kW",
    "socket:type2:voltage": "400",
    "id": "node/8285004918"
  },
  "geometry": {
    "type": "Point",
    "coordinates": [
      -8.6324148,
      39.9119006
    ]
  }
},
{
  "type": "Feature",
  "id": "node/8285018508",
  "properties": {
    "access": "private",
    "addr:country": "PT",
    "amenity": "charging_station",
    "authentication:membership_card": "yes",
    "authentication:none": "no",
    "capacity": "2",
    "email": "apoio.cliente@kmlowcost.com",
    "fee": "yes",
    "motorcar": "yes",
    "name": "CBR-00030",
    "network": "Mobi.E",
    "opening_hours": "24/7",
    "operator": "KLC",
    "parking:fee": "no",
    "phone": "+351 800 296 929",
    "ref": "CBR-00030",
    "socket:type2": "2",
    "socket:type2:current": "32",
    "socket:type2:output": "22kW",
    "socket:type2:voltage": "400",
    "website": "https://www.mobie.pt",
    "id": "node/8285018508"
  },
  "geometry": {
    "type": "Point",
    "coordinates": [
      -8.4059398,
      40.2050737
    ]
  }
},
{
  "type": "Feature",
  "id": "node/8285024989",
  "properties": {
    "access": "customers",
    "addr:country": "PT",
    "amenity": "charging_station",
    "authentication:membership_card": "yes",
    "authentication:none": "no",
    "capacity": "2",
    "email": "suporte@wowplug.com",
    "motorcar": "yes",
    "name": "LSA-00003 - Aldeias de Xisto",
    "network": "Mobi.E",
    "opening_hours": "24/7",
    "operator": "True-Kare",
    "parking:fee": "no",
    "phone": "+351 800 210 201",
    "ref": "LSA-00003",
    "socket:type2": "2",
    "socket:type2:current": "16",
    "socket:type2:output": "11kW",
    "socket:type2:voltage": "400",
    "website": "https://www.mobie.pt",
    "id": "node/8285024989"
  },
  "geometry": {
    "type": "Point",
    "coordinates": [
      -8.1964217,
      40.0937823
    ]
  }
},
{
  "type": "Feature",
  "id": "node/8285086803",
  "properties": {
    "access": "customers",
    "addr:country": "PT",
    "amenity": "charging_station",
    "capacity": "2",
    "name": "Sodicentro",
    "network": "none",
    "operator": "Sodicentro",
    "socket:type2": "2",
    "socket:type2:current": "32",
    "socket:type2:output": "22kW",
    "socket:type2:voltage": "400",
    "id": "node/8285086803"
  },
  "geometry": {
    "type": "Point",
    "coordinates": [
      -8.438703,
      40.232512
    ]
  }
},
{
  "type": "Feature",
  "id": "node/8286110927",
  "properties": {
    "access": "customers",
    "addr:country": "PT",
    "amenity": "charging_station",
    "capacity": "1",
    "name": "Trilhos energéticos",
    "network": "none",
    "operator": "Trilhos Energéticos",
    "socket:type2": "1",
    "socket:type2:current": "16",
    "socket:type2:output": "11kW",
    "socket:type2:voltage": "400",
    "id": "node/8286110927"
  },
  "geometry": {
    "type": "Point",
    "coordinates": [
      -8.3375341,
      40.297068
    ]
  }
},
{
  "type": "Feature",
  "id": "node/8286131500",
  "properties": {
    "access": "customers",
    "addr:country": "PT",
    "amenity": "charging_station",
    "capacity": "1",
    "name": "Luna Hotel Serra da Estrela",
    "network": "none",
    "operator": "Luna Hotel",
    "socket:type2": "1",
    "socket:type2:current": "16",
    "socket:type2:output": "11kW",
    "socket:type2:voltage": "400",
    "id": "node/8286131500"
  },
  "geometry": {
    "type": "Point",
    "coordinates": [
      -7.5489137,
      40.3071138
    ]
  }
},
{
  "type": "Feature",
  "id": "node/8286178835",
  "properties": {
    "access": "customers",
    "addr:country": "PT",
    "amenity": "charging_station",
    "capacity": "2",
    "name": "Abrigo da Montanha",
    "network": "none",
    "operator": "Abrigo da Montanha",
    "socket:type2": "2",
    "socket:type2:current": "24",
    "socket:type2:output": "16kW",
    "socket:type2:voltage": "400",
    "id": "node/8286178835"
  },
  "geometry": {
    "type": "Point",
    "coordinates": [
      -7.6450185,
      40.4045813
    ]
  }
},
{
  "type": "Feature",
  "id": "node/8286179569",
  "properties": {
    "access": "customers",
    "addr:country": "PT",
    "amenity": "charging_station",
    "authentication:membership_card": "yes",
    "authentication:none": "no",
    "capacity": "2",
    "email": "info@evce.pt",
    "fee": "yes",
    "motorcar": "yes",
    "name": "MLD-00001",
    "network": "Mobi.E",
    "opening_hours": "Mo-Su 12:00-22:00",
    "operator": "EVCE",
    "parking:fee": "no",
    "phone": "+351 253 623 190",
    "ref": "MLD-00001",
    "socket:type2": "2",
    "socket:type2:current": "16",
    "socket:type2:output": "11kW",
    "socket:type2:voltage": "400",
    "website": "https://www.mobie.pt",
    "id": "node/8286179569"
  },
  "geometry": {
    "type": "Point",
    "coordinates": [
      -8.4417969,
      40.3836203
    ]
  }
},
{
  "type": "Feature",
  "id": "node/8286186881",
  "properties": {
    "access": "permissive",
    "addr:country": "PT",
    "amenity": "charging_station",
    "authentication:membership_card": "yes",
    "authentication:none": "no",
    "capacity": "2",
    "email": "suporte@emobtec.pt",
    "fee": "yes",
    "motorcar": "yes",
    "name": "SEI-00002",
    "network": "Mobi.E",
    "opening_hours": "Mo-Fr 09:00-17:00",
    "operator": "Emobtec",
    "parking:fee": "no",
    "phone": "+351 800 500 216",
    "ref": "SEI-00002",
    "socket:type2": "2",
    "socket:type2:current": "32",
    "socket:type2:output": "22kW",
    "socket:type2:voltage": "400",
    "website": "https://www.mobie.pt",
    "id": "node/8286186881"
  },
  "geometry": {
    "type": "Point",
    "coordinates": [
      -7.7033767,
      40.4293416
    ]
  }
},
{
  "type": "Feature",
  "id": "node/8286241425",
  "properties": {
    "access": "customers",
    "addr:country": "PT",
    "amenity": "charging_station",
    "capacity": "1",
    "motorcar": "yes",
    "name": "Renault Litocar",
    "network": "Renault",
    "operator": "Renault",
    "socket:type2": "1",
    "socket:type2:current": "32",
    "socket:type2:output": "22kW",
    "socket:type2:voltage": "400",
    "id": "node/8286241425"
  },
  "geometry": {
    "type": "Point",
    "coordinates": [
      -7.8459173,
      40.6360018
    ]
  }
},
{
  "type": "Feature",
  "id": "node/8286254049",
  "properties": {
    "access": "private",
    "addr:country": "PT",
    "amenity": "charging_station",
    "capacity": "1",
    "name": "Bestmeat",
    "network": "none",
    "operator": "Bestmeat",
    "socket:type2": "1",
    "socket:type2:current": "32",
    "socket:type2:output": "22kW",
    "socket:type2:voltage": "400",
    "id": "node/8286254049"
  },
  "geometry": {
    "type": "Point",
    "coordinates": [
      -8.2513064,
      40.6991902
    ]
  }
},
{
  "type": "Feature",
  "id": "node/8286258895",
  "properties": {
    "access": "customers",
    "addr:country": "PT",
    "amenity": "charging_station",
    "capacity": "1",
    "name": "Quinta do Cruzeiro",
    "network": "none",
    "operator": "Quinta do Cruzeiro",
    "socket:type2": "1",
    "socket:type2:current": "32",
    "socket:type2:output": "22kW",
    "socket:type2:voltage": "400",
    "id": "node/8286258895"
  },
  "geometry": {
    "type": "Point",
    "coordinates": [
      -8.246583,
      40.7350413
    ]
  }
},
{
  "type": "Feature",
  "id": "node/8286279885",
  "properties": {
    "access": "customers",
    "addr:country": "PT",
    "amenity": "charging_station",
    "capacity": "1",
    "name": "Restaurante O Gafanhoto",
    "network": "none",
    "opening_hours": "Tu-Sa 12:00-15:00,19:00-22:30; Su 12:00-15:00",
    "operator": "Restaurante O Gafanhoto",
    "socket:type2": "1",
    "socket:type2:current": "32",
    "socket:type2:output": "22kW",
    "socket:type2:voltage": "400",
    "id": "node/8286279885"
  },
  "geometry": {
    "type": "Point",
    "coordinates": [
      -8.7291527,
      40.6045918
    ]
  }
},
{
  "type": "Feature",
  "id": "node/8286312420",
  "properties": {
    "access": "customers",
    "addr:country": "PT",
    "amenity": "charging_station",
    "capacity": "2",
    "name": "Auto Visto",
    "network": "none",
    "operator": "Auto Visto",
    "socket:type2": "2",
    "socket:type2:current": "16",
    "socket:type2:output": "11kW",
    "socket:type2:voltage": "400",
    "id": "node/8286312420"
  },
  "geometry": {
    "type": "Point",
    "coordinates": [
      -8.3742267,
      40.7414248
    ]
  }
},
{
  "type": "Feature",
  "id": "node/8286394034",
  "properties": {
    "access": "customers",
    "addr:country": "PT",
    "amenity": "charging_station",
    "capacity": "1",
    "motorcar": "yes",
    "name": "Renault - Entreposto A.Fontes",
    "network": "Renault",
    "opening_hours": "Mo-Fr 09:00-18:00",
    "operator": "Renault",
    "socket:type2": "1",
    "socket:type2:current": "32",
    "socket:type2:output": "22kW",
    "socket:type2:voltage": "400",
    "id": "node/8286394034"
  },
  "geometry": {
    "type": "Point",
    "coordinates": [
      -8.6415759,
      40.6309497
    ]
  }
},
{
  "type": "Feature",
  "id": "node/8286401543",
  "properties": {
    "access": "customers",
    "addr:country": "PT",
    "amenity": "charging_station",
    "capacity": "2",
    "name": "Mercentro - Mercedes Benz Aveiro",
    "network": "none",
    "operator": "Mercentro",
    "socket:type2": "2",
    "socket:type2:current": "32",
    "socket:type2:output": "22kW",
    "socket:type2:voltage": "400",
    "id": "node/8286401543"
  },
  "geometry": {
    "type": "Point",
    "coordinates": [
      -8.6177337,
      40.6575372
    ]
  }
},
{
  "type": "Feature",
  "id": "node/8287604447",
  "properties": {
    "access": "customers",
    "addr:country": "PT",
    "amenity": "charging_station",
    "capacity": "1",
    "name": "Minipreço",
    "network": "none",
    "operator": "Minipreço",
    "socket:type2": "1",
    "socket:type2:current": "32",
    "socket:type2:output": "22kW",
    "socket:type2:voltage": "400",
    "id": "node/8287604447"
  },
  "geometry": {
    "type": "Point",
    "coordinates": [
      -7.6080081,
      40.9703717
    ]
  }
},
{
  "type": "Feature",
  "id": "node/8287611580",
  "properties": {
    "access": "customers",
    "addr:country": "PT",
    "amenity": "charging_station",
    "capacity": "2",
    "email": "electric@prioenergy.com",
    "motorcar": "yes",
    "name": "VFR-00001 - Caetano Baviera BMW",
    "network": "Mobi.E",
    "operator": "Prio.E",
    "phone": "+351 800 450 111",
    "ref": "VFR-00001",
    "socket:type2": "2",
    "socket:type2:current": "32",
    "socket:type2:output": "22kW",
    "socket:type2:voltage": "400",
    "website": "https://www.mobie.pt",
    "id": "node/8287611580"
  },
  "geometry": {
    "type": "Point",
    "coordinates": [
      -8.5722703,
      40.9199356
    ]
  }
},
{
  "type": "Feature",
  "id": "node/8287618145",
  "properties": {
    "access": "customers",
    "addr:country": "PT",
    "amenity": "charging_station",
    "capacity": "1",
    "name": "Hotel Convento Nossa Senhora do Carmo",
    "network": "none",
    "operator": "Hotel Convento Nossa Senhora do Carmo",
    "socket:type2": "1",
    "socket:type2:current": "32",
    "socket:type2:output": "22kW",
    "socket:type2:voltage": "400",
    "id": "node/8287618145"
  },
  "geometry": {
    "type": "Point",
    "coordinates": [
      -7.5291283,
      40.9377483
    ]
  }
},
{
  "type": "Feature",
  "id": "node/8287631339",
  "properties": {
    "access": "private",
    "addr:country": "PT",
    "amenity": "charging_station",
    "capacity": "1",
    "name": "Entreposto A.Fontes",
    "network": "none",
    "operator": "Entreposto",
    "socket:type2": "1",
    "socket:type2:current": "32",
    "socket:type2:output": "22kW",
    "socket:type2:voltage": "400",
    "id": "node/8287631339"
  },
  "geometry": {
    "type": "Point",
    "coordinates": [
      -8.5707508,
      40.9200866
    ]
  }
},
{
  "type": "Feature",
  "id": "node/8289331299",
  "properties": {
    "access": "customers",
    "addr:country": "PT",
    "amenity": "charging_station",
    "authentication:membership_card": "yes",
    "authentication:none": "no",
    "capacity": "2",
    "email": "ajuda@powerdot.pt",
    "fee": "yes",
    "motorcar": "yes",
    "name": "STB-00015 - Hotel Casa Palmela",
    "network": "Mobi.E",
    "opening_hours": "24/7",
    "operator": "Powerdot",
    "parking:fee": "no",
    "phone": "+351 800 180 292",
    "ref": "STB-00015",
    "socket:type2": "2",
    "socket:type2:current": "32",
    "socket:type2:output": "22kW",
    "socket:type2:voltage": "400",
    "website": "https://www.mobie.pt",
    "id": "node/8289331299"
  },
  "geometry": {
    "type": "Point",
    "coordinates": [
      -8.9454085,
      38.5226149
    ]
  }
},
{
  "type": "Feature",
  "id": "node/8289547096",
  "properties": {
    "access": "customers",
    "addr:country": "PT",
    "amenity": "charging_station",
    "capacity": "1",
    "name": "Stand Fernandes Auto",
    "network": "none",
    "operator": "Stand Fernandes Auto",
    "socket:type2": "1",
    "socket:type2:current": "32",
    "socket:type2:output": "22kW",
    "socket:type2:voltage": "400",
    "id": "node/8289547096"
  },
  "geometry": {
    "type": "Point",
    "coordinates": [
      -9.2461739,
      38.929178
    ]
  }
},
{
  "type": "Feature",
  "id": "node/8289944481",
  "properties": {
    "access": "customers",
    "addr:country": "PT",
    "amenity": "charging_station",
    "capacity": "1",
    "motorcar": "yes",
    "name": "Centro Porsche Estoril",
    "network": "Porsche",
    "operator": "Porsche",
    "socket:type2": "1",
    "socket:type2:current": "32",
    "socket:type2:output": "22kW",
    "socket:type2:voltage": "400",
    "id": "node/8289944481"
  },
  "geometry": {
    "type": "Point",
    "coordinates": [
      -9.3929548,
      38.7552669
    ]
  }
},
{
  "type": "Feature",
  "id": "node/8294709198",
  "properties": {
    "access": "private",
    "addr:country": "PT",
    "amenity": "charging_station",
    "authentication:membership_card": "yes",
    "authentication:none": "no",
    "capacity": "2",
    "email": "apoio.cliente@kmlowcost.com",
    "fee": "yes",
    "motorcar": "yes",
    "name": "OER-00024/25",
    "network": "Mobi.E",
    "opening_hours": "24/7",
    "operator": "KLC",
    "parking:fee": "no",
    "phone": "+351 800 296 929",
    "ref": "OER-00024;OER-00025",
    "socket:type2": "2",
    "socket:type2:current": "32",
    "socket:type2:output": "22kW",
    "socket:type2:voltage": "400",
    "website": "https://www.mobie.pt",
    "id": "node/8294709198"
  },
  "geometry": {
    "type": "Point",
    "coordinates": [
      -9.3020625,
      38.7412783
    ]
  }
},
{
  "type": "Feature",
  "id": "node/8294714637",
  "properties": {
    "access": "customers",
    "addr:country": "PT",
    "amenity": "charging_station",
    "authentication:membership_card": "yes",
    "authentication:none": "no",
    "capacity": "4",
    "email": "apoio.cliente@kmlowcost.com",
    "fee": "yes",
    "motorcar": "yes",
    "name": "OER-00006/7/18/19 - Taguspark",
    "network": "Mobi.E",
    "opening_hours": "24/7",
    "operator": "KLC",
    "parking:fee": "no",
    "phone": "+351 800 296 929",
    "ref": "OER-00006;OER-00007;OER-00018;OER-00019",
    "socket:type2": "4",
    "socket:type2:current": "32",
    "socket:type2:output": "22kW",
    "socket:type2:voltage": "400",
    "website": "https://www.mobie.pt",
    "id": "node/8294714637"
  },
  "geometry": {
    "type": "Point",
    "coordinates": [
      -9.3040279,
      38.7394954
    ]
  }
},
{
  "type": "Feature",
  "id": "node/8294762421",
  "properties": {
    "access": "private",
    "addr:country": "PT",
    "amenity": "charging_station",
    "authentication:membership_card": "yes",
    "authentication:none": "no",
    "capacity": "2",
    "email": "suporte@mobiletric.com",
    "fee": "yes",
    "motorcar": "yes",
    "name": "TAGUS-00004",
    "network": "Mobi.E",
    "opening_hours": "24/7",
    "operator": "Mobiletric",
    "parking:fee": "no",
    "phone": "+351 800 210 204",
    "ref": "TAGUS-00004",
    "socket:type2": "2",
    "socket:type2:current": "32",
    "socket:type2:output": "22kW",
    "socket:type2:voltage": "400",
    "website": "https://www.mobie.pt",
    "id": "node/8294762421"
  },
  "geometry": {
    "type": "Point",
    "coordinates": [
      -9.2995231,
      38.7349496
    ]
  }
},
{
  "type": "Feature",
  "id": "node/8294762422",
  "properties": {
    "access": "private",
    "addr:country": "PT",
    "amenity": "charging_station",
    "authentication:membership_card": "yes",
    "authentication:none": "no",
    "capacity": "2",
    "email": "suporte@mobiletric.com",
    "fee": "yes",
    "motorcar": "yes",
    "name": "TAGUS-00002/3",
    "network": "Mobi.E",
    "opening_hours": "24/7",
    "operator": "Mobiletric",
    "parking:fee": "no",
    "phone": "+351 800 210 204",
    "ref": "TAGUS-00002;TAGUS-00003",
    "socket:type2": "2",
    "socket:type2:current": "32",
    "socket:type2:output": "22kW",
    "socket:type2:voltage": "400",
    "website": "https://www.mobie.pt",
    "id": "node/8294762422"
  },
  "geometry": {
    "type": "Point",
    "coordinates": [
      -9.3003599,
      38.7349904
    ]
  }
},
{
  "type": "Feature",
  "id": "node/8294762423",
  "properties": {
    "access": "private",
    "addr:country": "PT",
    "amenity": "charging_station",
    "authentication:membership_card": "yes",
    "authentication:none": "no",
    "capacity": "2",
    "email": "suporte@mobiletric.com",
    "fee": "yes",
    "motorcar": "yes",
    "name": "TAGUS-00001",
    "network": "Mobi.E",
    "opening_hours": "24/7",
    "operator": "Mobiletric",
    "parking:fee": "no",
    "phone": "+351 800 210 204",
    "ref": "TAGUS-00001",
    "socket:type2": "2",
    "socket:type2:current": "32",
    "socket:type2:output": "22kW",
    "socket:type2:voltage": "400",
    "website": "https://www.mobie.pt",
    "id": "node/8294762423"
  },
  "geometry": {
    "type": "Point",
    "coordinates": [
      -9.3011452,
      38.7350296
    ]
  }
},
{
  "type": "Feature",
  "id": "node/8294844791",
  "properties": {
    "access": "customers",
    "addr:country": "PT",
    "amenity": "charging_station",
    "capacity": "1",
    "name": "Parkgest",
    "network": "none",
    "operator": "Parkgest",
    "socket:type2": "1",
    "socket:type2:current": "32",
    "socket:type2:output": "22kW",
    "socket:type2:voltage": "400",
    "id": "node/8294844791"
  },
  "geometry": {
    "type": "Point",
    "coordinates": [
      -9.239797,
      38.7582817
    ]
  }
},
{
  "type": "Feature",
  "id": "node/8298150319",
  "properties": {
    "access": "customers",
    "addr:country": "PT",
    "amenity": "charging_station",
    "authentication:membership_card": "yes",
    "authentication:none": "no",
    "capacity": "4",
    "email": "mobilidade.electricacrc@galp.com",
    "fee": "yes",
    "motorcar": "yes",
    "name": "OER-00021/22 - Makro",
    "network": "Mobi.E",
    "opening_hours": "24/7",
    "operator": "Galp Power",
    "parking:fee": "no",
    "phone": "+351 800 249 249",
    "ref": "OER-00021;OER-00022",
    "socket:type2": "2",
    "socket:type2:current": "32",
    "socket:type2:output": "22kW",
    "socket:type2:voltage": "400",
    "website": "https://www.mobie.pt",
    "id": "node/8298150319"
  },
  "geometry": {
    "type": "Point",
    "coordinates": [
      -9.2135563,
      38.7232398
    ]
  }
},
{
  "type": "Feature",
  "id": "node/8298171917",
  "properties": {
    "access": "customers",
    "addr:country": "PT",
    "amenity": "charging_station",
    "authentication:membership_card": "yes",
    "authentication:none": "no",
    "capacity": "8",
    "email": "mobilidade-eletrica@edp.pt",
    "fee": "yes",
    "motorcar": "yes",
    "name": "LSB-00177/180/182/183",
    "network": "Mobi.E",
    "opening_hours": "24/7",
    "operator": "EDP Comercial",
    "parking:fee": "yes",
    "phone": "+351 800 222 222",
    "ref": "LSB-00177;LSB-00180;LSB-00182;LSB-00183",
    "socket:type2": "8",
    "socket:type2:current": "32",
    "socket:type2:output": "22kW",
    "socket:type2:voltage": "400",
    "website": "https://www.mobie.pt",
    "id": "node/8298171917"
  },
  "geometry": {
    "type": "Point",
    "coordinates": [
      -9.1931601,
      38.7564688
    ]
  }
},
{
  "type": "Feature",
  "id": "node/8298203804",
  "properties": {
    "access": "customers",
    "addr:country": "PT",
    "amenity": "charging_station",
    "authentication:membership_card": "yes",
    "authentication:none": "no",
    "capacity": "2",
    "email": "mobilidade-eletrica@edp.pt",
    "fee": "yes",
    "motorcar": "yes",
    "name": "LRS-00050",
    "network": "Mobi.E",
    "opening_hours": "Mo-Su 09:00-21:00",
    "operator": "EDP Comercial",
    "parking:fee": "no",
    "phone": "+351 800 222 222",
    "ref": "LRS-00050",
    "socket:type2": "2",
    "socket:type2:current": "32",
    "socket:type2:output": "22kW",
    "socket:type2:voltage": "400",
    "website": "https://www.mobie.pt",
    "id": "node/8298203804"
  },
  "geometry": {
    "type": "Point",
    "coordinates": [
      -9.1589338,
      38.8151691
    ]
  }
},
{
  "type": "Feature",
  "id": "node/8301117657",
  "properties": {
    "access": "private",
    "addr:country": "PT",
    "amenity": "charging_station",
    "authentication:membership_card": "yes",
    "authentication:none": "no",
    "capacity": "2",
    "email": "suporte@mobiletric.com",
    "fee": "yes",
    "motorcar": "yes",
    "name": "GOV-UK-00001",
    "network": "Mobi.E",
    "opening_hours": "24/7",
    "operator": "Mobiletric",
    "parking:fee": "no",
    "phone": "+351 800 210 204",
    "ref": "GOV-UK-00001",
    "socket:type2": "2",
    "socket:type2:current": "32",
    "socket:type2:output": "22kW",
    "socket:type2:voltage": "400",
    "website": "https://www.mobie.pt",
    "id": "node/8301117657"
  },
  "geometry": {
    "type": "Point",
    "coordinates": [
      -9.1573794,
      38.7161989
    ]
  }
},
{
  "type": "Feature",
  "id": "node/8301177098",
  "properties": {
    "access": "customers",
    "addr:country": "PT",
    "amenity": "charging_station",
    "authentication:membership_card": "yes",
    "authentication:none": "no",
    "capacity": "2",
    "email": "ajuda@powerdot.pt",
    "fee": "yes",
    "motorcar": "yes",
    "name": "LSB-00213",
    "network": "Mobi.E",
    "opening_hours": "24/7",
    "operator": "Powerdot",
    "parking:fee": "yes",
    "phone": "+351 800 180 292",
    "ref": "LSB-00213",
    "socket:type2": "2",
    "socket:type2:current": "32",
    "socket:type2:output": "22kW",
    "socket:type2:voltage": "400",
    "website": "https://www.mobie.pt",
    "id": "node/8301177098"
  },
  "geometry": {
    "type": "Point",
    "coordinates": [
      -9.1593786,
      38.7208498
    ]
  }
},
{
  "type": "Feature",
  "id": "node/8303946443",
  "properties": {
    "access": "private",
    "addr:country": "PT",
    "amenity": "charging_station",
    "authentication:membership_card": "yes",
    "authentication:none": "no",
    "capacity": "1",
    "fee": "yes",
    "motorcar": "yes",
    "name": "BFIN-00001",
    "network": "Mobi.E",
    "opening_hours": "24/7",
    "operator": "Bluecharge",
    "parking:fee": "no",
    "ref": "BFIN-00001",
    "socket:type2": "1",
    "socket:type2:current": "32",
    "socket:type2:output": "22kW",
    "socket:type2:voltage": "400",
    "website": "https://www.mobie.pt",
    "id": "node/8303946443"
  },
  "geometry": {
    "type": "Point",
    "coordinates": [
      -9.1640931,
      38.7453683
    ]
  }
},
{
  "type": "Feature",
  "id": "node/8303976485",
  "properties": {
    "access": "customers",
    "addr:country": "PT",
    "amenity": "charging_station",
    "authentication:membership_card": "yes",
    "authentication:none": "no",
    "capacity": "2",
    "fee": "yes",
    "motorcar": "yes",
    "name": "LSB-00268",
    "network": "Mobi.E",
    "opening_hours": "24/7",
    "operator": "Veimonte",
    "parking:fee": "no",
    "ref": "LSB-00268",
    "socket:type2": "2",
    "socket:type2:current": "32",
    "socket:type2:output": "22kW",
    "socket:type2:voltage": "400",
    "website": "https://www.mobie.pt",
    "id": "node/8303976485"
  },
  "geometry": {
    "type": "Point",
    "coordinates": [
      -9.1642821,
      38.7528293
    ]
  }
},
{
  "type": "Feature",
  "id": "node/8304000519",
  "properties": {
    "access": "customers",
    "addr:country": "PT",
    "amenity": "charging_station",
    "capacity": "1",
    "name": "Lux Lisboa Park Hotel",
    "network": "none",
    "operator": "Lux Lisboa Park Hotel",
    "socket:type2": "1",
    "socket:type2:current": "32",
    "socket:type2:output": "22kW",
    "socket:type2:voltage": "400",
    "id": "node/8304000519"
  },
  "geometry": {
    "type": "Point",
    "coordinates": [
      -9.1583665,
      38.7277586
    ]
  }
},
{
  "type": "Feature",
  "id": "node/8307307696",
  "properties": {
    "access": "customers",
    "addr:country": "PT",
    "amenity": "charging_station",
    "capacity": "2",
    "name": "Casa da Quinta de Santa Cruz",
    "network": "none",
    "operator": "Casa da Quinta de Santa Cruz",
    "socket:type2": "2",
    "socket:type2:current": "16",
    "socket:type2:output": "11kW",
    "socket:type2:voltage": "400",
    "id": "node/8307307696"
  },
  "geometry": {
    "type": "Point",
    "coordinates": [
      -7.8117836,
      41.1845829
    ]
  }
},
{
  "type": "Feature",
  "id": "node/8307392486",
  "properties": {
    "access": "customers",
    "addr:country": "PT",
    "amenity": "charging_station",
    "authentication:membership_card": "yes",
    "authentication:none": "no",
    "capacity": "2",
    "fee": "yes",
    "motorcar": "yes",
    "name": "Friautomóveis",
    "network": "none",
    "operator": "Friautomóveis",
    "parking:fee": "no",
    "socket:type2": "2",
    "socket:type2:current": "32",
    "socket:type2:output": "22kW",
    "socket:type2:voltage": "400",
    "id": "node/8307392486"
  },
  "geometry": {
    "type": "Point",
    "coordinates": [
      -7.3132139,
      41.5969763
    ]
  }
},
{
  "type": "Feature",
  "id": "node/8307392487",
  "properties": {
    "access": "customers",
    "addr:country": "PT",
    "amenity": "charging_station",
    "capacity": "1",
    "name": "Quinta Dona Adelaide",
    "network": "none",
    "operator": "Quinta Dona Adelaide",
    "socket:type2": "1",
    "socket:type2:current": "32",
    "socket:type2:output": "22kW",
    "socket:type2:voltage": "400",
    "id": "node/8307392487"
  },
  "geometry": {
    "type": "Point",
    "coordinates": [
      -7.3036324,
      41.5939834
    ]
  }
},
{
  "type": "Feature",
  "id": "node/8307397344",
  "properties": {
    "access": "customers",
    "addr:country": "PT",
    "amenity": "charging_station",
    "capacity": "2",
    "name": "JAPautomotive",
    "network": "none",
    "operator": "JAPautomotive",
    "socket:type2": "2",
    "socket:type2:current": "32",
    "socket:type2:output": "22kW",
    "socket:type2:voltage": "400",
    "id": "node/8307397344"
  },
  "geometry": {
    "type": "Point",
    "coordinates": [
      -7.7163123,
      41.2760961
    ]
  }
},
{
  "type": "Feature",
  "id": "node/8307422351",
  "properties": {
    "access": "private",
    "addr:country": "PT",
    "amenity": "charging_station",
    "authentication:membership_card": "yes",
    "authentication:none": "no",
    "capacity": "2",
    "fee": "yes",
    "motorcar": "yes",
    "name": "UTAD-00002",
    "network": "Mobi.E",
    "opening_hours": "24/7",
    "operator": "EVCE",
    "parking:fee": "no",
    "ref": "UTAD-00002",
    "socket:type2": "2",
    "socket:type2:current": "32",
    "socket:type2:output": "22kW",
    "socket:type2:voltage": "400",
    "website": "https://www.mobie.pt",
    "id": "node/8307422351"
  },
  "geometry": {
    "type": "Point",
    "coordinates": [
      -7.7411845,
      41.2873195
    ]
  }
},
{
  "type": "Feature",
  "id": "node/8307422352",
  "properties": {
    "access": "private",
    "addr:country": "PT",
    "amenity": "charging_station",
    "authentication:membership_card": "yes",
    "authentication:none": "no",
    "capacity": "2",
    "email": "info@evce.pt",
    "fee": "yes",
    "motorcar": "yes",
    "name": "UTAD-00001",
    "network": "Mobi.E",
    "opening_hours": "24/7",
    "operator": "EVCE",
    "parking:fee": "no",
    "phone": "+351 253 623 190",
    "ref": "UTAD-00001",
    "socket:type2": "2",
    "socket:type2:current": "32",
    "socket:type2:output": "22kW",
    "socket:type2:voltage": "400",
    "website": "https://www.mobie.pt",
    "id": "node/8307422352"
  },
  "geometry": {
    "type": "Point",
    "coordinates": [
      -7.7410581,
      41.2871339
    ]
  }
},
{
  "type": "Feature",
  "id": "node/8307422353",
  "properties": {
    "access": "private",
    "addr:country": "PT",
    "amenity": "charging_station",
    "authentication:membership_card": "yes",
    "authentication:none": "no",
    "capacity": "2",
    "fee": "yes",
    "motorcar": "yes",
    "name": "UTAD-00003",
    "network": "Mobi.E",
    "opening_hours": "24/7",
    "operator": "EVCE",
    "parking:fee": "no",
    "ref": "UTAD-00003",
    "socket:type2": "2",
    "socket:type2:current": "32",
    "socket:type2:output": "22kW",
    "socket:type2:voltage": "400",
    "website": "https://www.mobie.pt",
    "id": "node/8307422353"
  },
  "geometry": {
    "type": "Point",
    "coordinates": [
      -7.7415368,
      41.2868002
    ]
  }
},
{
  "type": "Feature",
  "id": "node/8308351935",
  "properties": {
    "access": "customers",
    "addr:country": "PT",
    "amenity": "charging_station",
    "capacity": "1",
    "name": "Hotel Padre Cruz",
    "network": "none",
    "operator": "Hotel Padre Cruz",
    "socket:type2": "1",
    "socket:type2:current": "25",
    "socket:type2:output": "17kW",
    "socket:type2:voltage": "400",
    "id": "node/8308351935"
  },
  "geometry": {
    "type": "Point",
    "coordinates": [
      -8.6668758,
      41.9806536
    ]
  }
},
{
  "type": "Feature",
  "id": "node/8308355522",
  "properties": {
    "access": "customers",
    "addr:country": "PT",
    "amenity": "charging_station",
    "capacity": "1",
    "motorcar": "yes",
    "name": "Confiauto - Nissan",
    "network": "Nissan",
    "operator": "Nissan",
    "socket:type2": "1",
    "socket:type2:current": "32",
    "socket:type2:output": "22kW",
    "socket:type2:voltage": "400",
    "id": "node/8308355522"
  },
  "geometry": {
    "type": "Point",
    "coordinates": [
      -8.8523908,
      41.7095651
    ]
  }
},
{
  "type": "Feature",
  "id": "node/8308355861",
  "properties": {
    "access": "customers",
    "addr:country": "PT",
    "amenity": "charging_station",
    "capacity": "1",
    "fee": "no",
    "name": "Cachorrão",
    "network": "none",
    "operator": "Cachorrão",
    "socket:type2": "1",
    "socket:type2:current": "16",
    "socket:type2:output": "11kW",
    "socket:type2:voltage": "400",
    "id": "node/8308355861"
  },
  "geometry": {
    "type": "Point",
    "coordinates": [
      -8.1737959,
      41.4442414
    ]
  }
},
{
  "type": "Feature",
  "id": "node/8308356022",
  "properties": {
    "access": "customers",
    "addr:country": "PT",
    "amenity": "charging_station",
    "capacity": "1",
    "name": "Hotel FeelViana",
    "network": "none",
    "operator": "Hotel FeelViana",
    "socket:type2": "1",
    "socket:type2:current": "32",
    "socket:type2:output": "22kW",
    "socket:type2:voltage": "400",
    "id": "node/8308356022"
  },
  "geometry": {
    "type": "Point",
    "coordinates": [
      -8.8293171,
      41.6810034
    ]
  }
},
{
  "type": "Feature",
  "id": "node/8308356225",
  "properties": {
    "access": "private",
    "addr:country": "PT",
    "amenity": "charging_station",
    "capacity": "2",
    "name": "Mora Portugal",
    "network": "none",
    "official_name": "Mora Portugal, Lda.",
    "operator": "Mora Portugal Lda.",
    "socket:type2": "2",
    "socket:type2:current": "32",
    "socket:type2:output": "22kW",
    "socket:type2:voltage": "400",
    "id": "node/8308356225"
  },
  "geometry": {
    "type": "Point",
    "coordinates": [
      -8.4368482,
      41.8226229
    ]
  }
},
{
  "type": "Feature",
  "id": "node/8308363420",
  "properties": {
    "access": "customers",
    "addr:country": "PT",
    "amenity": "charging_station",
    "authentication:membership_card": "yes",
    "authentication:none": "no",
    "capacity": "2",
    "email": "info@evce.pt",
    "fee": "yes",
    "motorcar": "yes",
    "name": "VVD-00003 - Hospital da Misericórdia",
    "network": "Mobi.E",
    "opening_hours": "24/7",
    "operator": "EVCE",
    "parking:fee": "no",
    "phone": "+351 253 623 190",
    "ref": "VVD-00003",
    "socket:type2": "2",
    "socket:type2:current": "32",
    "socket:type2:output": "22kW",
    "socket:type2:voltage": "400",
    "website": "https://www.mobie.pt",
    "id": "node/8308363420"
  },
  "geometry": {
    "type": "Point",
    "coordinates": [
      -8.4344731,
      41.6526194
    ]
  }
},
{
  "type": "Feature",
  "id": "node/8308363421",
  "properties": {
    "access": "customers",
    "addr:country": "PT",
    "amenity": "charging_station",
    "authentication:membership_card": "yes",
    "authentication:none": "no",
    "capacity": "2",
    "email": "info@evce.pt",
    "fee": "yes",
    "motorcar": "yes",
    "name": "VVD-00002 - Hospital da Misericórdia",
    "network": "Mobi.E",
    "opening_hours": "24/7",
    "operator": "EVCE",
    "parking:fee": "no",
    "phone": "+351 253 623 190",
    "ref": "VVD-00002",
    "socket:type2": "2",
    "socket:type2:current": "32",
    "socket:type2:output": "22kW",
    "socket:type2:voltage": "400",
    "website": "https://www.mobie.pt",
    "id": "node/8308363421"
  },
  "geometry": {
    "type": "Point",
    "coordinates": [
      -8.4344664,
      41.6526634
    ]
  }
},
{
  "type": "Feature",
  "id": "node/8308363486",
  "properties": {
    "access": "customers",
    "addr:country": "PT",
    "amenity": "charging_station",
    "authentication:membership_card": "yes",
    "authentication:none": "no",
    "capacity": "6",
    "email": "mobilidade.electricacrc@galp.com",
    "fee": "yes",
    "motorcar": "yes",
    "name": "BRG-00040/41/42 - Makro",
    "network": "Mobi.E",
    "opening_hours": "24/7",
    "operator": "Galp Power",
    "parking:fee": "no",
    "phone": "+351 800 249 249",
    "ref": "BRG-00040;BRG-00041;BRG-00042",
    "socket:type2": "6",
    "socket:type2:current": "32",
    "socket:type2:output": "22kW",
    "socket:type2:voltage": "400",
    "website": "https://www.mobie.pt",
    "id": "node/8308363486"
  },
  "geometry": {
    "type": "Point",
    "coordinates": [
      -8.4014732,
      41.5497067
    ]
  }
},
{
  "type": "Feature",
  "id": "node/8308390341",
  "properties": {
    "access": "private",
    "addr:country": "PT",
    "amenity": "charging_station",
    "authentication:membership_card": "yes",
    "authentication:none": "no",
    "capacity": "2",
    "email": "apoio.cliente@kmlowcost.com",
    "fee": "yes",
    "motorcar": "yes",
    "name": "IPP-00003",
    "network": "Mobi.E",
    "opening_hours": "24/7",
    "operator": "KLC",
    "parking:fee": "yes",
    "phone": "+351 800 296 929",
    "ref": "IPP-00003",
    "socket:type2": "2",
    "socket:type2:current": "32",
    "socket:type2:output": "22kW",
    "socket:type2:voltage": "400",
    "website": "https://www.mobie.pt",
    "id": "node/8308390341"
  },
  "geometry": {
    "type": "Point",
    "coordinates": [
      -8.1948164,
      41.3667857
    ]
  }
},
{
  "type": "Feature",
  "id": "node/8308404028",
  "properties": {
    "access": "customers",
    "addr:country": "PT",
    "amenity": "charging_station",
    "authentication:membership_card": "yes",
    "authentication:none": "no",
    "capacity": "2",
    "email": "mobilidade.electricacrc@galp.com",
    "fee": "yes",
    "motorcar": "yes",
    "name": "BRG-00038 - Hospital Escala",
    "network": "Mobi.E",
    "opening_hours": "24/7",
    "operator": "Galp Power",
    "parking:fee": "yes",
    "phone": "+351 800 249 249",
    "ref": "BRG-00038",
    "socket:type2": "2",
    "socket:type2:current": "16",
    "socket:type2:output": "11kW",
    "socket:type2:voltage": "400",
    "website": "https://www.mobie.pt",
    "id": "node/8308404028"
  },
  "geometry": {
    "type": "Point",
    "coordinates": [
      -8.400498,
      41.567446
    ]
  }
},
{
  "type": "Feature",
  "id": "node/8308408967",
  "properties": {
    "access": "private",
    "addr:country": "PT",
    "amenity": "charging_station",
    "authentication:membership_card": "yes",
    "authentication:none": "no",
    "capacity": "2",
    "fee": "yes",
    "motorcar": "yes",
    "name": "IPCA-00002",
    "network": "Mobi.E",
    "opening_hours": "24/7",
    "operator": "Petroassist",
    "parking:fee": "no",
    "ref": "IPCA-00002",
    "socket:type2": "2",
    "socket:type2:current": "32",
    "socket:type2:output": "22kW",
    "socket:type2:voltage": "400",
    "website": "https://www.mobie.pt",
    "id": "node/8308408967"
  },
  "geometry": {
    "type": "Point",
    "coordinates": [
      -8.6281796,
      41.5371602
    ]
  }
},
{
  "type": "Feature",
  "id": "node/8308408968",
  "properties": {
    "access": "private",
    "addr:country": "PT",
    "amenity": "charging_station",
    "authentication:membership_card": "yes",
    "authentication:none": "no",
    "capacity": "2",
    "fee": "yes",
    "motorcar": "yes",
    "name": "IPCA-00001",
    "network": "Mobi.E",
    "opening_hours": "24/7",
    "operator": "Petroassist",
    "parking:fee": "no",
    "ref": "IPCA-00001",
    "socket:type2": "2",
    "socket:type2:current": "32",
    "socket:type2:output": "22kW",
    "socket:type2:voltage": "400",
    "website": "https://www.mobie.pt",
    "id": "node/8308408968"
  },
  "geometry": {
    "type": "Point",
    "coordinates": [
      -8.6281756,
      41.5370909
    ]
  }
},
{
  "type": "Feature",
  "id": "node/8308415456",
  "properties": {
    "access": "customers",
    "addr:country": "PT",
    "amenity": "charging_station",
    "capacity": "1",
    "motorcar": "yes",
    "name": "Renault Confiauto Barcelos",
    "network": "Renault",
    "operator": "Renault",
    "socket:type2": "1",
    "socket:type2:current": "32",
    "socket:type2:output": "22kW",
    "socket:type2:voltage": "400",
    "id": "node/8308415456"
  },
  "geometry": {
    "type": "Point",
    "coordinates": [
      -8.6300142,
      41.5201879
    ]
  }
},
{
  "type": "Feature",
  "id": "node/8308422172",
  "properties": {
    "access": "customers",
    "addr:country": "PT",
    "amenity": "charging_station",
    "capacity": "1",
    "motorcar": "yes",
    "name": "JAPautomotive Paredes",
    "network": "Renault",
    "operator": "JAPautomotive",
    "socket:type2": "1",
    "socket:type2:current": "32",
    "socket:type2:output": "22kW",
    "socket:type2:voltage": "400",
    "id": "node/8308422172"
  },
  "geometry": {
    "type": "Point",
    "coordinates": [
      -8.3513126,
      41.1977207
    ]
  }
},
{
  "type": "Feature",
  "id": "node/8308425202",
  "properties": {
    "access": "customers",
    "addr:country": "PT",
    "amenity": "charging_station",
    "capacity": "1",
    "name": "ProFlor",
    "network": "none",
    "operator": "Proflor",
    "socket:type2": "1",
    "socket:type2:current": "32",
    "socket:type2:output": "22kW",
    "socket:type2:voltage": "400",
    "id": "node/8308425202"
  },
  "geometry": {
    "type": "Point",
    "coordinates": [
      -8.5938996,
      41.4785841
    ]
  }
},
{
  "type": "Feature",
  "id": "node/8308431111",
  "properties": {
    "access": "private",
    "addr:country": "PT",
    "amenity": "charging_station",
    "authentication:membership_card": "yes",
    "authentication:none": "no",
    "capacity": "2",
    "email": "apoio.cliente@kmlowcost.com",
    "fee": "yes",
    "motorcar": "yes",
    "name": "IPP-00004",
    "network": "Mobi.E",
    "opening_hours": "24/7",
    "operator": "KLC",
    "parking:fee": "no",
    "phone": "+351 800 296 929",
    "ref": "IPP-00004",
    "socket:type2": "2",
    "socket:type2:current": "32",
    "socket:type2:output": "22kW",
    "socket:type2:voltage": "400",
    "website": "https://www.mobie.pt",
    "id": "node/8308431111"
  },
  "geometry": {
    "type": "Point",
    "coordinates": [
      -8.7394121,
      41.3661506
    ]
  }
},
{
  "type": "Feature",
  "id": "node/8308433798",
  "properties": {
    "access": "customers",
    "addr:country": "PT",
    "amenity": "charging_station",
    "authentication:membership_card": "yes",
    "authentication:none": "no",
    "capacity": "6",
    "email": "ajuda@powerdot.pt",
    "fee": "yes",
    "motorcar": "yes",
    "name": "PRT-00023/24/25 - IPO",
    "network": "Mobi.E",
    "opening_hours": "24/7",
    "operator": "Powerdot",
    "parking:fee": "yes",
    "phone": "+351 800 180 292",
    "ref": "PRT-00023;PRT-00024;PRT-00025",
    "socket:type2": "6",
    "socket:type2:current": "32",
    "socket:type2:output": "22kW",
    "socket:type2:voltage": "400",
    "website": "https://www.mobie.pt",
    "id": "node/8308433798"
  },
  "geometry": {
    "type": "Point",
    "coordinates": [
      -8.6061493,
      41.182967
    ]
  }
},
{
  "type": "Feature",
  "id": "node/8308438527",
  "properties": {
    "access": "private",
    "addr:country": "PT",
    "amenity": "charging_station",
    "authentication:membership_card": "yes",
    "authentication:none": "no",
    "capacity": "2",
    "email": "apoio.cliente@kmlowcost.com",
    "fee": "yes",
    "motorcar": "yes",
    "name": "INIAV-00003",
    "network": "Mobi.E",
    "opening_hours": "24/7",
    "operator": "KLC",
    "parking:fee": "no",
    "phone": "+351 800 296 929",
    "ref": "INIAV-00003",
    "socket:type2": "2",
    "socket:type2:current": "32",
    "socket:type2:output": "22kW",
    "socket:type2:voltage": "400",
    "website": "https://www.mobie.pt",
    "id": "node/8308438527"
  },
  "geometry": {
    "type": "Point",
    "coordinates": [
      -8.6855882,
      41.3326658
    ]
  }
},
{
  "type": "Feature",
  "id": "node/8308447583",
  "properties": {
    "access": "customers",
    "addr:country": "PT",
    "amenity": "charging_station",
    "authentication:membership_card": "yes",
    "authentication:none": "no",
    "capacity": "2",
    "email": "mobilidade-eletrica@edp.pt",
    "fee": "yes",
    "motorcar": "yes",
    "name": "VNG-00039 - McDonald's",
    "network": "Mobi.E",
    "opening_hours": "24/7",
    "operator": "EDP Comercial",
    "parking:fee": "no",
    "phone": "+351 800 222 222",
    "ref": "VNG-00039",
    "socket:type2": "2",
    "socket:type2:current": "32",
    "socket:type2:output": "22kW",
    "socket:type2:voltage": "400",
    "website": "https://www.mobie.pt",
    "id": "node/8308447583"
  },
  "geometry": {
    "type": "Point",
    "coordinates": [
      -8.6353813,
      41.1245841
    ]
  }
},
{
  "type": "Feature",
  "id": "node/8308456463",
  "properties": {
    "access": "customers",
    "addr:country": "PT",
    "amenity": "charging_station",
    "authentication:membership_card": "yes",
    "authentication:none": "no",
    "capacity": "2",
    "email": "electric@prioenergy.com",
    "motorcar": "yes",
    "name": "VNG-00024 - Caetano Baviera",
    "network": "Mobi.E",
    "operator": "Prio.E",
    "phone": "+351 800 450 111",
    "ref": "VNG-00024",
    "socket:type2": "2",
    "socket:type2:current": "32",
    "socket:type2:output": "22kW",
    "socket:type2:voltage": "400",
    "website": "https://www.mobie.pt",
    "id": "node/8308456463"
  },
  "geometry": {
    "type": "Point",
    "coordinates": [
      -8.6307773,
      41.1160294
    ]
  }
},
{
  "type": "Feature",
  "id": "node/8308460513",
  "properties": {
    "access": "customers",
    "addr:country": "PT",
    "amenity": "charging_station",
    "capacity": "1",
    "motorcar": "yes",
    "name": "Renault Carvalhos & M.Moura",
    "network": "Renault",
    "operator": "Renault",
    "socket:type2": "1",
    "socket:type2:current": "32",
    "socket:type2:output": "22kW",
    "socket:type2:voltage": "400",
    "id": "node/8308460513"
  },
  "geometry": {
    "type": "Point",
    "coordinates": [
      -8.5797523,
      41.1967429
    ]
  }
},
{
  "type": "Feature",
  "id": "node/8308473981",
  "properties": {
    "access": "private",
    "addr:country": "PT",
    "amenity": "charging_station",
    "authentication:membership_card": "yes",
    "authentication:none": "no",
    "capacity": "3",
    "email": "suporte@mobiletric.com",
    "fee": "yes",
    "motorcar": "yes",
    "name": "MTS-00018/19/20 - Porto Business School",
    "network": "Mobi.E",
    "opening_hours": "24/7",
    "operator": "Mobiletric",
    "parking:fee": "no",
    "phone": "+351 800 210 204",
    "ref": "MTS-00018;MTS-00019;MTS-00020",
    "socket:type2": "3",
    "socket:type2:current": "32",
    "socket:type2:output": "22kW",
    "socket:type2:voltage": "400",
    "website": "https://www.mobie.pt",
    "id": "node/8308473981"
  },
  "geometry": {
    "type": "Point",
    "coordinates": [
      -8.653855,
      41.1831971
    ]
  }
},
{
  "type": "Feature",
  "id": "node/8308473982",
  "properties": {
    "access": "private",
    "addr:country": "PT",
    "amenity": "charging_station",
    "authentication:membership_card": "yes",
    "authentication:none": "no",
    "capacity": "2",
    "email": "suporte@mobiletric.com",
    "fee": "yes",
    "motorcar": "yes",
    "name": "MTS-00016/17 - Porto Business School",
    "network": "Mobi.E",
    "opening_hours": "24/7",
    "operator": "Mobiletric",
    "parking:fee": "no",
    "phone": "+351 800 210 204",
    "ref": "MTS-00016;MTS-00017",
    "socket:type2": "2",
    "socket:type2:current": "32",
    "socket:type2:output": "22kW",
    "socket:type2:voltage": "400",
    "website": "https://www.mobie.pt",
    "id": "node/8308473982"
  },
  "geometry": {
    "type": "Point",
    "coordinates": [
      -8.6538369,
      41.1833001
    ]
  }
},
{
  "type": "Feature",
  "id": "node/8308474807",
  "properties": {
    "access": "private",
    "addr:country": "PT",
    "amenity": "charging_station",
    "authentication:membership_card": "yes",
    "authentication:none": "no",
    "capacity": "2",
    "fee": "yes",
    "motorcar": "yes",
    "name": "MAI-00006",
    "network": "Mobi.E",
    "opening_hours": "24/7",
    "operator": "CapWatt",
    "parking:fee": "no",
    "phone": "+351 800 100 818",
    "ref": "MAI-00006",
    "socket:type2": "2",
    "socket:type2:current": "32",
    "socket:type2:output": "22kW",
    "socket:type2:voltage": "400",
    "website": "https://www.mobie.pt",
    "id": "node/8308474807"
  },
  "geometry": {
    "type": "Point",
    "coordinates": [
      -8.6388132,
      41.2364487
    ]
  }
},
{
  "type": "Feature",
  "id": "node/8308485030",
  "properties": {
    "access": "customers",
    "addr:country": "PT",
    "amenity": "charging_station",
    "authentication:membership_card": "yes",
    "authentication:none": "no",
    "capacity": "4",
    "email": "mobilidade.electricacrc@galp.com",
    "fee": "yes",
    "motorcar": "yes",
    "name": "MTS-00025/26 - Makro",
    "network": "Mobi.E",
    "opening_hours": "24/7",
    "operator": "Galp Power",
    "parking:fee": "no",
    "phone": "+351 800 249 249",
    "ref": "MTS-00025;MTS-00026",
    "socket:type2": "4",
    "socket:type2:current": "16",
    "socket:type2:output": "11kW",
    "socket:type2:voltage": "400",
    "website": "https://www.mobie.pt",
    "id": "node/8308485030"
  },
  "geometry": {
    "type": "Point",
    "coordinates": [
      -8.6253512,
      41.2013604
    ]
  }
},
{
  "type": "Feature",
  "id": "node/8308491580",
  "properties": {
    "access": "customers",
    "addr:country": "PT",
    "amenity": "charging_station",
    "capacity": "2",
    "fee": "yes",
    "name": "Kinda Home",
    "network": "none",
    "operator": "Kinda Home",
    "socket:type2": "2",
    "socket:type2:current": "32",
    "socket:type2:output": "22kW",
    "socket:type2:voltage": "400",
    "id": "node/8308491580"
  },
  "geometry": {
    "type": "Point",
    "coordinates": [
      -8.654201,
      41.1777516
    ]
  }
},
{
  "type": "Feature",
  "id": "node/8308514983",
  "properties": {
    "access": "customers",
    "addr:country": "PT",
    "amenity": "charging_station",
    "capacity": "2",
    "name": "The Avenue Hotel",
    "network": "none",
    "operator": "The Avenue Hotel",
    "socket:type2": "2",
    "socket:type2:current": "16",
    "socket:type2:output": "11kW",
    "socket:type2:voltage": "400",
    "id": "node/8308514983"
  },
  "geometry": {
    "type": "Point",
    "coordinates": [
      -8.5972007,
      41.1516572
    ]
  }
},
{
  "type": "Feature",
  "id": "node/8308528651",
  "properties": {
    "access": "private",
    "addr:country": "PT",
    "amenity": "charging_station",
    "authentication:membership_card": "yes",
    "authentication:none": "no",
    "capacity": "2",
    "email": "suporte@emobtec.pt",
    "fee": "yes",
    "motorcar": "yes",
    "name": "ISEP-00001",
    "network": "Mobi.E",
    "opening_hours": "24/7",
    "operator": "Emobtec",
    "parking:fee": "no",
    "phone": "+351 800 500 216",
    "ref": "ISEP-00001",
    "socket:type2": "2",
    "socket:type2:current": "32",
    "socket:type2:output": "22kW",
    "socket:type2:voltage": "400",
    "website": "https://www.mobie.pt",
    "id": "node/8308528651"
  },
  "geometry": {
    "type": "Point",
    "coordinates": [
      -8.6072838,
      41.1777849
    ]
  }
},
{
  "type": "Feature",
  "id": "node/8308903232",
  "properties": {
    "access": "customers",
    "addr:country": "PT",
    "amenity": "charging_station",
    "authentication:membership_card": "yes",
    "authentication:none": "no",
    "capacity": "2",
    "fee": "yes",
    "motorcar": "yes",
    "name": "OER-00060 - Leroy Merlin Oeiras",
    "network": "Mobi.E",
    "opening_hours": "Mo-Su 09:00-21:00",
    "operator": "Bluecharge",
    "parking:fee": "no",
    "ref": "OER-00060",
    "socket:type2": "2",
    "socket:type2:current": "32",
    "socket:type2:output": "22kW",
    "socket:type2:voltage": "400",
    "website": "https://www.mobie.pt",
    "id": "node/8308903232"
  },
  "geometry": {
    "type": "Point",
    "coordinates": [
      -9.3043645,
      38.7044678
    ]
  }
},
{
  "type": "Feature",
  "id": "node/8308912606",
  "properties": {
    "access": "customers",
    "addr:country": "PT",
    "amenity": "charging_station",
    "authentication:membership_card": "yes",
    "authentication:none": "no",
    "capacity": "2",
    "email": "mobilidade.electricacrc@galp.com",
    "fee": "yes",
    "motorcar": "yes",
    "name": "SNT-00034 - Hospital CUF",
    "network": "Mobi.E",
    "opening_hours": "24/7",
    "operator": "Galp Power",
    "parking:fee": "no",
    "phone": "+351 800 249 249",
    "ref": "SNT-00034",
    "socket:type2": "2",
    "socket:type2:current": "32",
    "socket:type2:output": "22kW",
    "socket:type2:voltage": "400",
    "website": "https://www.mobie.pt",
    "id": "node/8308912606"
  },
  "geometry": {
    "type": "Point",
    "coordinates": [
      -9.3532504,
      38.7810673
    ]
  }
},
{
  "type": "Feature",
  "id": "node/8308969365",
  "properties": {
    "access": "private",
    "addr:country": "PT",
    "amenity": "charging_station",
    "authentication:membership_card": "yes",
    "authentication:none": "no",
    "capacity": "8",
    "email": "mobilidade-eletrica@edp.pt",
    "fee": "yes",
    "motorcar": "yes",
    "name": "LSB-00075/77/82/86",
    "network": "Mobi.E",
    "opening_hours": "24/7",
    "operator": "EDP Comercial",
    "parking:fee": "no",
    "phone": "+351 800 222 222",
    "ref": "LSB-00075;LSB-00077;LSB-00082;LSB-00086",
    "socket:type2": "8",
    "socket:type2:current": "32",
    "socket:type2:output": "22kW",
    "socket:type2:voltage": "400",
    "website": "https://www.mobie.pt",
    "id": "node/8308969365"
  },
  "geometry": {
    "type": "Point",
    "coordinates": [
      -9.1534111,
      38.7341215
    ]
  }
},
{
  "type": "Feature",
  "id": "node/8362478494",
  "properties": {
    "access": "customers",
    "addr:country": "PT",
    "amenity": "charging_station",
    "authentication:membership_card": "yes",
    "authentication:none": "no",
    "capacity": "2",
    "email": "suporte@mobiletric.com",
    "fee": "yes",
    "location": "underground",
    "motorcar": "yes",
    "name": "LSB-00309",
    "network": "Mobi.E",
    "opening_hours": "24/7",
    "operator": "Mobiletric",
    "parking:fee": "yes",
    "phone": "+351 800 210 204",
    "ref": "LSB-00309",
    "socket:type2": "2",
    "socket:type2:current": "32",
    "socket:type2:output": "22kW",
    "socket:type2:voltage": "400",
    "website": "https://www.mobie.pt",
    "id": "node/8362478494"
  },
  "geometry": {
    "type": "Point",
    "coordinates": [
      -9.1776917,
      38.749288
    ]
  }
},
{
  "type": "Feature",
  "id": "node/8362548820",
  "properties": {
    "access": "customers",
    "addr:country": "PT",
    "amenity": "charging_station",
    "authentication:membership_card": "yes",
    "authentication:none": "no",
    "capacity": "2",
    "email": "suporte@mobiletric.com",
    "fee": "yes",
    "motorcar": "yes",
    "name": "PRT-00062 - Hospital Lusíadas",
    "network": "Mobi.E",
    "opening_hours": "24/7",
    "operator": "Mobiletric",
    "parking:fee": "yes",
    "phone": "+351 800 210 204",
    "ref": "PRT-00062",
    "socket:type2": "2",
    "socket:type2:current": "32",
    "socket:type2:output": "22kW",
    "socket:type2:voltage": "400",
    "website": "https://www.mobie.pt",
    "id": "node/8362548820"
  },
  "geometry": {
    "type": "Point",
    "coordinates": [
      -8.6260137,
      41.1572099
    ]
  }
},
{
  "type": "Feature",
  "id": "node/8395290184",
  "properties": {
    "access": "customers",
    "addr:country": "PT",
    "amenity": "charging_station",
    "authentication:membership_card": "yes",
    "authentication:none": "no",
    "capacity": "2",
    "fee": "yes",
    "motorcar": "yes",
    "name": "EVR-00016",
    "network": "Mobi.E",
    "opening_hours": "24/7",
    "operator": "Veimonte",
    "parking:fee": "no",
    "ref": "EVR-00016",
    "socket:type2": "2",
    "socket:type2:current": "32",
    "socket:type2:output": "22kW",
    "socket:type2:voltage": "400",
    "website": "https://www.mobie.pt",
    "id": "node/8395290184"
  },
  "geometry": {
    "type": "Point",
    "coordinates": [
      -7.9701573,
      38.5532863
    ]
  }
},
{
  "type": "Feature",
  "id": "node/8397467224",
  "properties": {
    "access": "customers",
    "addr:country": "PT",
    "amenity": "charging_station",
    "authentication:membership_card": "yes",
    "authentication:none": "no",
    "capacity": "6",
    "fee": "yes",
    "motorcar": "yes",
    "name": "LSB-00273/274/275/276",
    "network": "Mobi.E",
    "opening_hours": "24/7",
    "operator": "Circuitos de Inovação",
    "parking:fee": "yes",
    "phone": "+351 800 913 701",
    "ref": "LSB-00273;LSB-00274;LSB-00275;LSB-00276",
    "socket:type2": "6",
    "socket:type2:current": "32",
    "socket:type2:output": "22kW",
    "socket:type2:voltage": "400",
    "website": "https://www.mobie.pt",
    "id": "node/8397467224"
  },
  "geometry": {
    "type": "Point",
    "coordinates": [
      -9.1449393,
      38.7329153
    ]
  }
},
{
  "type": "Feature",
  "id": "node/8402760603",
  "properties": {
    "access": "private",
    "addr:country": "PT",
    "amenity": "charging_station",
    "authentication:membership_card": "yes",
    "authentication:none": "no",
    "capacity": "2",
    "motorcar": "yes",
    "name": "Águas do Algarve (sede)",
    "network": "Mobi.E",
    "opening_hours": "24/7",
    "operator": "Águas de Portugal",
    "ref": "ADPORTUGAL-00105",
    "socket:type2": "2",
    "socket:type2:current": "32",
    "socket:type2:output": "22kW",
    "socket:type2:voltage": "400",
    "website": "https://www.mobie.pt",
    "id": "node/8402760603"
  },
  "geometry": {
    "type": "Point",
    "coordinates": [
      -7.9335954,
      37.0135293
    ]
  }
},
{
  "type": "Feature",
  "id": "node/8402779730",
  "properties": {
    "access": "private",
    "addr:country": "PT",
    "amenity": "charging_station",
    "authentication:membership_card": "yes",
    "authentication:none": "no",
    "capacity": "2",
    "motorcar": "yes",
    "name": "ETA de Tavira",
    "network": "Mobi.E",
    "opening_hours": "24/7",
    "operator": "Águas de Portugal",
    "ref": "ADPORTUGAL-00104",
    "socket:type2": "2",
    "socket:type2:current": "32",
    "socket:type2:output": "22kW",
    "socket:type2:voltage": "400",
    "website": "https://www.mobie.pt",
    "id": "node/8402779730"
  },
  "geometry": {
    "type": "Point",
    "coordinates": [
      -7.705102,
      37.1454503
    ]
  }
},
{
  "type": "Feature",
  "id": "node/8402840619",
  "properties": {
    "access": "private",
    "addr:country": "PT",
    "amenity": "charging_station",
    "authentication:membership_card": "yes",
    "authentication:none": "no",
    "capacity": "2",
    "motorcar": "yes",
    "name": "ETA das Fontaínhas",
    "network": "Mobi.E",
    "opening_hours": "24/7",
    "operator": "Águas de Portugal",
    "ref": "ADPORTUGAL-00107",
    "socket:type2": "2",
    "socket:type2:current": "32",
    "socket:type2:output": "22kW",
    "socket:type2:voltage": "400",
    "website": "https://www.mobie.pt",
    "id": "node/8402840619"
  },
  "geometry": {
    "type": "Point",
    "coordinates": [
      -8.6227548,
      37.1525204
    ]
  }
},
{
  "type": "Feature",
  "id": "node/8403278699",
  "properties": {
    "access": "private",
    "addr:country": "PT",
    "amenity": "charging_station",
    "authentication:membership_card": "yes",
    "authentication:none": "no",
    "capacity": "2",
    "email": "electric@prioenergy.com",
    "fee": "yes",
    "motorcar": "yes",
    "name": "OFR-00001 - Martifer",
    "network": "Mobi.E",
    "opening_hours": "24/7",
    "operator": "Prio.E",
    "parking:fee": "no",
    "phone": "+351 800 450 111",
    "ref": "OFR-00001",
    "socket:type2": "2",
    "socket:type2:current": "32",
    "socket:type2:output": "22kW",
    "socket:type2:voltage": "400",
    "website": "https://www.mobie.pt",
    "id": "node/8403278699"
  },
  "geometry": {
    "type": "Point",
    "coordinates": [
      -8.2060736,
      40.7143787
    ]
  }
},
{
  "type": "Feature",
  "id": "node/8409780438",
  "properties": {
    "access": "private",
    "addr:country": "PT",
    "amenity": "charging_station",
    "authentication:membership_card": "yes",
    "authentication:none": "no",
    "capacity": "6",
    "email": "mobilidade.electricacrc@galp.com",
    "fee": "yes",
    "motorcar": "yes",
    "name": "ADENE-00004/5/6",
    "network": "Mobi.E",
    "opening_hours": "24/7",
    "operator": "Galp Power",
    "parking:fee": "no",
    "phone": "+351 800 249 249",
    "ref": "ADENE-00004;ADENE-00005;ADENE-00006",
    "socket:type2": "2",
    "socket:type2:current": "16",
    "socket:type2:output": "11kW",
    "socket:type2:voltage": "400",
    "website": "https://www.mobie.pt",
    "id": "node/8409780438"
  },
  "geometry": {
    "type": "Point",
    "coordinates": [
      -9.1489854,
      38.7437496
    ]
  }
},
{
  "type": "Feature",
  "id": "node/8410068781",
  "properties": {
    "access": "private",
    "addr:country": "PT",
    "amenity": "charging_station",
    "authentication:membership_card": "yes",
    "authentication:none": "no",
    "capacity": "2",
    "email": "apoio.cliente@kmlowcost.com",
    "fee": "yes",
    "motorcar": "yes",
    "name": "INIAV-00001",
    "network": "Mobi.E",
    "opening_hours": "24/7",
    "operator": "KLC",
    "parking:fee": "no",
    "phone": "+351 800 296 929",
    "ref": "INIAV-00001",
    "socket:type2": "2",
    "socket:type2:current": "32",
    "socket:type2:output": "22kW",
    "socket:type2:voltage": "400",
    "website": "https://www.mobie.pt",
    "id": "node/8410068781"
  },
  "geometry": {
    "type": "Point",
    "coordinates": [
      -9.3180129,
      38.6950951
    ]
  }
},
{
  "type": "Feature",
  "id": "node/8410079835",
  "properties": {
    "access": "private",
    "addr:country": "PT",
    "amenity": "charging_station",
    "authentication:membership_card": "yes",
    "authentication:none": "no",
    "capacity": "2",
    "email": "apoio.cliente@kmlowcost.com",
    "fee": "yes",
    "motorcar": "yes",
    "name": "INIAV-00006",
    "network": "Mobi.E",
    "opening_hours": "24/7",
    "operator": "KLC",
    "parking:fee": "no",
    "phone": "+351 800 296 929",
    "ref": "INIAV-00006",
    "socket:type2": "2",
    "socket:type2:current": "32",
    "socket:type2:output": "22kW",
    "socket:type2:voltage": "400",
    "website": "https://www.mobie.pt",
    "id": "node/8410079835"
  },
  "geometry": {
    "type": "Point",
    "coordinates": [
      -7.9931398,
      38.5287254
    ]
  }
},
{
  "type": "Feature",
  "id": "node/8410120618",
  "properties": {
    "access": "private",
    "addr:country": "PT",
    "amenity": "charging_station",
    "authentication:membership_card": "yes",
    "authentication:none": "no",
    "capacity": "2",
    "email": "apoio.cliente@kmlowcost.com",
    "fee": "yes",
    "motorcar": "yes",
    "name": "INIAV-00008",
    "network": "Mobi.E",
    "opening_hours": "24/7",
    "operator": "KLC",
    "parking:fee": "no",
    "phone": "+351 800 296 929",
    "ref": "INIAV-00008",
    "socket:type2": "2",
    "socket:type2:current": "32",
    "socket:type2:output": "22kW",
    "socket:type2:voltage": "400",
    "website": "https://www.mobie.pt",
    "id": "node/8410120618"
  },
  "geometry": {
    "type": "Point",
    "coordinates": [
      -9.1818841,
      39.0413154
    ]
  }
},
{
  "type": "Feature",
  "id": "node/8410120697",
  "properties": {
    "access": "private",
    "addr:country": "PT",
    "amenity": "charging_station",
    "authentication:membership_card": "yes",
    "authentication:none": "no",
    "capacity": "2",
    "email": "apoio.cliente@kmlowcost.com",
    "fee": "yes",
    "motorcar": "yes",
    "name": "INIAV-00005",
    "network": "Mobi.E",
    "opening_hours": "24/7",
    "operator": "KLC",
    "parking:fee": "no",
    "phone": "+351 800 296 929",
    "ref": "INIAV-00005",
    "socket:type2": "2",
    "socket:type2:current": "32",
    "socket:type2:output": "22kW",
    "socket:type2:voltage": "400",
    "website": "https://www.mobie.pt",
    "id": "node/8410120697"
  },
  "geometry": {
    "type": "Point",
    "coordinates": [
      -7.6869039,
      39.221723
    ]
  }
},
{
  "type": "Feature",
  "id": "node/8410129829",
  "properties": {
    "access": "private",
    "addr:country": "PT",
    "amenity": "charging_station",
    "authentication:membership_card": "yes",
    "authentication:none": "no",
    "capacity": "2",
    "email": "apoio.cliente@kmlowcost.com",
    "fee": "yes",
    "motorcar": "yes",
    "name": "OHP-00001",
    "network": "Mobi.E",
    "opening_hours": "24/7",
    "operator": "KLC",
    "parking:fee": "no",
    "phone": "+351 800 296 929",
    "ref": "OHP-00001",
    "socket:type2": "2",
    "socket:type2:current": "32",
    "socket:type2:output": "22kW",
    "socket:type2:voltage": "400",
    "website": "https://www.mobie.pt",
    "id": "node/8410129829"
  },
  "geometry": {
    "type": "Point",
    "coordinates": [
      -7.8609035,
      40.3610407
    ]
  }
},
{
  "type": "Feature",
  "id": "node/8410138272",
  "properties": {
    "access": "private",
    "addr:country": "PT",
    "amenity": "charging_station",
    "authentication:membership_card": "yes",
    "authentication:none": "no",
    "capacity": "2",
    "email": "apoio.cliente@kmlowcost.com",
    "fee": "yes",
    "motorcar": "yes",
    "name": "INIAV-00007",
    "network": "Mobi.E",
    "opening_hours": "24/7",
    "operator": "KLC",
    "parking:fee": "no",
    "phone": "+351 800 296 929",
    "ref": "INIAV-00007",
    "socket:type2": "2",
    "socket:type2:current": "32",
    "socket:type2:output": "22kW",
    "socket:type2:voltage": "400",
    "website": "https://www.mobie.pt",
    "id": "node/8410138272"
  },
  "geometry": {
    "type": "Point",
    "coordinates": [
      -8.9699876,
      39.5490717
    ]
  }
},
{
  "type": "Feature",
  "id": "node/8410138321",
  "properties": {
    "access": "private",
    "addr:country": "PT",
    "amenity": "charging_station",
    "authentication:membership_card": "yes",
    "authentication:none": "no",
    "capacity": "2",
    "email": "apoio.cliente@kmlowcost.com",
    "fee": "yes",
    "motorcar": "yes",
    "name": "INIAV-00002",
    "network": "Mobi.E",
    "opening_hours": "24/7",
    "operator": "KLC",
    "parking:fee": "no",
    "phone": "+351 800 296 929",
    "ref": "INIAV-00002",
    "socket:type2": "2",
    "socket:type2:current": "32",
    "socket:type2:output": "22kW",
    "socket:type2:voltage": "400",
    "website": "https://www.mobie.pt",
    "id": "node/8410138321"
  },
  "geometry": {
    "type": "Point",
    "coordinates": [
      -8.4510291,
      41.5771383
    ]
  }
},
{
  "type": "Feature",
  "id": "node/8410143953",
  "properties": {
    "access": "private",
    "addr:country": "PT",
    "amenity": "charging_station",
    "authentication:membership_card": "yes",
    "authentication:none": "no",
    "capacity": "2",
    "email": "apoio.cliente@kmlowcost.com",
    "fee": "yes",
    "motorcar": "yes",
    "name": "INIAV-00004",
    "network": "Mobi.E",
    "opening_hours": "24/7",
    "operator": "KLC",
    "parking:fee": "no",
    "phone": "+351 800 296 929",
    "ref": "INIAV-00004",
    "socket:type2": "2",
    "socket:type2:current": "32",
    "socket:type2:output": "22kW",
    "socket:type2:voltage": "400",
    "website": "https://www.mobie.pt",
    "id": "node/8410143953"
  },
  "geometry": {
    "type": "Point",
    "coordinates": [
      -7.1441388,
      38.8888251
    ]
  }
},
{
  "type": "Feature",
  "id": "node/8421289206",
  "properties": {
    "access": "customers",
    "addr:country": "PT",
    "amenity": "charging_station",
    "authentication:membership_card": "yes",
    "authentication:none": "no",
    "capacity": "2",
    "email": "ajuda@powerdot.pt",
    "fee": "yes",
    "motorcar": "yes",
    "name": "OER-00061",
    "network": "Mobi.E",
    "opening_hours": "Mo-Su 10:00-20:00",
    "operator": "Powerdot",
    "parking:fee": "no",
    "phone": "+351 800 180 292",
    "ref": "OER-00061",
    "socket:type2": "2",
    "socket:type2:current": "32",
    "socket:type2:output": "22kW",
    "socket:type2:voltage": "400",
    "website": "https://www.mobie.pt",
    "id": "node/8421289206"
  },
  "geometry": {
    "type": "Point",
    "coordinates": [
      -9.2157215,
      38.7240591
    ]
  }
},
{
  "type": "Feature",
  "id": "node/8431722290",
  "properties": {
    "access": "customers",
    "addr:country": "PT",
    "amenity": "charging_station",
    "capacity": "2",
    "name": "Fafe Diesel Bosch",
    "network": "none",
    "operator": "Fafe Diesel",
    "socket:schuko": "1",
    "socket:schuko:output": "3.7kW",
    "socket:type2": "1",
    "socket:type2:current": "32",
    "socket:type2:output": "22kW",
    "socket:type2:voltage": "400",
    "id": "node/8431722290"
  },
  "geometry": {
    "type": "Point",
    "coordinates": [
      -8.1635,
      41.446194
    ]
  }
},
{
  "type": "Feature",
  "id": "node/8459431464",
  "properties": {
    "access": "private",
    "addr:country": "PT",
    "amenity": "charging_station",
    "authentication:membership_card": "yes",
    "authentication:none": "no",
    "capacity": "2",
    "email": "suporte@evpower.pt",
    "fee": "yes",
    "motorcar": "yes",
    "name": "ALM-00029",
    "network": "Mobi.E",
    "opening_hours": "24/7",
    "operator": "EV Power",
    "parking:fee": "no",
    "phone": "+351 800 254 565",
    "ref": "ALM-00029",
    "socket:type2": "2",
    "socket:type2:current": "32",
    "socket:type2:output": "22kW",
    "socket:type2:voltage": "400",
    "website": "https://www.mobie.pt",
    "id": "node/8459431464"
  },
  "geometry": {
    "type": "Point",
    "coordinates": [
      -9.1507396,
      38.6650545
    ]
  }
},
{
  "type": "Feature",
  "id": "node/8460987956",
  "properties": {
    "access": "private",
    "addr:country": "PT",
    "amenity": "charging_station",
    "authentication:membership_card": "yes",
    "authentication:none": "no",
    "capacity": "2",
    "email": "electric@prioenergy.com",
    "fee": "yes",
    "motorcar": "yes",
    "name": "AMD-00012",
    "network": "Mobi.E",
    "opening_hours": "24/7",
    "operator": "Prio.E",
    "parking:fee": "no",
    "phone": "+351 800 450 111",
    "ref": "AMD-00012",
    "socket:type2": "2",
    "socket:type2:current": "32",
    "socket:type2:output": "22kW",
    "socket:type2:voltage": "400",
    "website": "https://www.mobie.pt",
    "id": "node/8460987956"
  },
  "geometry": {
    "type": "Point",
    "coordinates": [
      -9.226519,
      38.734528
    ]
  }
},
{
  "type": "Feature",
  "id": "node/8461068495",
  "properties": {
    "access": "private",
    "addr:country": "PT",
    "amenity": "charging_station",
    "authentication:membership_card": "yes",
    "authentication:none": "no",
    "capacity": "2",
    "email": "electric@prioenergy.com",
    "fee": "yes",
    "motorcar": "yes",
    "name": "AVR-00016 - Prio.E",
    "network": "Mobi.E",
    "opening_hours": "24/7",
    "operator": "Prio.E",
    "parking:fee": "no",
    "phone": "+351 800 450 111",
    "ref": "AVR-00016",
    "socket:type2": "2",
    "socket:type2:current": "32",
    "socket:type2:output": "22kW",
    "socket:type2:voltage": "400",
    "website": "https://www.mobie.pt",
    "id": "node/8461068495"
  },
  "geometry": {
    "type": "Point",
    "coordinates": [
      -8.70654,
      40.65258
    ]
  }
},
{
  "type": "Feature",
  "id": "node/8461369930",
  "properties": {
    "access": "private",
    "addr:country": "PT",
    "amenity": "charging_station",
    "authentication:membership_card": "yes",
    "authentication:none": "no",
    "capacity": "4",
    "fee": "yes",
    "motorcar": "yes",
    "name": "CSC-00024/25",
    "network": "Mobi.E",
    "opening_hours": "24/7",
    "operator": "Cascais Proxima",
    "parking:fee": "no",
    "ref": "CSC-00024;CSC-00025",
    "socket:type2": "4",
    "socket:type2:current": "32",
    "socket:type2:output": "22kW",
    "socket:type2:voltage": "400",
    "website": "https://www.mobie.pt",
    "id": "node/8461369930"
  },
  "geometry": {
    "type": "Point",
    "coordinates": [
      -9.4205064,
      38.6964712
    ]
  }
},
{
  "type": "Feature",
  "id": "node/8462115910",
  "properties": {
    "access": "private",
    "addr:country": "PT",
    "amenity": "charging_station",
    "authentication:membership_card": "yes",
    "authentication:none": "no",
    "capacity": "2",
    "email": "suporte@evpower.pt",
    "fee": "yes",
    "motorcar": "yes",
    "name": "LSB-01538",
    "network": "Mobi.E",
    "opening_hours": "24/7",
    "operator": "EV Power",
    "parking:fee": "no",
    "phone": "+351 800 254 565",
    "ref": "LSB-01538",
    "socket:type2": "2",
    "socket:type2:current": "32",
    "socket:type2:output": "22kW",
    "socket:type2:voltage": "400",
    "website": "https://www.mobie.pt",
    "id": "node/8462115910"
  },
  "geometry": {
    "type": "Point",
    "coordinates": [
      -9.170536,
      38.704802
    ]
  }
},
{
  "type": "Feature",
  "id": "node/8479499867",
  "properties": {
    "access": "private",
    "addr:country": "PT",
    "amenity": "charging_station",
    "authentication:membership_card": "yes",
    "authentication:none": "no",
    "capacity": "2",
    "email": "suporte@evpower.pt",
    "fee": "yes",
    "motorcar": "yes",
    "name": "PTG-00005 - Politécnico",
    "network": "Mobi.E",
    "opening_hours": "24/7",
    "operator": "EV Power",
    "parking:fee": "no",
    "phone": "+351 800 254 565",
    "ref": "PTG-00005",
    "socket:type2": "2",
    "socket:type2:current": "32",
    "socket:type2:output": "22kW",
    "socket:type2:voltage": "400",
    "website": "https://www.mobie.pt",
    "id": "node/8479499867"
  },
  "geometry": {
    "type": "Point",
    "coordinates": [
      -7.442796,
      39.268171
    ]
  }
},
{
  "type": "Feature",
  "id": "node/8479809332",
  "properties": {
    "access": "private",
    "addr:country": "PT",
    "amenity": "charging_station",
    "authentication:membership_card": "yes",
    "authentication:none": "no",
    "capacity": "2",
    "email": "apoio.cliente@kmlowcost.com",
    "fee": "yes",
    "motorcar": "yes",
    "name": "STR-00013",
    "network": "Mobi.E",
    "opening_hours": "24/7",
    "operator": "KLC",
    "parking:fee": "no",
    "phone": "+351 800 296 929",
    "ref": "STR-00013",
    "socket:type2": "2",
    "socket:type2:current": "32",
    "socket:type2:output": "22kW",
    "socket:type2:voltage": "400",
    "website": "https://www.mobie.pt",
    "id": "node/8479809332"
  },
  "geometry": {
    "type": "Point",
    "coordinates": [
      -8.739737,
      39.203122
    ]
  }
},
{
  "type": "Feature",
  "id": "node/8511198579",
  "properties": {
    "access": "private",
    "addr:country": "PT",
    "amenity": "charging_station",
    "authentication:membership_card": "yes",
    "authentication:none": "no",
    "capacity": "2",
    "email": "mobilidade-eletrica@edp.pt",
    "fee": "yes",
    "name": "LLE-00051",
    "network": "Mobi.E",
    "opening_hours": "24/7",
    "operator": "EDP Comercial",
    "parking:fee": "no",
    "phone": "+351 800 222 222",
    "ref": "LLE-00051",
    "socket:type2": "2",
    "socket:type2:current": "32",
    "socket:type2:output": "22kW",
    "socket:type2:voltage": "400",
    "website": "https://www.mobie.pt",
    "id": "node/8511198579"
  },
  "geometry": {
    "type": "Point",
    "coordinates": [
      -8.012296,
      37.043744
    ]
  }
},
{
  "type": "Feature",
  "id": "node/8536551682",
  "properties": {
    "access": "customers",
    "addr:country": "PT",
    "amenity": "charging_station",
    "authentication:membership_card": "yes",
    "authentication:none": "no",
    "capacity": "2",
    "email": "mobilidade.electricacrc@galp.com",
    "fee": "yes",
    "motorcar": "yes",
    "name": "BRG-00039 - Hospital Escala",
    "network": "Mobi.E",
    "opening_hours": "24/7",
    "operator": "Galp Power",
    "parking:fee": "yes",
    "phone": "+351 800 249 249",
    "ref": "BRG-00039",
    "socket:type2": "2",
    "socket:type2:current": "16",
    "socket:type2:output": "11kW",
    "socket:type2:voltage": "400",
    "website": "https://www.mobie.pt",
    "id": "node/8536551682"
  },
  "geometry": {
    "type": "Point",
    "coordinates": [
      -8.3995414,
      41.5676912
    ]
  }
},
{
  "type": "Feature",
  "id": "node/8608038347",
  "properties": {
    "access": "private",
    "addr:country": "PT",
    "amenity": "charging_station",
    "capacity": "4",
    "name": "RTP - Parque Exterior",
    "network": "none",
    "operator": "RTP",
    "socket:type2": "4",
    "socket:type2:current": "32",
    "socket:type2:output": "22kW",
    "socket:type2:voltage": "400",
    "id": "node/8608038347"
  },
  "geometry": {
    "type": "Point",
    "coordinates": [
      -9.11861,
      38.759508
    ]
  }
},
{
  "type": "Feature",
  "id": "node/8612634632",
  "properties": {
    "access": "customers",
    "addr:country": "PT",
    "amenity": "charging_station",
    "authentication:membership_card": "yes",
    "authentication:none": "no",
    "capacity": "2",
    "email": "geral@eplug.pt",
    "fee": "yes",
    "name": "LSB-00329",
    "network": "Mobi.E",
    "opening_hours": "24/7",
    "operator": "E-Plug",
    "parking:fee": "no",
    "phone": "+351 211 648 577",
    "ref": "LSB-00329",
    "socket:type2": "2",
    "socket:type2:current": "32",
    "socket:type2:output": "22kW",
    "socket:type2:voltage": "400",
    "website": "https://www.mobie.pt",
    "id": "node/8612634632"
  },
  "geometry": {
    "type": "Point",
    "coordinates": [
      -9.219721,
      38.695538
    ]
  }
},
{
  "type": "Feature",
  "id": "node/8640076098",
  "properties": {
    "access": "customers",
    "addr:country": "PT",
    "amenity": "charging_station",
    "authentication:membership_card": "yes",
    "authentication:none": "no",
    "capacity": "2",
    "fee": "yes",
    "name": "Intermarché de Tábua",
    "network": "none",
    "opening_hours": "Mo-Su 08:30-20:00",
    "operator": "unknown",
    "parking:fee": "no",
    "socket:type2": "2",
    "socket:type2:current": "32",
    "socket:type2:output": "22kW",
    "socket:type2:voltage": "400",
    "id": "node/8640076098"
  },
  "geometry": {
    "type": "Point",
    "coordinates": [
      -8.0244157,
      40.3640231
    ]
  }
},
{
  "type": "Feature",
  "id": "node/8665591629",
  "properties": {
    "access": "customers",
    "addr:country": "PT",
    "amenity": "charging_station",
    "authentication:membership_card": "yes",
    "authentication:none": "no",
    "capacity": "1",
    "name": "Peugeot Motorex",
    "network": "none",
    "operator": "Motorex",
    "socket:type2": "1",
    "socket:type2:current": "32",
    "socket:type2:output": "22kW",
    "socket:type2:voltage": "400",
    "id": "node/8665591629"
  },
  "geometry": {
    "type": "Point",
    "coordinates": [
      -7.85668,
      38.02132
    ]
  }
},
{
  "type": "Feature",
  "id": "node/8665591630",
  "properties": {
    "access": "customers",
    "addr:country": "PT",
    "amenity": "charging_station",
    "authentication:membership_card": "yes",
    "authentication:none": "no",
    "capacity": "1",
    "name": "Renault Multiauto",
    "network": "Renault",
    "operator": "Multiauto",
    "socket:type2": "1",
    "socket:type2:current": "32",
    "socket:type2:output": "22kW",
    "socket:type2:voltage": "400",
    "id": "node/8665591630"
  },
  "geometry": {
    "type": "Point",
    "coordinates": [
      -7.85663,
      38.02179
    ]
  }
},
{
  "type": "Feature",
  "id": "node/8693956621",
  "properties": {
    "access": "customers",
    "addr:country": "PT",
    "amenity": "charging_station",
    "capacity": "2",
    "name": "Forportil",
    "network": "none",
    "operator": "Forportil",
    "socket:type2": "2",
    "socket:type2:current": "32",
    "socket:type2:output": "22kW",
    "socket:type2:voltage": "400",
    "id": "node/8693956621"
  },
  "geometry": {
    "type": "Point",
    "coordinates": [
      -8.5544363,
      37.1369374
    ]
  }
},
{
  "type": "Feature",
  "id": "node/8709394157",
  "properties": {
    "access": "customers",
    "addr:country": "PT",
    "amenity": "charging_station",
    "capacity": "1",
    "name": "Quinta de Cabanas - Douro Country House",
    "network": "none",
    "operator": "Quinta de Cabanas",
    "socket:type2": "1",
    "socket:type2:current": "32",
    "socket:type2:output": "22kW",
    "socket:type2:voltage": "400",
    "id": "node/8709394157"
  },
  "geometry": {
    "type": "Point",
    "coordinates": [
      -8.167931,
      41.091352
    ]
  }
},
{
  "type": "Feature",
  "id": "node/8710878293",
  "properties": {
    "access": "customers",
    "addr:country": "PT",
    "amenity": "charging_station",
    "authentication:membership_card": "yes",
    "authentication:none": "no",
    "capacity": "2",
    "fee": "yes",
    "motorcar": "yes",
    "name": "STR-00021 - Restaurante Oh Vargas",
    "network": "Mobi.E",
    "opening_hours": "24/7",
    "operator": "Ucharge",
    "parking:fee": "no",
    "ref": "STR-00021",
    "socket:type2": "2",
    "socket:type2:current": "32",
    "socket:type2:output": "22kW",
    "socket:type2:voltage": "400",
    "website": "https://www.mobie.pt",
    "id": "node/8710878293"
  },
  "geometry": {
    "type": "Point",
    "coordinates": [
      -8.695412,
      39.2610738
    ]
  }
},
{
  "type": "Feature",
  "id": "node/8726338734",
  "properties": {
    "access": "customers",
    "addr:country": "PT",
    "amenity": "charging_station",
    "capacity": "1",
    "name": "Puralã Wool Valey Hotel & SPA",
    "network": "none",
    "operator": "Puralã Wool Valey Hotel & SPA",
    "socket:type2": "1",
    "socket:type2:current": "16",
    "socket:type2:output": "11kW",
    "socket:type2:voltage": "400",
    "id": "node/8726338734"
  },
  "geometry": {
    "type": "Point",
    "coordinates": [
      -7.499542,
      40.267149
    ]
  }
},
{
  "type": "Feature",
  "id": "node/8781140430",
  "properties": {
    "access": "customers",
    "addr:country": "PT",
    "amenity": "charging_station",
    "authentication:membership_card": "yes",
    "authentication:none": "no",
    "capacity": "2",
    "fee": "yes",
    "name": "PTM-00021 - Vitor's Plaza",
    "network": "Mobi.E",
    "opening_hours": "24/7",
    "operator": "Bluecharge",
    "parking:fee": "no",
    "ref": "PTM-00021",
    "socket:type2": "2",
    "socket:type2:current": "32",
    "socket:type2:output": "22kW",
    "socket:type2:voltage": "400",
    "website": "https://www.mobie.pt",
    "id": "node/8781140430"
  },
  "geometry": {
    "type": "Point",
    "coordinates": [
      -8.5668241,
      37.1312092
    ]
  }
},
{
  "type": "Feature",
  "id": "node/8830322332",
  "properties": {
    "access": "customers",
    "addr:country": "PT",
    "amenity": "charging_station",
    "capacity": "2",
    "name": "Adega de Borba Wineshop",
    "network": "none",
    "operator": "Adega de Borba",
    "socket:type2": "2",
    "socket:type2:current": "32",
    "socket:type2:output": "22kW",
    "socket:type2:voltage": "400",
    "id": "node/8830322332"
  },
  "geometry": {
    "type": "Point",
    "coordinates": [
      -7.463713,
      38.8073993
    ]
  }
},
{
  "type": "Feature",
  "id": "node/8830322333",
  "properties": {
    "access": "customers",
    "addr:country": "PT",
    "amenity": "charging_station",
    "capacity": "2",
    "name": "Adega de Favaios",
    "network": "none",
    "operator": "Adega de Favaios",
    "socket:type2": "2",
    "socket:type2:current": "32",
    "socket:type2:output": "22kW",
    "socket:type2:voltage": "400",
    "id": "node/8830322333"
  },
  "geometry": {
    "type": "Point",
    "coordinates": [
      -7.5048789,
      41.271086
    ]
  }
},
{
  "type": "Feature",
  "id": "node/8866903384",
  "properties": {
    "access": "customers",
    "addr:country": "PT",
    "amenity": "charging_station",
    "authentication:membership_card": "yes",
    "authentication:none": "no",
    "capacity": "2",
    "email": "mobilidade.electricacrc@galp.com",
    "fee": "yes",
    "motorcar": "yes",
    "name": "PRT-00092/93",
    "network": "Mobi.E",
    "opening_hours": "24/7",
    "operator": "Galp Power",
    "parking:fee": "yes",
    "phone": "+351 800 249 249",
    "ref": "PRT-00092;PRT-00093",
    "socket:type2": "4",
    "socket:type2:current": "16",
    "socket:type2:output": "11kW",
    "socket:type2:voltage": "400",
    "website": "https://www.mobie.pt",
    "id": "node/8866903384"
  },
  "geometry": {
    "type": "Point",
    "coordinates": [
      -8.608699,
      41.153757
    ]
  }
},
{
  "type": "Feature",
  "id": "node/8902326545",
  "properties": {
    "access": "customers",
    "addr:country": "PT",
    "amenity": "charging_station",
    "capacity": "1",
    "name": "Luna Arcos",
    "network": "none",
    "operator": "Luna Arcos",
    "socket:type2": "1",
    "socket:type2:current": "32",
    "socket:type2:output": "22kW",
    "socket:type2:voltage": "400",
    "id": "node/8902326545"
  },
  "geometry": {
    "type": "Point",
    "coordinates": [
      -8.4175031,
      41.8510701
    ]
  }
},
{
  "type": "Feature",
  "id": "node/8902326546",
  "properties": {
    "access": "customers",
    "addr:country": "PT",
    "amenity": "charging_station",
    "capacity": "1",
    "name": "Casas do Telhado",
    "network": "none",
    "operator": "Casas do Telhado",
    "socket:type2": "1",
    "socket:type2:current": "32",
    "socket:type2:output": "22kW",
    "socket:type2:voltage": "400",
    "id": "node/8902326546"
  },
  "geometry": {
    "type": "Point",
    "coordinates": [
      -8.197984,
      41.230609
    ]
  }
},
{
  "type": "Feature",
  "id": "node/8908319356",
  "properties": {
    "access": "customers",
    "addr:country": "PT",
    "amenity": "charging_station",
    "authentication:membership_card": "yes",
    "authentication:none": "no",
    "capacity": "4",
    "fee": "yes",
    "motorcar": "yes",
    "name": "FUN-00021/22",
    "network": "Mobi.E",
    "opening_hours": "24/7",
    "operator": "Factor Energia",
    "parking:fee": "yes",
    "phone": "+351 800 100 013",
    "ref": "FUN-00021;FUN-00022",
    "socket:type2": "4",
    "socket:type2:current": "32",
    "socket:type2:output": "22kW",
    "socket:type2:voltage": "400",
    "website": "https://www.mobie.pt",
    "id": "node/8908319356"
  },
  "geometry": {
    "type": "Point",
    "coordinates": [
      -16.9193198,
      32.6433222
    ]
  }
},
{
  "type": "Feature",
  "id": "node/8989497396",
  "properties": {
    "access": "customers",
    "addr:country": "PT",
    "amenity": "charging_station",
    "capacity": "1",
    "name": "Monte das Texugueiras",
    "network": "none",
    "operator": "Monte das Texugueiras",
    "socket:type2": "1",
    "socket:type2:current": "16",
    "socket:type2:output": "11kW",
    "socket:type2:voltage": "400",
    "id": "node/8989497396"
  },
  "geometry": {
    "type": "Point",
    "coordinates": [
      -7.9586826,
      39.2626634
    ]
  }
},
{
  "type": "Feature",
  "id": "node/8989930034",
  "properties": {
    "access": "customers",
    "addr:country": "PT",
    "amenity": "charging_station",
    "capacity": "3",
    "name": "Quinta São Miguel de Arcos",
    "network": "none",
    "operator": "Quinta São Miguel de Arcos",
    "socket:tesla_destination": "1",
    "socket:tesla_destination:current": "32",
    "socket:tesla_destination:output": "22kW",
    "socket:tesla_destination:voltage": "400",
    "socket:type2": "2",
    "socket:type2:current": "32",
    "socket:type2:output": "22kW",
    "socket:type2:voltage": "400",
    "id": "node/8989930034"
  },
  "geometry": {
    "type": "Point",
    "coordinates": [
      -8.666912,
      41.3958336
    ]
  }
},
{
  "type": "Feature",
  "id": "node/8994025210",
  "properties": {
    "access": "customers",
    "addr:country": "PT",
    "amenity": "charging_station",
    "authentication:membership_card": "yes",
    "authentication:none": "no",
    "capacity": "1",
    "fee": "yes",
    "motorcar": "yes",
    "name": "Hotel Monte Prado - 1",
    "network": "EVIO",
    "opening_hours": "24/7",
    "operator": "Hotel Monte Prado",
    "socket:type2": "1",
    "socket:type2:current": "32",
    "socket:type2:output": "22kW",
    "socket:type2:voltage": "400",
    "id": "node/8994025210"
  },
  "geometry": {
    "type": "Point",
    "coordinates": [
      -8.2747022,
      42.1205953
    ]
  }
},
{
  "type": "Feature",
  "id": "node/8994025211",
  "properties": {
    "access": "customers",
    "addr:country": "PT",
    "amenity": "charging_station",
    "authentication:membership_card": "yes",
    "authentication:none": "no",
    "capacity": "1",
    "fee": "yes",
    "motorcar": "yes",
    "name": "Hotel Monte Prado - 2",
    "network": "EVIO",
    "opening_hours": "24/7",
    "operator": "Hotel Monte Prado",
    "socket:type2": "1",
    "socket:type2:current": "32",
    "socket:type2:output": "22kW",
    "socket:type2:voltage": "400",
    "id": "node/8994025211"
  },
  "geometry": {
    "type": "Point",
    "coordinates": [
      -8.2739026,
      42.1209207
    ]
  }
},
{
  "type": "Feature",
  "id": "node/9065817477",
  "properties": {
    "access": "customers",
    "addr:country": "PT",
    "amenity": "charging_station",
    "authentication:membership_card": "yes",
    "authentication:none": "no",
    "capacity": "2",
    "fee": "yes",
    "motorcar": "yes",
    "name": "LSB-00387/8 - IST",
    "network": "Mobi.E",
    "opening_hours": "24/7",
    "operator": "Image4all",
    "parking:fee": "no",
    "ref": "LSB-00387;LSB-00388",
    "socket:type2": "2",
    "socket:type2:current": "32",
    "socket:type2:output": "22kW",
    "socket:type2:voltage": "400",
    "website": "https://www.mobie.pt",
    "id": "node/9065817477"
  },
  "geometry": {
    "type": "Point",
    "coordinates": [
      -9.139073,
      38.7370877
    ]
  }
},
{
  "type": "Feature",
  "id": "node/9066262142",
  "properties": {
    "access": "private",
    "addr:country": "PT",
    "amenity": "charging_station",
    "authentication:membership_card": "yes",
    "authentication:none": "no",
    "capacity": "2",
    "motorcar": "yes",
    "name": "Goldenergy - Câmara Municipal de Vila Real",
    "network": "none",
    "opening_hours": "24/7",
    "operator": "Goldenergy",
    "parking:fee": "no",
    "socket:type2": "2",
    "socket:type2:current": "32",
    "socket:type2:output": "22kW",
    "socket:type2:voltage": "400",
    "id": "node/9066262142"
  },
  "geometry": {
    "type": "Point",
    "coordinates": [
      -7.7461001,
      41.2942185
    ]
  }
},
{
  "type": "Feature",
  "id": "node/9095146047",
  "properties": {
    "access": "customers",
    "addr:country": "PT",
    "amenity": "charging_station",
    "capacity": "2",
    "name": "Hotel Porto Expo Aeroporto",
    "network": "none",
    "operator": "Hotel Porto Expo Aeroporto",
    "socket:type2": "2",
    "socket:type2:current": "16",
    "socket:type2:output": "11kW",
    "socket:type2:voltage": "400",
    "id": "node/9095146047"
  },
  "geometry": {
    "type": "Point",
    "coordinates": [
      -8.683722,
      41.224
    ]
  }
},
{
  "type": "Feature",
  "id": "node/9108791146",
  "properties": {
    "access": "customers",
    "addr:country": "PT",
    "amenity": "charging_station",
    "capacity": "2",
    "name": "Quinta da Pacheca",
    "network": "none",
    "operator": "Quinta da Pacheca",
    "socket:type2": "2",
    "socket:type2:current": "32",
    "socket:type2:output": "22kW",
    "socket:type2:voltage": "400",
    "id": "node/9108791146"
  },
  "geometry": {
    "type": "Point",
    "coordinates": [
      -7.797062,
      41.154388
    ]
  }
},
{
  "type": "Feature",
  "id": "node/9141358126",
  "properties": {
    "access": "private",
    "addr:country": "PT",
    "amenity": "charging_station",
    "capacity": "1",
    "name": "Câmara Municipal de Bragança",
    "network": "none",
    "operator": "Câmara Municipal de Bragança",
    "socket:type2": "1",
    "socket:type2:current": "32",
    "socket:type2:output": "22kW",
    "socket:type2:voltage": "400",
    "id": "node/9141358126"
  },
  "geometry": {
    "type": "Point",
    "coordinates": [
      -6.7655471,
      41.8049648
    ]
  }
},
{
  "type": "Feature",
  "id": "node/9176701042",
  "properties": {
    "access": "customers",
    "addr:country": "PT",
    "amenity": "charging_station",
    "authentication:none": "yes",
    "capacity": "1",
    "fee": "no",
    "motorcar": "yes",
    "name": "You and the Sea",
    "network": "none",
    "opening_hours": "24/7",
    "operator": "You and the Sea",
    "parking:fee": "no",
    "socket:type2": "1",
    "socket:type2:current": "32",
    "socket:type2:output": "22kW",
    "socket:type2:voltage": "400",
    "id": "node/9176701042"
  },
  "geometry": {
    "type": "Point",
    "coordinates": [
      -9.4128183,
      38.9538273
    ]
  }
}
]
}
