{
"type": "FeatureCollection",
"features": [
{
  "type": "Feature",
  "id": "node/7031340600",
  "properties": {
    "access": "customers",
    "addr:country": "PT",
    "addr:postcode": "8600-645 Lagos",
    "amenity": "charging_station",
    "capacity": "2",
    "fee": "no",
    "motorcar": "yes",
    "name": "Lagos Avenida Hotel Tesla Destination Charger",
    "network": "Tesla",
    "operator": "Tesla",
    "phone": "+351 282 780 090",
    "ref": "dc41908",
    "socket:tesla_destination": "1",
    "socket:tesla_destination:output": "22kW",
    "socket:type2": "2",
    "socket:type2:output": "7.4kW",
    "socket:type2_cable": "1",
    "socket:type2_cable:output": "22kW",
    "website": "https://www.tesla.com/pt_PT/findus/list/chargers/Portugal",
    "id": "node/7031340600"
  },
  "geometry": {
    "type": "Point",
    "coordinates": [
      -8.6753704,
      37.1071907
    ]
  }
},
{
  "type": "Feature",
  "id": "node/8116451516",
  "properties": {
    "access": "customers",
    "addr:country": "PT",
    "amenity": "charging_station",
    "authentication:membership_card": "yes",
    "authentication:none": "no",
    "capacity": "2",
    "motorcar": "yes",
    "name": "Magnum Cap",
    "operator": "Magnum Cap",
    "parking:fee": "no",
    "socket:type2": "2",
    "socket:type2:current": "32",
    "socket:type2:output": "7.4kW",
    "socket:type2:voltage": "230",
    "id": "node/8116451516"
  },
  "geometry": {
    "type": "Point",
    "coordinates": [
      -8.6079207,
      40.6480715
    ]
  }
},
{
  "type": "Feature",
  "id": "node/8119339964",
  "properties": {
    "access": "permissive",
    "addr:country": "PT",
    "amenity": "charging_station",
    "authentication:membership_card": "yes",
    "authentication:none": "no",
    "capacity": "2",
    "email": "mobilidade.electricacrc@galp.com",
    "fee": "yes",
    "motorcar": "yes",
    "name": "PLM-00004",
    "network": "Mobi.E",
    "opening_hours": "Mo-Su 09:00-21:00",
    "operator": "Galp Power",
    "parking:fee": "no",
    "phone": "+351 800 249 249",
    "ref": "PLM-00004",
    "socket:type2": "2",
    "socket:type2:current": "32",
    "socket:type2:output": "7.4kW",
    "socket:type2:voltage": "230",
    "website": "https://www.mobie.pt/",
    "id": "node/8119339964"
  },
  "geometry": {
    "type": "Point",
    "coordinates": [
      -9.0050232,
      38.5787059
    ]
  }
},
{
  "type": "Feature",
  "id": "node/8154869166",
  "properties": {
    "access": "private",
    "amenity": "charging_station",
    "authentication:membership_card": "yes",
    "authentication:none": "no",
    "capacity": "2",
    "email": "mobilidade-eletrica@edp.pt",
    "fee": "yes",
    "motorcar": "yes",
    "name": "OER-00029/30",
    "network": "Mobi.E",
    "opening_hours": "24/7",
    "operator": "EDP Comercial",
    "parking:fee": "yes",
    "phone": "+351 800 222 222",
    "ref": "OER-00029;OER-00030",
    "socket:type2": "2",
    "socket:type2:current": "32",
    "socket:type2:output": "7.4kW",
    "socket:type2:voltage": "230",
    "website": "https://www.mobie.pt/",
    "id": "node/8154869166"
  },
  "geometry": {
    "type": "Point",
    "coordinates": [
      -9.2927463,
      38.709607
    ]
  }
},
{
  "type": "Feature",
  "id": "node/8238721464",
  "properties": {
    "access": "customers",
    "addr:country": "PT",
    "amenity": "charging_station",
    "capacity": "2",
    "name": "Alegro Setúbal",
    "network": "none",
    "operator": "Alegro Setúbal",
    "socket:type2": "2",
    "socket:type2:current": "16",
    "socket:type2:output": "3.7kW",
    "socket:type2:voltage": "230",
    "id": "node/8238721464"
  },
  "geometry": {
    "type": "Point",
    "coordinates": [
      -8.8760157,
      38.5372292
    ]
  }
},
{
  "type": "Feature",
  "id": "node/8242754005",
  "properties": {
    "access": "private",
    "addr:city": "Cascais",
    "addr:country": "PT",
    "addr:street": "Estrada de Manique",
    "amenity": "charging_station",
    "authentication:membership_card": "yes",
    "authentication:none": "no",
    "capacity": "4",
    "fee": "yes",
    "motorcar": "yes",
    "name": "CSC-00011",
    "network": "Mobi.E",
    "opening_hours": "24/7",
    "operator": "Mobi.E",
    "parking:fee": "no",
    "ref": "CSC-00011",
    "socket:type2": "4",
    "socket:type2:current": "16",
    "socket:type2:output": "3.7kW",
    "socket:type2:voltage": "230",
    "website": "https://www.mobie.pt/",
    "id": "node/8242754005"
  },
  "geometry": {
    "type": "Point",
    "coordinates": [
      -9.3862316,
      38.7361934
    ]
  }
},
{
  "type": "Feature",
  "id": "node/8242791150",
  "properties": {
    "access": "private",
    "addr:country": "PT",
    "amenity": "charging_station",
    "capacity": "2",
    "name": "Santogal Opel",
    "network": "none",
    "operator": "Santogal",
    "socket:type2": "1",
    "socket:type2:current": "16",
    "socket:type2:output": "3.7kW",
    "socket:type2:voltage": "230",
    "id": "node/8242791150"
  },
  "geometry": {
    "type": "Point",
    "coordinates": [
      -9.3956025,
      38.736649
    ]
  }
},
{
  "type": "Feature",
  "id": "node/8242791151",
  "properties": {
    "access": "private",
    "addr:country": "PT",
    "amenity": "charging_station",
    "capacity": "2",
    "name": "Santogal Volvo",
    "network": "none",
    "operator": "Santogal",
    "socket:type2": "1",
    "socket:type2:current": "16",
    "socket:type2:output": "3.7kW",
    "socket:type2:voltage": "230",
    "id": "node/8242791151"
  },
  "geometry": {
    "type": "Point",
    "coordinates": [
      -9.3956602,
      38.7368969
    ]
  }
},
{
  "type": "Feature",
  "id": "node/8242796891",
  "properties": {
    "access": "customers",
    "addr:country": "PT",
    "amenity": "charging_station",
    "authentication:membership_card": "yes",
    "authentication:none": "no",
    "capacity": "2",
    "email": "mobilidade.electricacrc@galp.com",
    "fee": "yes",
    "motorcar": "yes",
    "name": "SNT-00010",
    "network": "Mobi.E",
    "opening_hours": "24/7",
    "operator": "Galp Power",
    "parking:fee": "no",
    "phone": "+351 800 249 249",
    "ref": "SNT-90010",
    "socket:type2": "2",
    "socket:type2:current": "16",
    "socket:type2:output": "3.7kW",
    "socket:type2:voltage": "230",
    "website": "https://www.mobie.pt/",
    "id": "node/8242796891"
  },
  "geometry": {
    "type": "Point",
    "coordinates": [
      -9.3742561,
      38.7622446
    ]
  }
},
{
  "type": "Feature",
  "id": "node/8255379291",
  "properties": {
    "access": "private",
    "addr:country": "PT",
    "amenity": "charging_station",
    "capacity": "1",
    "name": "Hotel Mundial",
    "network": "none",
    "operator": "Hotel Mundial",
    "socket:type2": "1",
    "socket:type2:current": "16",
    "socket:type2:output": "3.7kW",
    "socket:type2:voltage": "230",
    "id": "node/8255379291"
  },
  "geometry": {
    "type": "Point",
    "coordinates": [
      -9.136878,
      38.7149704
    ]
  }
},
{
  "type": "Feature",
  "id": "node/8255549515",
  "properties": {
    "access": "customers",
    "addr:country": "PT",
    "amenity": "charging_station",
    "capacity": "1",
    "name": "Hospedaria Céu Azul",
    "network": "none",
    "operator": "Hospedaria Céu Azul",
    "socket:type2": "1",
    "socket:type2:current": "32",
    "socket:type2:output": "7.4kW",
    "socket:type2:voltage": "230",
    "id": "node/8255549515"
  },
  "geometry": {
    "type": "Point",
    "coordinates": [
      -8.8118747,
      39.588933
    ]
  }
},
{
  "type": "Feature",
  "id": "node/8255593194",
  "properties": {
    "access": "private",
    "addr:country": "PT",
    "amenity": "charging_station",
    "capacity": "1",
    "name": "Casa Taipina",
    "network": "none",
    "operator": "Casa Taipina",
    "socket:type2": "1",
    "socket:type2:current": "16",
    "socket:type2:output": "3.7kW",
    "socket:type2:voltage": "230",
    "id": "node/8255593194"
  },
  "geometry": {
    "type": "Point",
    "coordinates": [
      -8.629353,
      40.3937267
    ]
  }
},
{
  "type": "Feature",
  "id": "node/8257503808",
  "properties": {
    "access": "customers",
    "addr:country": "PT",
    "amenity": "charging_station",
    "authentication:membership_card": "yes",
    "authentication:none": "no",
    "capacity": "2",
    "email": "mobilidade-eletrica@edp.pt",
    "fee": "yes",
    "motorcar": "yes",
    "name": "TVR-00006/7 - Hotel Albacora",
    "network": "Mobi.E",
    "opening_hours": "24/7",
    "operator": "EDP Comercial",
    "parking:fee": "no",
    "phone": "+351 800 222 222",
    "ref": "TVR-00006;TVR-00007",
    "socket:type2": "2",
    "socket:type2:current": "32",
    "socket:type2:output": "7.4kW",
    "socket:type2:voltage": "230",
    "website": "https://www.mobie.pt/",
    "id": "node/8257503808"
  },
  "geometry": {
    "type": "Point",
    "coordinates": [
      -7.6271302,
      37.1193653
    ]
  }
},
{
  "type": "Feature",
  "id": "node/8257523622",
  "properties": {
    "access": "customers",
    "addr:country": "PT",
    "amenity": "charging_station",
    "authentication:membership_card": "yes",
    "authentication:none": "no",
    "capacity": "2",
    "email": "mobilidade-eletrica@edp.pt",
    "fee": "yes",
    "motorcar": "yes",
    "name": "TVR-00008/9 - Hotel Vila Galé Tavira",
    "network": "Mobi.E",
    "opening_hours": "24/7",
    "operator": "EDP Comercial",
    "parking:fee": "no",
    "phone": "+351 800 222 222",
    "ref": "TVR-00008;TVR-00009",
    "socket:type2": "2",
    "socket:type2:current": "32",
    "socket:type2:output": "7.4kW",
    "socket:type2:voltage": "230",
    "website": "https://www.mobie.pt/",
    "id": "node/8257523622"
  },
  "geometry": {
    "type": "Point",
    "coordinates": [
      -7.6456102,
      37.1235143
    ]
  }
},
{
  "type": "Feature",
  "id": "node/8257528781",
  "properties": {
    "access": "customers",
    "addr:country": "PT",
    "amenity": "charging_station",
    "authentication:membership_card": "yes",
    "authentication:none": "no",
    "capacity": "2",
    "email": "mobilidade-eletrica@edp.pt",
    "fee": "yes",
    "motorcar": "yes",
    "name": "TVR-00002/3 - Hotel Pestana Tavira",
    "network": "Mobi.E",
    "opening_hours": "24/7",
    "operator": "EDP Comercial",
    "parking:fee": "no",
    "phone": "+351 800 222 222",
    "ref": "TVR-00002;TVR-00003",
    "socket:type2": "2",
    "socket:type2:current": "32",
    "socket:type2:output": "7.4kW",
    "socket:type2:voltage": "230",
    "website": "https://www.mobie.pt/",
    "id": "node/8257528781"
  },
  "geometry": {
    "type": "Point",
    "coordinates": [
      -7.6527127,
      37.1251575
    ]
  }
},
{
  "type": "Feature",
  "id": "node/8262533135",
  "properties": {
    "access": "customers",
    "addr:country": "PT",
    "amenity": "charging_station",
    "authentication:membership_card": "yes",
    "authentication:none": "no",
    "capacity": "1",
    "email": "mobilidade-eletrica@edp.pt",
    "fee": "yes",
    "motorcar": "yes",
    "name": "FAR-00023 - Pousada Palácio de Estoi",
    "network": "Mobi.E",
    "opening_hours": "24/7",
    "operator": "EDP Comercial",
    "parking:fee": "no",
    "phone": "+351 800 222 222",
    "ref": "FAR-00023",
    "socket:type2": "1",
    "socket:type2:current": "32",
    "socket:type2:output": "7.4kW",
    "socket:type2:voltage": "230",
    "website": "https://www.mobie.pt/",
    "id": "node/8262533135"
  },
  "geometry": {
    "type": "Point",
    "coordinates": [
      -7.8953136,
      37.0966946
    ]
  }
},
{
  "type": "Feature",
  "id": "node/8262533136",
  "properties": {
    "access": "customers",
    "addr:country": "PT",
    "amenity": "charging_station",
    "authentication:membership_card": "yes",
    "authentication:none": "no",
    "capacity": "1",
    "email": "mobilidade-eletrica@edp.pt",
    "fee": "yes",
    "motorcar": "yes",
    "name": "FAR-00022 - Hotel Pestana Estoi",
    "network": "Mobi.E",
    "opening_hours": "24/7",
    "operator": "EDP Comercial",
    "parking:fee": "no",
    "phone": "+351 800 222 222",
    "ref": "FAR-00022",
    "socket:type2": "1",
    "socket:type2:current": "32",
    "socket:type2:output": "7.4kW",
    "socket:type2:voltage": "230",
    "website": "https://www.mobie.pt/",
    "id": "node/8262533136"
  },
  "geometry": {
    "type": "Point",
    "coordinates": [
      -7.8955282,
      37.096832
    ]
  }
},
{
  "type": "Feature",
  "id": "node/8262564286",
  "properties": {
    "access": "customers",
    "addr:country": "PT",
    "amenity": "charging_station",
    "authentication:membership_card": "yes",
    "authentication:none": "no",
    "capacity": "2",
    "email": "mobilidade-eletrica@edp.pt",
    "fee": "yes",
    "motorcar": "yes",
    "name": "LLE-00044/45 - Hotel Pestana Vila Sol",
    "network": "Mobi.E",
    "opening_hours": "24/7",
    "operator": "EDP Comercial",
    "parking:fee": "no",
    "phone": "+351 800 222 222",
    "ref": "LLE-00044;LLE-00045",
    "socket:type2": "2",
    "socket:type2:current": "32",
    "socket:type2:output": "7.4kW",
    "socket:type2:voltage": "230",
    "website": "https://www.mobie.pt/",
    "id": "node/8262564286"
  },
  "geometry": {
    "type": "Point",
    "coordinates": [
      -8.093956,
      37.0921397
    ]
  }
},
{
  "type": "Feature",
  "id": "node/8262566436",
  "properties": {
    "access": "customers",
    "addr:country": "PT",
    "amenity": "charging_station",
    "authentication:membership_card": "yes",
    "authentication:none": "no",
    "capacity": "2",
    "email": "mobilidade-eletrica@edp.pt",
    "fee": "yes",
    "motorcar": "yes",
    "name": "LLE-00024/25 - Hotel Vila Galé Ampalius",
    "network": "Mobi.E",
    "opening_hours": "24/7",
    "operator": "EDP Comercial",
    "parking:fee": "no",
    "phone": "+351 800 222 222",
    "ref": "LLE-00024;LLE-00025",
    "socket:type2": "2",
    "socket:type2:current": "32",
    "socket:type2:output": "7.4kW",
    "socket:type2:voltage": "230",
    "website": "https://www.mobie.pt/",
    "id": "node/8262566436"
  },
  "geometry": {
    "type": "Point",
    "coordinates": [
      -8.1179242,
      37.0734274
    ]
  }
},
{
  "type": "Feature",
  "id": "node/8262581167",
  "properties": {
    "access": "customers",
    "addr:country": "PT",
    "amenity": "charging_station",
    "authentication:membership_card": "yes",
    "authentication:none": "no",
    "capacity": "2",
    "email": "mobilidade-eletrica@edp.pt",
    "fee": "yes",
    "motorcar": "yes",
    "name": "LLE-00026/27 - Hotel Vila Galé Marina",
    "network": "Mobi.E",
    "opening_hours": "24/7",
    "operator": "EDP Comercial",
    "parking:fee": "no",
    "phone": "+351 800 222 222",
    "ref": "LLE-00026;LLE-00027",
    "socket:type2": "2",
    "socket:type2:current": "32",
    "socket:type2:output": "7.4kW",
    "socket:type2:voltage": "230",
    "website": "https://www.mobie.pt/",
    "id": "node/8262581167"
  },
  "geometry": {
    "type": "Point",
    "coordinates": [
      -8.1171571,
      37.0758766
    ]
  }
},
{
  "type": "Feature",
  "id": "node/8262591108",
  "properties": {
    "access": "customers",
    "addr:country": "PT",
    "amenity": "charging_station",
    "capacity": "1",
    "name": "Camping Turiscampo",
    "network": "none",
    "operator": "Camping Turiscampo",
    "socket:type2": "1",
    "socket:type2:current": "32",
    "socket:type2:output": "7.4kW",
    "socket:type2:voltage": "230",
    "id": "node/8262591108"
  },
  "geometry": {
    "type": "Point",
    "coordinates": [
      -8.732834,
      37.1016926
    ]
  }
},
{
  "type": "Feature",
  "id": "node/8262596902",
  "properties": {
    "access": "customers",
    "addr:country": "PT",
    "amenity": "charging_station",
    "authentication:membership_card": "yes",
    "authentication:none": "no",
    "capacity": "2",
    "email": "mobilidade-eletrica@edp.pt",
    "fee": "yes",
    "motorcar": "yes",
    "name": "ABF-00008/9 - Hotel Vila Galé Cerro Alagoa",
    "network": "Mobi.E",
    "opening_hours": "24/7",
    "operator": "EDP Comercial",
    "parking:fee": "no",
    "phone": "+351 800 222 222",
    "ref": "ABF-00008;ABF-00009",
    "socket:type2": "1",
    "socket:type2:current": "32",
    "socket:type2:output": "7.4kW",
    "socket:type2:voltage": "230",
    "website": "https://www.mobie.pt/",
    "id": "node/8262596902"
  },
  "geometry": {
    "type": "Point",
    "coordinates": [
      -8.2436836,
      37.090488
    ]
  }
},
{
  "type": "Feature",
  "id": "node/8262611997",
  "properties": {
    "access": "customers",
    "addr:country": "PT",
    "amenity": "charging_station",
    "authentication:membership_card": "yes",
    "authentication:none": "no",
    "capacity": "2",
    "email": "mobilidade-eletrica@edp.pt",
    "fee": "yes",
    "motorcar": "yes",
    "name": "ABF-00014/15 - Hotel Vila Galé Atlântico",
    "network": "Mobi.E",
    "opening_hours": "24/7",
    "operator": "EDP Comercial",
    "parking:fee": "no",
    "phone": "+351 800 222 222",
    "ref": "ABF-00014;ABF-00015",
    "socket:type2": "2",
    "socket:type2:current": "32",
    "socket:type2:output": "7.4kW",
    "socket:type2:voltage": "230",
    "website": "https://www.mobie.pt/",
    "id": "node/8262611997"
  },
  "geometry": {
    "type": "Point",
    "coordinates": [
      -8.3147433,
      37.0845484
    ]
  }
},
{
  "type": "Feature",
  "id": "node/8262620579",
  "properties": {
    "access": "customers",
    "addr:country": "PT",
    "amenity": "charging_station",
    "authentication:membership_card": "yes",
    "authentication:none": "no",
    "capacity": "4",
    "email": "mobilidade-eletrica@edp.pt",
    "fee": "yes",
    "motorcar": "yes",
    "name": "PTM-00004/5/6/7 - Hotel Pestana Blue Alvor",
    "network": "Mobi.E",
    "opening_hours": "24/7",
    "operator": "EDP Comercial",
    "parking:fee": "no",
    "phone": "+351 800 222 222",
    "ref": "PTM-00004;PTM-00005;PTM-00006;PTM-00007",
    "socket:type2": "4",
    "socket:type2:current": "32",
    "socket:type2:output": "7.4kW",
    "socket:type2:voltage": "230",
    "website": "https://www.mobie.pt/",
    "id": "node/8262620579"
  },
  "geometry": {
    "type": "Point",
    "coordinates": [
      -8.577795,
      37.1247971
    ]
  }
},
{
  "type": "Feature",
  "id": "node/8262659546",
  "properties": {
    "access": "customers",
    "addr:country": "PT",
    "amenity": "charging_station",
    "authentication:membership_card": "yes",
    "authentication:none": "no",
    "capacity": "1",
    "email": "mobilidade-eletrica@edp.pt",
    "fee": "yes",
    "motorcar": "yes",
    "name": "PTM-00016/17 - Hotel Pestana Delfim",
    "network": "Mobi.E",
    "opening_hours": "24/7",
    "operator": "EDP Comercial",
    "parking:fee": "no",
    "phone": "+351 800 222 222",
    "ref": "PTM-00016;PTM-00017",
    "socket:type2": "1",
    "socket:type2:current": "32",
    "socket:type2:output": "7.4kW",
    "socket:type2:voltage": "230",
    "website": "https://www.mobie.pt/",
    "id": "node/8262659546"
  },
  "geometry": {
    "type": "Point",
    "coordinates": [
      -8.5800084,
      37.123476
    ]
  }
},
{
  "type": "Feature",
  "id": "node/8262670189",
  "properties": {
    "access": "customers",
    "addr:country": "PT",
    "amenity": "charging_station",
    "authentication:membership_card": "yes",
    "authentication:none": "no",
    "capacity": "2",
    "email": "mobilidade-eletrica@edp.pt",
    "fee": "yes",
    "motorcar": "yes",
    "name": "PTM-00010/11 - Hotel Pestana Alvor South Beach",
    "network": "Mobi.E",
    "opening_hours": "24/7",
    "operator": "EDP Comercial",
    "parking:fee": "no",
    "phone": "+351 800 222 222",
    "ref": "PTM-00010;PTM-00011",
    "socket:type2": "2",
    "socket:type2:current": "32",
    "socket:type2:output": "7.4kW",
    "socket:type2:voltage": "230",
    "website": "https://www.mobie.pt/",
    "id": "node/8262670189"
  },
  "geometry": {
    "type": "Point",
    "coordinates": [
      -8.5901177,
      37.1236684
    ]
  }
},
{
  "type": "Feature",
  "id": "node/8262670190",
  "properties": {
    "access": "customers",
    "addr:country": "PT",
    "amenity": "charging_station",
    "authentication:membership_card": "yes",
    "authentication:none": "no",
    "capacity": "2",
    "email": "mobilidade-eletrica@edp.pt",
    "fee": "yes",
    "motorcar": "yes",
    "name": "PTM-00012/13 - Hotel Pestana Dom João II",
    "network": "Mobi.E",
    "opening_hours": "24/7",
    "operator": "EDP Comercial",
    "parking:fee": "no",
    "phone": "+351 800 222 222",
    "ref": "PTM-00012;PTM-00013",
    "socket:type2": "2",
    "socket:type2:current": "32",
    "socket:type2:output": "7.4kW",
    "socket:type2:voltage": "230",
    "website": "https://www.mobie.pt/",
    "id": "node/8262670190"
  },
  "geometry": {
    "type": "Point",
    "coordinates": [
      -8.5872196,
      37.1228162
    ]
  }
},
{
  "type": "Feature",
  "id": "node/8262670191",
  "properties": {
    "access": "customers",
    "addr:country": "PT",
    "amenity": "charging_station",
    "authentication:membership_card": "yes",
    "authentication:none": "no",
    "capacity": "2",
    "email": "mobilidade-eletrica@edp.pt",
    "fee": "yes",
    "motorcar": "yes",
    "name": "VBP-00004/5 - Pousada Sagres",
    "network": "Mobi.E",
    "opening_hours": "24/7",
    "operator": "EDP Comercial",
    "parking:fee": "no",
    "phone": "+351 800 222 222",
    "ref": "VBP-00004;VBP-00005",
    "socket:type2": "2",
    "socket:type2:current": "32",
    "socket:type2:output": "7.4kW",
    "socket:type2:voltage": "230",
    "website": "https://www.mobie.pt/",
    "id": "node/8262670191"
  },
  "geometry": {
    "type": "Point",
    "coordinates": [
      -8.9334244,
      37.0057871
    ]
  }
},
{
  "type": "Feature",
  "id": "node/8262684035",
  "properties": {
    "access": "customers",
    "addr:country": "PT",
    "amenity": "charging_station",
    "authentication:membership_card": "yes",
    "authentication:none": "no",
    "capacity": "2",
    "email": "mobilidade-eletrica@edp.pt",
    "fee": "yes",
    "motorcar": "yes",
    "name": "PTM-00014/15 - Hotel Pestana Alvor Park",
    "network": "Mobi.E",
    "opening_hours": "24/7",
    "operator": "EDP Comercial",
    "parking:fee": "no",
    "phone": "+351 800 222 222",
    "ref": "PTM-00014;PTM-00015",
    "socket:type2": "2",
    "socket:type2:current": "32",
    "socket:type2:output": "7.4kW",
    "socket:type2:voltage": "230",
    "website": "https://www.mobie.pt/",
    "id": "node/8262684035"
  },
  "geometry": {
    "type": "Point",
    "coordinates": [
      -8.5843228,
      37.1270089
    ]
  }
},
{
  "type": "Feature",
  "id": "node/8262690626",
  "properties": {
    "access": "customers",
    "addr:country": "PT",
    "amenity": "charging_station",
    "authentication:membership_card": "yes",
    "authentication:none": "no",
    "capacity": "2",
    "email": "mobilidade-eletrica@edp.pt",
    "fee": "yes",
    "motorcar": "yes",
    "name": "LGS-00006/7 - Hotel Vila Galé Lagos",
    "network": "Mobi.E",
    "opening_hours": "24/7",
    "operator": "EDP Comercial",
    "parking:fee": "no",
    "phone": "+351 800 222 222",
    "ref": "LGS-00006;LGS-00007",
    "socket:type2": "2",
    "socket:type2:current": "32",
    "socket:type2:output": "7.4kW",
    "socket:type2:voltage": "230",
    "website": "https://www.mobie.pt/",
    "id": "node/8262690626"
  },
  "geometry": {
    "type": "Point",
    "coordinates": [
      -8.66243,
      37.1131553
    ]
  }
},
{
  "type": "Feature",
  "id": "node/8265020068",
  "properties": {
    "access": "customers",
    "addr:country": "PT",
    "amenity": "charging_station",
    "authentication:membership_card": "yes",
    "authentication:none": "no",
    "capacity": "2",
    "email": "mobilidade-eletrica@edp.pt",
    "fee": "yes",
    "motorcar": "yes",
    "name": "SLV-00003/4 - Hotel Vila Galé Náutico",
    "network": "Mobi.E",
    "opening_hours": "24/7",
    "operator": "EDP Comercial",
    "parking:fee": "no",
    "phone": "+351 800 222 222",
    "ref": "SLV-00003;SLV-00004",
    "socket:type2": "2",
    "socket:type2:current": "32",
    "socket:type2:output": "7.4kW",
    "socket:type2:voltage": "230",
    "website": "https://www.mobie.pt/",
    "id": "node/8265020068"
  },
  "geometry": {
    "type": "Point",
    "coordinates": [
      -8.370362,
      37.1046721
    ]
  }
},
{
  "type": "Feature",
  "id": "node/8265061176",
  "properties": {
    "access": "customers",
    "addr:country": "PT",
    "amenity": "charging_station",
    "authentication:membership_card": "yes",
    "authentication:none": "no",
    "capacity": "2",
    "email": "mobilidade-eletrica@edp.pt",
    "fee": "yes",
    "motorcar": "yes",
    "name": "BJA-00007/8 - Hotel Vila Galé Clube de Campo",
    "network": "Mobi.E",
    "opening_hours": "24/7",
    "operator": "EDP Comercial",
    "parking:fee": "no",
    "phone": "+351 800 222 222",
    "ref": "BJA-00007;BJA-00008",
    "socket:type2": "2",
    "socket:type2:current": "32",
    "socket:type2:output": "7.4kW",
    "socket:type2:voltage": "230",
    "website": "https://www.mobie.pt/",
    "id": "node/8265061176"
  },
  "geometry": {
    "type": "Point",
    "coordinates": [
      -8.021079,
      37.8890871
    ]
  }
},
{
  "type": "Feature",
  "id": "node/8265062176",
  "properties": {
    "access": "private",
    "addr:country": "PT",
    "amenity": "charging_station",
    "capacity": "1",
    "name": "ENAT",
    "network": "none",
    "operator": "ENAT",
    "socket:type2": "1",
    "socket:type2:current": "32",
    "socket:type2:output": "7.4kW",
    "socket:type2:voltage": "230",
    "id": "node/8265062176"
  },
  "geometry": {
    "type": "Point",
    "coordinates": [
      -8.0627659,
      37.7008466
    ]
  }
},
{
  "type": "Feature",
  "id": "node/8270302896",
  "properties": {
    "access": "customers",
    "addr:country": "PT",
    "amenity": "charging_station",
    "authentication:membership_card": "yes",
    "authentication:none": "no",
    "capacity": "2",
    "email": "suporte@mobiletric.com",
    "fee": "yes",
    "motorcar": "yes",
    "name": "FUN-00004 - Pestana Casino Park",
    "network": "Mobi.E",
    "opening_hours": "24/7",
    "operator": "Mobiletric",
    "parking:fee": "no",
    "phone": "+351 800 210 204",
    "ref": "FUN-00004",
    "socket:type2": "1",
    "socket:type2:current": "32",
    "socket:type2:output": "7.4kW",
    "socket:type2:voltage": "230",
    "website": "https://www.mobie.pt/",
    "id": "node/8270302896"
  },
  "geometry": {
    "type": "Point",
    "coordinates": [
      -16.917226,
      32.6437927
    ]
  }
},
{
  "type": "Feature",
  "id": "node/8270302909",
  "properties": {
    "access": "customers",
    "addr:country": "PT",
    "amenity": "charging_station",
    "authentication:membership_card": "yes",
    "authentication:none": "no",
    "capacity": "1",
    "email": "suporte@mobiletric.com",
    "fee": "yes",
    "motorcar": "yes",
    "name": "FUN-00005 - Pestana CR7",
    "network": "Mobi.E",
    "opening_hours": "24/7",
    "operator": "Mobiletric",
    "parking:fee": "no",
    "phone": "+351 800 210 204",
    "ref": "FUN-00005",
    "socket:type2": "1",
    "socket:type2:current": "32",
    "socket:type2:output": "7.4kW",
    "socket:type2:voltage": "230",
    "website": "https://www.mobie.pt/",
    "id": "node/8270302909"
  },
  "geometry": {
    "type": "Point",
    "coordinates": [
      -16.9141763,
      32.6439756
    ]
  }
},
{
  "type": "Feature",
  "id": "node/8270308913",
  "properties": {
    "access": "customers",
    "addr:country": "PT",
    "amenity": "charging_station",
    "authentication:membership_card": "yes",
    "authentication:none": "no",
    "capacity": "2",
    "email": "mobilidade-eletrica@edp.pt",
    "fee": "yes",
    "motorcar": "yes",
    "name": "SCR-00009/10 - Vila Galé Santa Cruz",
    "network": "Mobi.E",
    "opening_hours": "24/7",
    "operator": "EDP Comercial",
    "parking:fee": "no",
    "phone": "+351 800 222 222",
    "ref": "SCR-00009;SCR-00010",
    "socket:type2": "2",
    "socket:type2:current": "32",
    "socket:type2:output": "7.4kW",
    "socket:type2:voltage": "230",
    "website": "https://www.mobie.pt/",
    "id": "node/8270308913"
  },
  "geometry": {
    "type": "Point",
    "coordinates": [
      -16.7931135,
      32.687077
    ]
  }
},
{
  "type": "Feature",
  "id": "node/8270348865",
  "properties": {
    "access": "customers",
    "addr:country": "PT",
    "amenity": "charging_station",
    "capacity": "1",
    "name": "Hotel Dunamar",
    "network": "none",
    "operator": "Hotel Dunamar",
    "socket:type2": "1",
    "socket:type2:current": "30",
    "socket:type2:output": "6.6kW",
    "socket:type2:voltage": "230",
    "id": "node/8270348865"
  },
  "geometry": {
    "type": "Point",
    "coordinates": [
      -7.4442552,
      37.1788754
    ]
  }
},
{
  "type": "Feature",
  "id": "node/8275110686",
  "properties": {
    "access": "permissive",
    "addr:country": "PT",
    "amenity": "charging_station",
    "capacity": "1",
    "motorcar": "yes",
    "name": "Renault Multiauto",
    "network": "Renault",
    "operator": "Renault",
    "socket:type2": "1",
    "socket:type2:current": "32",
    "socket:type2:output": "7.4kW",
    "socket:type2:voltage": "230",
    "id": "node/8275110686"
  },
  "geometry": {
    "type": "Point",
    "coordinates": [
      -7.9121652,
      38.5573591
    ]
  }
},
{
  "type": "Feature",
  "id": "node/8275119211",
  "properties": {
    "access": "customers",
    "addr:country": "PT",
    "amenity": "charging_station",
    "capacity": "2",
    "name": "Herdade dos Delgados",
    "network": "none",
    "operator": "Herdade dos Delgados",
    "socket:type2": "2",
    "socket:type2:current": "32",
    "socket:type2:output": "7.4kW",
    "socket:type2:voltage": "230",
    "id": "node/8275119211"
  },
  "geometry": {
    "type": "Point",
    "coordinates": [
      -7.3576239,
      38.3856128
    ]
  }
},
{
  "type": "Feature",
  "id": "node/8275161245",
  "properties": {
    "access": "customers",
    "addr:country": "PT",
    "amenity": "charging_station",
    "authentication:membership_card": "yes",
    "authentication:none": "no",
    "capacity": "2",
    "email": "mobilidade-eletrica@edp.pt",
    "fee": "yes",
    "motorcar": "yes",
    "name": "ASL-00005/6 - Pousada Castelo de Alcácer do Sal",
    "network": "Mobi.E",
    "opening_hours": "24/7",
    "operator": "EDP Comercial",
    "parking:fee": "no",
    "phone": "+351 800 222 222",
    "ref": "ASL-00005;ASL-00006",
    "socket:type2": "2",
    "socket:type2:current": "32",
    "socket:type2:output": "7.4kW",
    "socket:type2:voltage": "230",
    "website": "https://www.mobie.pt/",
    "id": "node/8275161245"
  },
  "geometry": {
    "type": "Point",
    "coordinates": [
      -8.5138362,
      38.3721434
    ]
  }
},
{
  "type": "Feature",
  "id": "node/8275178356",
  "properties": {
    "access": "customers",
    "addr:country": "PT",
    "amenity": "charging_station",
    "authentication:membership_card": "yes",
    "authentication:none": "no",
    "capacity": "2",
    "email": "mobilidade-eletrica@edp.pt",
    "fee": "yes",
    "motorcar": "yes",
    "name": "EVR-00014/15 - Vila Galé Évora",
    "network": "Mobi.E",
    "opening_hours": "24/7",
    "operator": "EDP Comercial",
    "parking:fee": "no",
    "phone": "+351 800 222 222",
    "ref": "EVR-00014;EVR-00015",
    "socket:type2": "2",
    "socket:type2:current": "32",
    "socket:type2:output": "7.4kW",
    "socket:type2:voltage": "230",
    "website": "https://www.mobie.pt/",
    "id": "node/8275178356"
  },
  "geometry": {
    "type": "Point",
    "coordinates": [
      -7.9155904,
      38.5669732
    ]
  }
},
{
  "type": "Feature",
  "id": "node/8275207528",
  "properties": {
    "access": "customers",
    "addr:country": "PT",
    "amenity": "charging_station",
    "authentication:membership_card": "yes",
    "authentication:none": "no",
    "capacity": "2",
    "email": "mobilidade-eletrica@edp.pt",
    "fee": "yes",
    "motorcar": "yes",
    "name": "EVR-00012/13 - Pestana Pousada Convento",
    "network": "Mobi.E",
    "opening_hours": "24/7",
    "operator": "EDP Comercial",
    "parking:fee": "no",
    "phone": "+351 800 222 222",
    "ref": "EVR-00012;EVR-00013",
    "socket:type2": "2",
    "socket:type2:current": "32",
    "socket:type2:output": "7.4kW",
    "socket:type2:voltage": "230",
    "website": "https://www.mobie.pt/",
    "id": "node/8275207528"
  },
  "geometry": {
    "type": "Point",
    "coordinates": [
      -7.9070315,
      38.5726374
    ]
  }
},
{
  "type": "Feature",
  "id": "node/8275216959",
  "properties": {
    "access": "customers",
    "addr:country": "PT",
    "amenity": "charging_station",
    "authentication:membership_card": "yes",
    "authentication:none": "no",
    "capacity": "2",
    "email": "mobilidade-eletrica@edp.pt",
    "fee": "yes",
    "motorcar": "yes",
    "name": "ARL-00002/3 - Pousada de Arraiolos",
    "network": "Mobi.E",
    "opening_hours": "24/7",
    "operator": "EDP Comercial",
    "parking:fee": "no",
    "phone": "+351 800 222 222",
    "ref": "ARL-00002;ARL-00003",
    "socket:type2": "2",
    "socket:type2:current": "32",
    "socket:type2:output": "7.4kW",
    "socket:type2:voltage": "230",
    "website": "https://www.mobie.pt/",
    "id": "node/8275216959"
  },
  "geometry": {
    "type": "Point",
    "coordinates": [
      -7.9894584,
      38.7320523
    ]
  }
},
{
  "type": "Feature",
  "id": "node/8279646489",
  "properties": {
    "access": "customers",
    "addr:country": "PT",
    "amenity": "charging_station",
    "capacity": "2",
    "name": "Hotel do Mar",
    "network": "none",
    "operator": "Hotel do Mar",
    "socket:type2": "2",
    "socket:type2:current": "30",
    "socket:type2:output": "7kW",
    "socket:type2:voltage": "230",
    "id": "node/8279646489"
  },
  "geometry": {
    "type": "Point",
    "coordinates": [
      -9.1073737,
      38.4440367
    ]
  }
},
{
  "type": "Feature",
  "id": "node/8280558371",
  "properties": {
    "access": "customers",
    "addr:country": "PT",
    "amenity": "charging_station",
    "authentication:membership_card": "yes",
    "authentication:none": "no",
    "capacity": "2",
    "fee": "yes",
    "name": "Orbitur Montargil",
    "network": "none",
    "opening_hours": "24/7",
    "operator": "Orbitur",
    "parking:fee": "no",
    "socket:type2": "2",
    "socket:type2:current": "32",
    "socket:type2:output": "7.4kW",
    "socket:type2:voltage": "230",
    "id": "node/8280558371"
  },
  "geometry": {
    "type": "Point",
    "coordinates": [
      -8.1444472,
      39.1004789
    ]
  }
},
{
  "type": "Feature",
  "id": "node/8280600899",
  "properties": {
    "access": "customers",
    "addr:country": "PT",
    "amenity": "charging_station",
    "authentication:membership_card": "yes",
    "authentication:none": "no",
    "capacity": "1",
    "email": "mobilidade-eletrica@edp.pt",
    "fee": "yes",
    "motorcar": "yes",
    "name": "SNT-00018 - Vila Galé Resort",
    "network": "Mobi.E",
    "opening_hours": "24/7",
    "operator": "EDP Comercial",
    "parking:fee": "no",
    "phone": "+351 800 222 222",
    "ref": "SNT-00018",
    "socket:type2": "1",
    "socket:type2:current": "32",
    "socket:type2:output": "7.4kW",
    "socket:type2:voltage": "230",
    "website": "https://www.mobie.pt/",
    "id": "node/8280600899"
  },
  "geometry": {
    "type": "Point",
    "coordinates": [
      -9.4038275,
      38.8304666
    ]
  }
},
{
  "type": "Feature",
  "id": "node/8280604422",
  "properties": {
    "access": "customers",
    "addr:country": "PT",
    "amenity": "charging_station",
    "authentication:membership_card": "yes",
    "authentication:none": "no",
    "capacity": "1",
    "email": "mobilidade-eletrica@edp.pt",
    "fee": "yes",
    "motorcar": "yes",
    "name": "SNT-00017 - Vila Galé Resort",
    "network": "Mobi.E",
    "opening_hours": "24/7",
    "operator": "EDP Comercial",
    "parking:fee": "no",
    "phone": "+351 800 222 222",
    "ref": "SNT-00017",
    "socket:type2": "1",
    "socket:type2:current": "32",
    "socket:type2:output": "7.4kW",
    "socket:type2:voltage": "230",
    "website": "https://www.mobie.pt/",
    "id": "node/8280604422"
  },
  "geometry": {
    "type": "Point",
    "coordinates": [
      -9.4008878,
      38.8289809
    ]
  }
},
{
  "type": "Feature",
  "id": "node/8280612258",
  "properties": {
    "access": "customers",
    "addr:country": "PT",
    "amenity": "charging_station",
    "authentication:membership_card": "yes",
    "authentication:none": "no",
    "capacity": "2",
    "email": "mobilidade-eletrica@edp.pt",
    "fee": "yes",
    "motorcar": "yes",
    "name": "MFR-00005/6 - Hotel Vila Galé Ericeira",
    "network": "Mobi.E",
    "opening_hours": "24/7",
    "operator": "EDP Comercial",
    "parking:fee": "no",
    "phone": "+351 800 222 222",
    "ref": "MFR-00005;MFR-00006",
    "socket:type2": "2",
    "socket:type2:current": "32",
    "socket:type2:output": "7.4kW",
    "socket:type2:voltage": "230",
    "website": "https://www.mobie.pt/",
    "id": "node/8280612258"
  },
  "geometry": {
    "type": "Point",
    "coordinates": [
      -9.4176757,
      38.9600793
    ]
  }
},
{
  "type": "Feature",
  "id": "node/8280641738",
  "properties": {
    "access": "customers",
    "addr:country": "PT",
    "amenity": "charging_station",
    "authentication:membership_card": "yes",
    "authentication:none": "no",
    "capacity": "2",
    "email": "mobilidade-eletrica@edp.pt",
    "fee": "yes",
    "motorcar": "yes",
    "name": "CSC-00040/41 - Hotel Vila Galé Estoril",
    "network": "Mobi.E",
    "opening_hours": "24/7",
    "operator": "EDP Comercial",
    "parking:fee": "no",
    "phone": "+351 800 222 222",
    "ref": "CSC-00040;CSC-00041",
    "socket:type2": "2",
    "socket:type2:current": "32",
    "socket:type2:output": "7.4kW",
    "socket:type2:voltage": "230",
    "website": "https://www.mobie.pt/",
    "id": "node/8280641738"
  },
  "geometry": {
    "type": "Point",
    "coordinates": [
      -9.3966539,
      38.7038901
    ]
  }
},
{
  "type": "Feature",
  "id": "node/8280680847",
  "properties": {
    "access": "customers",
    "addr:country": "PT",
    "amenity": "charging_station",
    "authentication:membership_card": "yes",
    "authentication:none": "no",
    "capacity": "2",
    "email": "mobilidade-eletrica@edp.pt",
    "fee": "yes",
    "motorcar": "yes",
    "name": "ALT-00002/3 - Hotel Vila Galé Alter Real",
    "network": "Mobi.E",
    "opening_hours": "24/7",
    "operator": "EDP Comercial",
    "parking:fee": "no",
    "phone": "+351 800 222 222",
    "ref": "ALT-00002;ALT-00003",
    "socket:type2": "2",
    "socket:type2:current": "32",
    "socket:type2:output": "7.4kW",
    "socket:type2:voltage": "230",
    "website": "https://www.mobie.pt/",
    "id": "node/8280680847"
  },
  "geometry": {
    "type": "Point",
    "coordinates": [
      -7.6868798,
      39.2223693
    ]
  }
},
{
  "type": "Feature",
  "id": "node/8280816343",
  "properties": {
    "access": "customers",
    "addr:country": "PT",
    "amenity": "charging_station",
    "authentication:membership_card": "yes",
    "authentication:none": "no",
    "capacity": "2",
    "email": "mobilidade-eletrica@edp.pt",
    "fee": "yes",
    "motorcar": "yes",
    "name": "CRT-00002/3 - Mosteiro da Flor da Rosa",
    "network": "Mobi.E",
    "opening_hours": "24/7",
    "operator": "EDP Comercial",
    "parking:fee": "no",
    "phone": "+351 800 222 222",
    "ref": "CRT-00002;CRT-00003",
    "socket:type2": "2",
    "socket:type2:current": "32",
    "socket:type2:output": "7.4kW",
    "socket:type2:voltage": "230",
    "website": "https://www.mobie.pt/",
    "id": "node/8280816343"
  },
  "geometry": {
    "type": "Point",
    "coordinates": [
      -7.6481091,
      39.3061887
    ]
  }
},
{
  "type": "Feature",
  "id": "node/8283855382",
  "properties": {
    "access": "customers",
    "addr:country": "PT",
    "amenity": "charging_station",
    "capacity": "2",
    "name": "Consolata Hotel",
    "network": "none",
    "operator": "Consolata Hotel",
    "socket:type2": "2",
    "socket:type2:current": "16",
    "socket:type2:output": "3.7kW",
    "socket:type2:voltage": "230",
    "id": "node/8283855382"
  },
  "geometry": {
    "type": "Point",
    "coordinates": [
      -8.6687279,
      39.6298828
    ]
  }
},
{
  "type": "Feature",
  "id": "node/8284080281",
  "properties": {
    "access": "customers",
    "addr:country": "PT",
    "amenity": "charging_station",
    "capacity": "1",
    "name": "Hotel Arribas",
    "network": "none",
    "operator": "Hotel Arribas",
    "socket:type2": "1",
    "socket:type2:current": "32",
    "socket:type2:output": "7.4kW",
    "socket:type2:voltage": "230",
    "id": "node/8284080281"
  },
  "geometry": {
    "type": "Point",
    "coordinates": [
      -9.4756074,
      38.8174658
    ]
  }
},
{
  "type": "Feature",
  "id": "node/8284894195",
  "properties": {
    "access": "customers",
    "addr:country": "PT",
    "amenity": "charging_station",
    "authentication:membership_card": "yes",
    "authentication:none": "no",
    "capacity": "2",
    "email": "mobilidade-eletrica@edp.pt",
    "fee": "yes",
    "motorcar": "yes",
    "name": "OER-00015/16",
    "network": "Mobi.E",
    "opening_hours": "24/7",
    "operator": "EDP Comercial",
    "parking:fee": "no",
    "phone": "+351 800 222 222",
    "ref": "OER-00015;OER-00016",
    "socket:type2": "2",
    "socket:type2:current": "32",
    "socket:type2:output": "7.4kW",
    "socket:type2:voltage": "230",
    "website": "https://www.mobie.pt/",
    "id": "node/8284894195"
  },
  "geometry": {
    "type": "Point",
    "coordinates": [
      -9.2899396,
      38.696337
    ]
  }
},
{
  "type": "Feature",
  "id": "node/8284949049",
  "properties": {
    "access": "private",
    "addr:country": "PT",
    "amenity": "charging_station",
    "capacity": "1",
    "name": "Palácio do Marquês de Pombal",
    "network": "none",
    "operator": "Palácio do Marquês de Pombal",
    "socket:type2": "1",
    "socket:type2:current": "32",
    "socket:type2:output": "7.4kW",
    "socket:type2:voltage": "230",
    "id": "node/8284949049"
  },
  "geometry": {
    "type": "Point",
    "coordinates": [
      -9.3144053,
      38.6926311
    ]
  }
},
{
  "type": "Feature",
  "id": "node/8284973352",
  "properties": {
    "access": "customers",
    "addr:country": "PT",
    "amenity": "charging_station",
    "authentication:membership_card": "yes",
    "authentication:none": "no",
    "capacity": "2",
    "email": "mobilidade.electricacrc@galp.com",
    "fee": "yes",
    "motorcar": "yes",
    "name": "LRA-00015",
    "network": "Mobi.E",
    "opening_hours": "24/7",
    "operator": "Galp Power",
    "parking:fee": "no",
    "phone": "+351 800 249 249",
    "ref": "LRA-00015",
    "socket:type2": "2",
    "socket:type2:current": "32",
    "socket:type2:output": "7.4kW",
    "socket:type2:voltage": "230",
    "website": "https://www.mobie.pt/",
    "id": "node/8284973352"
  },
  "geometry": {
    "type": "Point",
    "coordinates": [
      -8.7711507,
      39.7685039
    ]
  }
},
{
  "type": "Feature",
  "id": "node/8284990430",
  "properties": {
    "access": "customers",
    "addr:country": "PT",
    "amenity": "charging_station",
    "capacity": "2",
    "name": "Porta 20 Guesthouse",
    "network": "none",
    "operator": "Porta 20 Guesthouse",
    "socket:type2": "2",
    "socket:type2:current": "32",
    "socket:type2:output": "7.4kW",
    "socket:type2:voltage": "230",
    "id": "node/8284990430"
  },
  "geometry": {
    "type": "Point",
    "coordinates": [
      -8.8041241,
      39.7413607
    ]
  }
},
{
  "type": "Feature",
  "id": "node/8285064956",
  "properties": {
    "access": "customers",
    "addr:country": "PT",
    "amenity": "charging_station",
    "capacity": "1",
    "name": "Hotel Príncipe da Beira",
    "network": "none",
    "operator": "Hotel Príncipe da Beira",
    "socket:type2": "1",
    "socket:type2:current": "32",
    "socket:type2:output": "7.4kW",
    "socket:type2:voltage": "230",
    "id": "node/8285064956"
  },
  "geometry": {
    "type": "Point",
    "coordinates": [
      -7.478613,
      40.1273139
    ]
  }
},
{
  "type": "Feature",
  "id": "node/8285084455",
  "properties": {
    "access": "customers",
    "addr:country": "PT",
    "amenity": "charging_station",
    "capacity": "3",
    "name": "MCoutinho Jaguar",
    "network": "none",
    "operator": "MCoutinho",
    "socket:type2": "3",
    "socket:type2:current": "32",
    "socket:type2:output": "7.4kW",
    "socket:type2:voltage": "230",
    "id": "node/8285084455"
  },
  "geometry": {
    "type": "Point",
    "coordinates": [
      -8.4426981,
      40.2478361
    ]
  }
},
{
  "type": "Feature",
  "id": "node/8285094687",
  "properties": {
    "access": "customers",
    "addr:country": "PT",
    "amenity": "charging_station",
    "authentication:membership_card": "yes",
    "authentication:none": "no",
    "capacity": "2",
    "email": "mobilidade-eletrica@edp.pt",
    "fee": "yes",
    "motorcar": "yes",
    "name": "CBR-00034/35 - Hotel Vila Galé",
    "network": "Mobi.E",
    "opening_hours": "24/7",
    "operator": "EDP Comercial",
    "parking:fee": "no",
    "phone": "+351 800 222 222",
    "ref": "CBR-00034;CBR-00035",
    "socket:type2": "2",
    "socket:type2:current": "32",
    "socket:type2:output": "7.4kW",
    "socket:type2:voltage": "230",
    "website": "https://www.mobie.pt/",
    "id": "node/8285094687"
  },
  "geometry": {
    "type": "Point",
    "coordinates": [
      -8.435943,
      40.2142811
    ]
  }
},
{
  "type": "Feature",
  "id": "node/8286060705",
  "properties": {
    "access": "customers",
    "addr:country": "PT",
    "amenity": "charging_station",
    "capacity": "1",
    "fee": "yes",
    "name": "Pousada da Juventude Penhas da Saúde",
    "network": "none",
    "operator": "Pousada da Juventude Penhas da Saúde",
    "socket:type2": "1",
    "socket:type2:current": "32",
    "socket:type2:output": "7.4kW",
    "socket:type2:voltage": "230",
    "id": "node/8286060705"
  },
  "geometry": {
    "type": "Point",
    "coordinates": [
      -7.550531,
      40.3107239
    ]
  }
},
{
  "type": "Feature",
  "id": "node/8286113387",
  "properties": {
    "access": "customers",
    "addr:country": "PT",
    "amenity": "charging_station",
    "authentication:membership_card": "yes",
    "authentication:none": "no",
    "capacity": "2",
    "email": "mobilidade-eletrica@edp.pt",
    "fee": "yes",
    "motorcar": "yes",
    "name": "CVL-00003/4 - Pousada Serra da Estrela",
    "network": "Mobi.E",
    "opening_hours": "24/7",
    "operator": "EDP Comercial",
    "parking:fee": "no",
    "phone": "+351 800 222 222",
    "ref": "CVL-00003;CVL-00004",
    "socket:type2": "2",
    "socket:type2:current": "32",
    "socket:type2:output": "7.4kW",
    "socket:type2:voltage": "230",
    "website": "https://www.mobie.pt/",
    "id": "node/8286113387"
  },
  "geometry": {
    "type": "Point",
    "coordinates": [
      -7.5332361,
      40.2921908
    ]
  }
},
{
  "type": "Feature",
  "id": "node/8286115414",
  "properties": {
    "access": "customers",
    "addr:country": "PT",
    "amenity": "charging_station",
    "authentication:membership_card": "yes",
    "authentication:none": "no",
    "capacity": "2",
    "email": "mobilidade-eletrica@edp.pt",
    "fee": "yes",
    "motorcar": "yes",
    "name": "MTG-00002/3 - Vila Galé Serra da Estrela",
    "network": "Mobi.E",
    "opening_hours": "24/7",
    "operator": "EDP Comercial",
    "parking:fee": "no",
    "phone": "+351 800 222 222",
    "ref": "MTG-00002;MTG-00003",
    "socket:type2": "2",
    "socket:type2:current": "32",
    "socket:type2:output": "7.4kW",
    "socket:type2:voltage": "230",
    "website": "https://www.mobie.pt/",
    "id": "node/8286115414"
  },
  "geometry": {
    "type": "Point",
    "coordinates": [
      -7.5458559,
      40.3818652
    ]
  }
},
{
  "type": "Feature",
  "id": "node/8286252796",
  "properties": {
    "access": "customers",
    "addr:country": "PT",
    "amenity": "charging_station",
    "capacity": "2",
    "name": "Kia - Soveco",
    "network": "none",
    "operator": "Soveco",
    "socket:type2": "2",
    "socket:type2:current": "32",
    "socket:type2:output": "7.4kW",
    "socket:type2:voltage": "230",
    "id": "node/8286252796"
  },
  "geometry": {
    "type": "Point",
    "coordinates": [
      -7.8715874,
      40.6287471
    ]
  }
},
{
  "type": "Feature",
  "id": "node/8286294645",
  "properties": {
    "access": "customers",
    "addr:country": "PT",
    "amenity": "charging_station",
    "capacity": "2",
    "fee": "yes",
    "name": "Viseu Garden Hotel",
    "network": "none",
    "operator": "Viseu Garden Hotel",
    "socket:type2": "2",
    "socket:type2:current": "32",
    "socket:type2:output": "7.4kW",
    "socket:type2:voltage": "230",
    "id": "node/8286294645"
  },
  "geometry": {
    "type": "Point",
    "coordinates": [
      -7.9156145,
      40.6923634
    ]
  }
},
{
  "type": "Feature",
  "id": "node/8286314227",
  "properties": {
    "access": "customers",
    "addr:country": "PT",
    "amenity": "charging_station",
    "authentication:membership_card": "yes",
    "authentication:none": "no",
    "capacity": "2",
    "email": "mobilidade-eletrica@edp.pt",
    "fee": "yes",
    "motorcar": "yes",
    "name": "MRS-00002/3 - Pestana Pousada da Ria",
    "network": "Mobi.E",
    "opening_hours": "24/7",
    "operator": "EDP Comercial",
    "parking:fee": "no",
    "phone": "+351 800 222 222",
    "ref": "MRS-00002;MRS-00003",
    "socket:type2": "2",
    "socket:type2:current": "32",
    "socket:type2:output": "7.4kW",
    "socket:type2:voltage": "230",
    "website": "https://www.mobie.pt/",
    "id": "node/8286314227"
  },
  "geometry": {
    "type": "Point",
    "coordinates": [
      -8.6991495,
      40.7188411
    ]
  }
},
{
  "type": "Feature",
  "id": "node/8286394886",
  "properties": {
    "access": "customers",
    "addr:country": "PT",
    "amenity": "charging_station",
    "capacity": "2",
    "name": "Caetano Baviera BMW",
    "network": "none",
    "operator": "Caetano Baviera",
    "socket:type2": "2",
    "socket:type2:current": "32",
    "socket:type2:output": "7.4kW",
    "socket:type2:voltage": "230",
    "id": "node/8286394886"
  },
  "geometry": {
    "type": "Point",
    "coordinates": [
      -8.6134234,
      40.6626748
    ]
  }
},
{
  "type": "Feature",
  "id": "node/8287633901",
  "properties": {
    "access": "customers",
    "addr:country": "PT",
    "amenity": "charging_station",
    "capacity": "1",
    "name": "Intermarché",
    "network": "none",
    "opening_hours": "08:30-21:00",
    "operator": "Intermarché",
    "parking:fee": "no",
    "socket:type2": "1",
    "socket:type2:current": "32",
    "socket:type2:output": "7.4kW",
    "socket:type2:voltage": "230",
    "id": "node/8287633901"
  },
  "geometry": {
    "type": "Point",
    "coordinates": [
      -8.2562202,
      41.087621
    ]
  }
},
{
  "type": "Feature",
  "id": "node/8287633994",
  "properties": {
    "access": "customers",
    "addr:country": "PT",
    "amenity": "charging_station",
    "capacity": "2",
    "name": "Citroen Lércio Pinto",
    "network": "none",
    "operator": "Citroen Lércio Pinto",
    "socket:type2": "2",
    "socket:type2:current": "32",
    "socket:type2:output": "7.4kW",
    "socket:type2:voltage": "230",
    "id": "node/8287633994"
  },
  "geometry": {
    "type": "Point",
    "coordinates": [
      -8.5692863,
      40.9220586
    ]
  }
},
{
  "type": "Feature",
  "id": "node/8289841756",
  "properties": {
    "access": "customers",
    "addr:country": "PT",
    "amenity": "charging_station",
    "authentication:membership_card": "yes",
    "authentication:none": "no",
    "capacity": "2",
    "email": "mobilidade-eletrica@edp.pt",
    "fee": "yes",
    "motorcar": "yes",
    "name": "CSC-00055/56 - Hotel Pestana Cascais",
    "network": "Mobi.E",
    "opening_hours": "24/7",
    "operator": "EDP Comercial",
    "parking:fee": "no",
    "phone": "+351 800 222 222",
    "ref": "CSC-00055;CSC-00056",
    "socket:type2": "2",
    "socket:type2:current": "32",
    "socket:type2:output": "7.4kW",
    "socket:type2:voltage": "230",
    "website": "https://www.mobie.pt/",
    "id": "node/8289841756"
  },
  "geometry": {
    "type": "Point",
    "coordinates": [
      -9.438295,
      38.6968108
    ]
  }
},
{
  "type": "Feature",
  "id": "node/8289906081",
  "properties": {
    "access": "customers",
    "addr:country": "PT",
    "amenity": "charging_station",
    "authentication:membership_card": "yes",
    "authentication:none": "no",
    "capacity": "2",
    "email": "mobilidade.electricacrc@galp.com",
    "fee": "yes",
    "motorcar": "yes",
    "name": "CSC-00045 - Makro",
    "network": "Mobi.E",
    "opening_hours": "24/7",
    "operator": "Galp Power",
    "parking:fee": "no",
    "phone": "+351 800 249 249",
    "ref": "CSC-00045",
    "socket:type2": "2",
    "socket:type2:current": "32",
    "socket:type2:output": "7.4kW",
    "socket:type2:voltage": "230",
    "website": "https://www.mobie.pt/",
    "id": "node/8289906081"
  },
  "geometry": {
    "type": "Point",
    "coordinates": [
      -9.3922076,
      38.736506
    ]
  }
},
{
  "type": "Feature",
  "id": "node/8298166022",
  "properties": {
    "access": "customers",
    "addr:country": "PT",
    "amenity": "charging_station",
    "authentication:membership_card": "yes",
    "authentication:none": "no",
    "capacity": "4",
    "email": "ajuda@powerdot.pt",
    "fee": "yes",
    "motorcar": "yes",
    "name": "AMD-00018/19/20/21",
    "network": "Mobi.E",
    "opening_hours": "24/7",
    "operator": "Powerdot",
    "parking:fee": "yes",
    "phone": "+351 800 180 292",
    "ref": "AMD-00018;AMD-00019;AMD-00020;AMD-00021",
    "socket:type2": "4",
    "socket:type2:current": "32",
    "socket:type2:output": "7.4kW",
    "socket:type2:voltage": "230",
    "website": "https://www.mobie.pt/",
    "id": "node/8298166022"
  },
  "geometry": {
    "type": "Point",
    "coordinates": [
      -9.2244722,
      38.7401512
    ]
  }
},
{
  "type": "Feature",
  "id": "node/8298192329",
  "properties": {
    "access": "customers",
    "addr:country": "PT",
    "amenity": "charging_station",
    "capacity": "1",
    "name": "LX Indoor Padel",
    "network": "none",
    "operator": "Bluecharge",
    "socket:type2": "1",
    "socket:type2:current": "20",
    "socket:type2:output": "4.6kW",
    "socket:type2:voltage": "230",
    "id": "node/8298192329"
  },
  "geometry": {
    "type": "Point",
    "coordinates": [
      -9.1428271,
      38.8009741
    ]
  }
},
{
  "type": "Feature",
  "id": "node/8301116880",
  "properties": {
    "access": "customers",
    "addr:country": "PT",
    "amenity": "charging_station",
    "authentication:membership_card": "yes",
    "authentication:none": "no",
    "capacity": "2",
    "email": "mobilidade-eletrica@edp.pt",
    "fee": "yes",
    "motorcar": "yes",
    "name": "LSB-00216/217 - Vila Galé Ópera",
    "network": "Mobi.E",
    "opening_hours": "24/7",
    "operator": "EDP Comercial",
    "parking:fee": "no",
    "phone": "+351 800 222 222",
    "ref": "LSB-00216;LSB-00217",
    "socket:type2": "2",
    "socket:type2:current": "32",
    "socket:type2:output": "7.4kW",
    "socket:type2:voltage": "230",
    "website": "https://www.mobie.pt/",
    "id": "node/8301116880"
  },
  "geometry": {
    "type": "Point",
    "coordinates": [
      -9.1804491,
      38.7005472
    ]
  }
},
{
  "type": "Feature",
  "id": "node/8301177097",
  "properties": {
    "access": "customers",
    "addr:country": "PT",
    "amenity": "charging_station",
    "authentication:membership_card": "yes",
    "authentication:none": "no",
    "capacity": "2",
    "email": "ajuda@powerdot.pt",
    "fee": "yes",
    "motorcar": "yes",
    "name": "LSB-00210",
    "network": "Mobi.E",
    "opening_hours": "24/7",
    "operator": "Powerdot",
    "parking:fee": "yes",
    "phone": "+351 800 180 292",
    "ref": "LSB-00210",
    "socket:type2": "2",
    "socket:type2:current": "32",
    "socket:type2:output": "7.4kW",
    "socket:type2:voltage": "230",
    "website": "https://www.mobie.pt/",
    "id": "node/8301177097"
  },
  "geometry": {
    "type": "Point",
    "coordinates": [
      -9.1593998,
      38.7208317
    ]
  }
},
{
  "type": "Feature",
  "id": "node/8303971542",
  "properties": {
    "access": "customers",
    "addr:country": "PT",
    "amenity": "charging_station",
    "authentication:membership_card": "yes",
    "authentication:none": "no",
    "capacity": "2",
    "email": "mobilidade.electricacrc@galp.com",
    "fee": "yes",
    "motorcar": "yes",
    "name": "LSB-00269 - Hotel Corinthia",
    "network": "Mobi.E",
    "opening_hours": "24/7",
    "operator": "Galp Power",
    "parking:fee": "no",
    "phone": "+351 800 249 249",
    "ref": "LSB-00269",
    "socket:type2": "2",
    "socket:type2:current": "32",
    "socket:type2:output": "7.4kW",
    "socket:type2:voltage": "230",
    "website": "https://www.mobie.pt/",
    "id": "node/8303971542"
  },
  "geometry": {
    "type": "Point",
    "coordinates": [
      -9.1660279,
      38.7388795
    ]
  }
},
{
  "type": "Feature",
  "id": "node/8304368509",
  "properties": {
    "access": "customers",
    "addr:country": "PT",
    "amenity": "charging_station",
    "capacity": "2",
    "name": "Caetano Baviera BMW",
    "network": "none",
    "operator": "Caetano Baviera",
    "socket:type2": "2",
    "socket:type2:current": "32",
    "socket:type2:output": "7.4kW",
    "socket:type2:voltage": "230",
    "id": "node/8304368509"
  },
  "geometry": {
    "type": "Point",
    "coordinates": [
      -9.0984499,
      38.7827337
    ]
  }
},
{
  "type": "Feature",
  "id": "node/8307399419",
  "properties": {
    "access": "customers",
    "addr:country": "PT",
    "amenity": "charging_station",
    "authentication:membership_card": "yes",
    "authentication:none": "no",
    "capacity": "2",
    "email": "mobilidade-eletrica@edp.pt",
    "fee": "yes",
    "motorcar": "yes",
    "name": "LMG-00005/6",
    "network": "Mobi.E",
    "opening_hours": "24/7",
    "operator": "EDP Comercial",
    "parking:fee": "no",
    "phone": "+351 800 222 222",
    "ref": "LMG-00005;LMG-00006",
    "socket:type2": "2",
    "socket:type2:current": "32",
    "socket:type2:output": "7.4kW",
    "socket:type2:voltage": "230",
    "website": "https://www.mobie.pt/",
    "id": "node/8307399419"
  },
  "geometry": {
    "type": "Point",
    "coordinates": [
      -7.7847736,
      41.1536177
    ]
  }
},
{
  "type": "Feature",
  "id": "node/8307406367",
  "properties": {
    "access": "customers",
    "addr:country": "PT",
    "amenity": "charging_station",
    "capacity": "2",
    "name": "Magnificat Wine Boutique Hotel",
    "network": "none",
    "operator": "Magnificat Wine Boutique Hotel",
    "socket:type2": "2",
    "socket:type2:current": "32",
    "socket:type2:output": "7.4kW",
    "socket:type2:voltage": "230",
    "id": "node/8307406367"
  },
  "geometry": {
    "type": "Point",
    "coordinates": [
      -7.7692759,
      41.25641
    ]
  }
},
{
  "type": "Feature",
  "id": "node/8308340893",
  "properties": {
    "access": "customers",
    "addr:country": "PT",
    "amenity": "charging_station",
    "authentication:membership_card": "yes",
    "authentication:none": "no",
    "capacity": "2",
    "email": "mobilidade-eletrica@edp.pt",
    "fee": "yes",
    "motorcar": "yes",
    "name": "AMR-00002/3 - Pousada Mosteiro Amares",
    "network": "Mobi.E",
    "opening_hours": "24/7",
    "operator": "EDP Comercial",
    "parking:fee": "no",
    "phone": "+351 800 222 222",
    "ref": "AMR-00002;AMR-00003",
    "socket:type2": "2",
    "socket:type2:current": "32",
    "socket:type2:output": "7.4kW",
    "socket:type2:voltage": "230",
    "website": "https://www.mobie.pt/",
    "id": "node/8308340893"
  },
  "geometry": {
    "type": "Point",
    "coordinates": [
      -8.2705459,
      41.6591484
    ]
  }
},
{
  "type": "Feature",
  "id": "node/8308341661",
  "properties": {
    "access": "customers",
    "addr:country": "PT",
    "amenity": "charging_station",
    "authentication:membership_card": "yes",
    "authentication:none": "no",
    "capacity": "2",
    "email": "mobilidade-eletrica@edp.pt",
    "fee": "yes",
    "motorcar": "yes",
    "name": "TBR-00002/3 - Pousada Caniçada-Gerês",
    "network": "Mobi.E",
    "opening_hours": "24/7",
    "operator": "EDP Comercial",
    "parking:fee": "no",
    "phone": "+351 800 222 222",
    "ref": "TBR-00002;TBR-00003",
    "socket:type2": "2",
    "socket:type2:current": "32",
    "socket:type2:output": "7.4kW",
    "socket:type2:voltage": "230",
    "website": "https://www.mobie.pt/",
    "id": "node/8308341661"
  },
  "geometry": {
    "type": "Point",
    "coordinates": [
      -8.1849378,
      41.6477562
    ]
  }
},
{
  "type": "Feature",
  "id": "node/8308352622",
  "properties": {
    "access": "customers",
    "addr:country": "PT",
    "amenity": "charging_station",
    "authentication:membership_card": "yes",
    "authentication:none": "no",
    "capacity": "2",
    "email": "mobilidade-eletrica@edp.pt",
    "fee": "yes",
    "motorcar": "yes",
    "name": "VCT-00012/13 - Pousada Viana Do Castelo",
    "network": "Mobi.E",
    "opening_hours": "24/7",
    "operator": "EDP Comercial",
    "parking:fee": "no",
    "phone": "+351 800 222 222",
    "ref": "VCT-00012;VCT-00013",
    "socket:type2": "2",
    "socket:type2:current": "32",
    "socket:type2:output": "7.4kW",
    "socket:type2:voltage": "230",
    "website": "https://www.mobie.pt/",
    "id": "node/8308352622"
  },
  "geometry": {
    "type": "Point",
    "coordinates": [
      -8.8357826,
      41.7035218
    ]
  }
},
{
  "type": "Feature",
  "id": "node/8308386371",
  "properties": {
    "access": "customers",
    "addr:country": "PT",
    "amenity": "charging_station",
    "capacity": "1",
    "fee": "no",
    "name": "E.Leclerc - Fafe",
    "network": "none",
    "opening_hours": "Mo-Su 08:30-21:30",
    "operator": "E.Leclerc",
    "socket:type2": "1",
    "socket:type2:current": "32",
    "socket:type2:output": "7.4kW",
    "socket:type2:voltage": "230",
    "id": "node/8308386371"
  },
  "geometry": {
    "type": "Point",
    "coordinates": [
      -8.1883442,
      41.4524923
    ]
  }
},
{
  "type": "Feature",
  "id": "node/8308407994",
  "properties": {
    "access": "customers",
    "addr:country": "PT",
    "amenity": "charging_station",
    "authentication:membership_card": "yes",
    "authentication:none": "no",
    "capacity": "2",
    "email": "mobilidade-eletrica@edp.pt",
    "fee": "yes",
    "motorcar": "yes",
    "name": "BRG-00036/37 - Hotel Vila Galé Braga",
    "network": "Mobi.E",
    "opening_hours": "24/7",
    "operator": "EDP Comercial",
    "parking:fee": "no",
    "phone": "+351 800 222 222",
    "ref": "BRG-00036;BRG-00037",
    "socket:type2": "2",
    "socket:type2:current": "32",
    "socket:type2:output": "7.4kW",
    "socket:type2:voltage": "230",
    "website": "https://www.mobie.pt/",
    "id": "node/8308407994"
  },
  "geometry": {
    "type": "Point",
    "coordinates": [
      -8.4235465,
      41.548967
    ]
  }
},
{
  "type": "Feature",
  "id": "node/8308420097",
  "properties": {
    "access": "customers",
    "addr:country": "PT",
    "amenity": "charging_station",
    "capacity": "1",
    "name": "Intermarché Marco de Canavezes",
    "network": "none",
    "opening_hours": "Mo-Su 09:00-21:00",
    "operator": "Intermarché Marco de Canavezes",
    "socket:type2": "1",
    "socket:type2:current": "32",
    "socket:type2:output": "7.4kW",
    "socket:type2:voltage": "230",
    "id": "node/8308420097"
  },
  "geometry": {
    "type": "Point",
    "coordinates": [
      -8.151201,
      41.1746748
    ]
  }
},
{
  "type": "Feature",
  "id": "node/8308434317",
  "properties": {
    "access": "customers",
    "addr:country": "PT",
    "amenity": "charging_station",
    "capacity": "1",
    "name": "Hotel Varzinn",
    "network": "none",
    "operator": "Hotel Varzinn",
    "socket:type2": "1",
    "socket:type2:current": "32",
    "socket:type2:output": "7.4kW",
    "socket:type2:voltage": "230",
    "id": "node/8308434317"
  },
  "geometry": {
    "type": "Point",
    "coordinates": [
      -8.7656736,
      41.3961938
    ]
  }
},
{
  "type": "Feature",
  "id": "node/8308453232",
  "properties": {
    "access": "customers",
    "addr:country": "PT",
    "amenity": "charging_station",
    "authentication:membership_card": "yes",
    "authentication:none": "no",
    "capacity": "2",
    "email": "mobilidade-eletrica@edp.pt",
    "fee": "yes",
    "motorcar": "yes",
    "name": "PRT-00028/29 - Hotel Pestana Palácio do Freixo",
    "network": "Mobi.E",
    "opening_hours": "24/7",
    "operator": "EDP Comercial",
    "parking:fee": "no",
    "phone": "+351 800 222 222",
    "ref": "PRT-00028;PRT-00029",
    "socket:type2": "2",
    "socket:type2:current": "32",
    "socket:type2:output": "7.4kW",
    "socket:type2:voltage": "230",
    "website": "https://www.mobie.pt/",
    "id": "node/8308453232"
  },
  "geometry": {
    "type": "Point",
    "coordinates": [
      -8.5746816,
      41.1427349
    ]
  }
},
{
  "type": "Feature",
  "id": "node/8308550593",
  "properties": {
    "access": "customers",
    "addr:country": "PT",
    "amenity": "charging_station",
    "authentication:membership_card": "yes",
    "authentication:none": "no",
    "capacity": "2",
    "email": "mobilidade-eletrica@edp.pt",
    "fee": "yes",
    "motorcar": "yes",
    "name": "PRT-00031/32 - Hotel Vila Galé Porto",
    "network": "Mobi.E",
    "opening_hours": "24/7",
    "operator": "EDP Comercial",
    "parking:fee": "no",
    "phone": "+351 800 222 222",
    "ref": "PRT-00031;PRT-00032",
    "socket:type2": "2",
    "socket:type2:current": "32",
    "socket:type2:output": "7.4kW",
    "socket:type2:voltage": "230",
    "website": "https://www.mobie.pt/",
    "id": "node/8308550593"
  },
  "geometry": {
    "type": "Point",
    "coordinates": [
      -8.5990843,
      41.1510432
    ]
  }
},
{
  "type": "Feature",
  "id": "node/8308568865",
  "properties": {
    "access": "customers",
    "addr:country": "PT",
    "amenity": "charging_station",
    "authentication:membership_card": "yes",
    "authentication:none": "no",
    "capacity": "2",
    "email": "mobilidade-eletrica@edp.pt",
    "fee": "yes",
    "motorcar": "yes",
    "name": "PRT-00033/34 - Hotel Vila Galé Ribeira",
    "network": "Mobi.E",
    "opening_hours": "24/7",
    "operator": "EDP Comercial",
    "parking:fee": "no",
    "phone": "+351 800 222 222",
    "ref": "PRT-00033;PRT-00034",
    "socket:type2": "2",
    "socket:type2:current": "32",
    "socket:type2:output": "7.4kW",
    "socket:type2:voltage": "230",
    "website": "https://www.mobie.pt/",
    "id": "node/8308568865"
  },
  "geometry": {
    "type": "Point",
    "coordinates": [
      -8.629865,
      41.1456621
    ]
  }
},
{
  "type": "Feature",
  "id": "node/8313041198",
  "properties": {
    "access": "customers",
    "addr:country": "PT",
    "amenity": "charging_station",
    "authentication:membership_card": "yes",
    "authentication:none": "no",
    "capacity": "2",
    "email": "mobilidade-eletrica@edp.pt",
    "fee": "yes",
    "motorcar": "yes",
    "name": "GMR-00010/11 - Pousada Mosteiro de Guimarães",
    "network": "Mobi.E",
    "opening_hours": "24/7",
    "operator": "EDP Comercial",
    "parking:fee": "no",
    "phone": "+351 800 222 222",
    "ref": "GMR-00010;GMR-00011",
    "socket:type2": "2",
    "socket:type2:current": "32",
    "socket:type2:output": "7.4kW",
    "socket:type2:voltage": "230",
    "website": "https://www.mobie.pt/",
    "id": "node/8313041198"
  },
  "geometry": {
    "type": "Point",
    "coordinates": [
      -8.2768022,
      41.4432974
    ]
  }
},
{
  "type": "Feature",
  "id": "node/8334414021",
  "properties": {
    "access": "customers",
    "addr:country": "PT",
    "amenity": "charging_station",
    "authentication:membership_card": "yes",
    "authentication:none": "no",
    "capacity": "2",
    "email": "mobilidade.electricacrc@galp.com",
    "fee": "yes",
    "motorcar": "yes",
    "name": "VNG-00036 - Makro",
    "network": "Mobi.E",
    "opening_hours": "Mo-Su 09:00-20:00",
    "operator": "Galp Power",
    "parking:fee": "no",
    "phone": "+351 800 249 249",
    "ref": "VNG-00036",
    "socket:type2": "2",
    "socket:type2:current": "32",
    "socket:type2:output": "7.4kW",
    "socket:type2:voltage": "230",
    "website": "https://www.mobie.pt/",
    "id": "node/8334414021"
  },
  "geometry": {
    "type": "Point",
    "coordinates": [
      -8.6257589,
      41.1204738
    ]
  }
},
{
  "type": "Feature",
  "id": "node/8392042536",
  "properties": {
    "access": "private",
    "addr:city": "Lisboa",
    "addr:country": "PT",
    "addr:street": "Rua Pedro Nunes",
    "amenity": "charging_station",
    "authentication:membership_card": "yes",
    "authentication:none": "no",
    "capacity": "2",
    "email": "apoio.cliente@kmlowcost.com",
    "fee": "yes",
    "motorcar": "yes",
    "name": "LSB-1526/27 - Parkio",
    "network": "Mobi.E",
    "opening_hours": "24/7",
    "operator": "KLC",
    "parking:fee": "no",
    "phone": "+351 800 296 929",
    "ref": "LSB-01526;LSB-01527",
    "socket:chademo": "1",
    "socket:chademo:current": "120",
    "socket:chademo:output": "50kW",
    "socket:chademo:voltage": "500",
    "socket:type2": "1",
    "socket:type2:current": "32",
    "socket:type2:output": "7.4kW",
    "socket:type2:voltage": "230",
    "socket:type2_combo": "1",
    "socket:type2_combo:current": "125",
    "socket:type2_combo:output": "50kW",
    "socket:type2_combo:voltage": "500",
    "id": "node/8392042536"
  },
  "geometry": {
    "type": "Point",
    "coordinates": [
      -9.1481003,
      38.7327636
    ]
  }
},
{
  "type": "Feature",
  "id": "node/8398390435",
  "properties": {
    "access": "customers",
    "addr:country": "PT",
    "amenity": "charging_station",
    "authentication:membership_card": "yes",
    "authentication:none": "no",
    "capacity": "2",
    "email": "electric@prioenergy.com",
    "fee": "yes",
    "motorcar": "yes",
    "name": "FAR-00018 - Caetano Baviera",
    "network": "Mobi.E",
    "operator": "Prio.E",
    "parking:fee": "no",
    "phone": "+351 800 450 111",
    "ref": "FAR-00018",
    "socket:type2": "2",
    "socket:type2:current": "32",
    "socket:type2:output": "7.4kW",
    "socket:type2:voltage": "230",
    "website": "https://www.mobie.pt/",
    "id": "node/8398390435"
  },
  "geometry": {
    "type": "Point",
    "coordinates": [
      -7.9476079,
      37.0294069
    ]
  }
},
{
  "type": "Feature",
  "id": "node/8406002021",
  "properties": {
    "access": "customers",
    "addr:country": "PT",
    "amenity": "charging_station",
    "authentication:membership_card": "yes",
    "authentication:none": "no",
    "capacity": "2",
    "email": "mobilidade-eletrica@edp.pt",
    "fee": "yes",
    "motorcar": "yes",
    "name": "CSC-00043/44 - Vila Galé",
    "network": "Mobi.E",
    "opening_hours": "24/7",
    "operator": "EDP Comercial",
    "parking:fee": "no",
    "phone": "+351 800 222 222",
    "ref": "CSC-00043;CSC-00044",
    "socket:type2": "2",
    "socket:type2:current": "32",
    "socket:type2:output": "7.4kW",
    "socket:type2:voltage": "230",
    "website": "https://www.mobie.pt/",
    "id": "node/8406002021"
  },
  "geometry": {
    "type": "Point",
    "coordinates": [
      -9.4228792,
      38.6913687
    ]
  }
},
{
  "type": "Feature",
  "id": "node/8406046106",
  "properties": {
    "access": "customers",
    "addr:country": "PT",
    "amenity": "charging_station",
    "authentication:membership_card": "yes",
    "authentication:none": "no",
    "capacity": "2",
    "email": "mobilidade-eletrica@edp.pt",
    "fee": "yes",
    "motorcar": "yes",
    "name": "LSB-00159/160 - Hotel Pestana Vintage Lisboa",
    "network": "Mobi.E",
    "opening_hours": "24/7",
    "operator": "EDP Comercial",
    "parking:fee": "no",
    "phone": "+351 800 222 222",
    "ref": "LSB-00159;LSB-00160",
    "socket:type2": "2",
    "socket:type2:current": "32",
    "socket:type2:output": "7.4kW",
    "socket:type2:voltage": "230",
    "website": "https://www.mobie.pt/",
    "id": "node/8406046106"
  },
  "geometry": {
    "type": "Point",
    "coordinates": [
      -9.1509602,
      38.7231441
    ]
  }
},
{
  "type": "Feature",
  "id": "node/8406077283",
  "properties": {
    "access": "customers",
    "addr:country": "PT",
    "amenity": "charging_station",
    "authentication:membership_card": "yes",
    "authentication:none": "no",
    "capacity": "2",
    "email": "mobilidade-eletrica@edp.pt",
    "fee": "yes",
    "motorcar": "yes",
    "name": "SNT-00023/27 - Pestana Sintra",
    "network": "Mobi.E",
    "opening_hours": "24/7",
    "operator": "EDP Comercial",
    "parking:fee": "no",
    "phone": "+351 800 222 222",
    "ref": "SNT-00023;SNT-00027",
    "socket:type2": "2",
    "socket:type2:current": "32",
    "socket:type2:output": "7.4kW",
    "socket:type2:voltage": "230",
    "website": "https://www.mobie.pt/",
    "id": "node/8406077283"
  },
  "geometry": {
    "type": "Point",
    "coordinates": [
      -9.3670745,
      38.7628809
    ]
  }
},
{
  "type": "Feature",
  "id": "node/8406091939",
  "properties": {
    "access": "customers",
    "addr:country": "PT",
    "amenity": "charging_station",
    "authentication:membership_card": "yes",
    "authentication:none": "no",
    "capacity": "2",
    "email": "mobilidade-eletrica@edp.pt",
    "fee": "yes",
    "motorcar": "yes",
    "name": "VIS-00004/5 - Pousada Viseu",
    "network": "Mobi.E",
    "opening_hours": "24/7",
    "operator": "EDP Comercial",
    "parking:fee": "no",
    "phone": "+351 800 222 222",
    "ref": "VIS-00004;VIS-00005",
    "socket:type2": "2",
    "socket:type2:current": "32",
    "socket:type2:output": "7.4kW",
    "socket:type2:voltage": "230",
    "website": "https://www.mobie.pt/",
    "id": "node/8406091939"
  },
  "geometry": {
    "type": "Point",
    "coordinates": [
      -7.9123959,
      40.6546162
    ]
  }
},
{
  "type": "Feature",
  "id": "node/8410085564",
  "properties": {
    "access": "private",
    "addr:country": "PT",
    "amenity": "charging_station",
    "authentication:membership_card": "yes",
    "authentication:none": "no",
    "capacity": "3",
    "email": "apoio.cliente@kmlowcost.com",
    "fee": "yes",
    "motorcar": "yes",
    "name": "INE-00001/2/3",
    "network": "Mobi.E",
    "opening_hours": "24/7",
    "operator": "KLC",
    "parking:fee": "no",
    "phone": "+351 800 296 929",
    "ref": "INE-00001;INE-00002;INE-00003",
    "socket:type2": "3",
    "socket:type2:current": "32",
    "socket:type2:output": "7.4kW",
    "socket:type2:voltage": "230",
    "website": "https://www.mobie.pt/",
    "id": "node/8410085564"
  },
  "geometry": {
    "type": "Point",
    "coordinates": [
      -9.1373822,
      38.7384273
    ]
  }
},
{
  "type": "Feature",
  "id": "node/8410092764",
  "properties": {
    "access": "private",
    "addr:country": "PT",
    "amenity": "charging_station",
    "authentication:membership_card": "yes",
    "authentication:none": "no",
    "capacity": "2",
    "email": "apoio.cliente@kmlowcost.com",
    "fee": "yes",
    "motorcar": "yes",
    "name": "IGF-00001",
    "network": "Mobi.E",
    "opening_hours": "24/7",
    "operator": "KLC",
    "parking:fee": "no",
    "phone": "+351 800 296 929",
    "ref": "IGF-00001",
    "socket:type2": "2",
    "socket:type2:current": "32",
    "socket:type2:output": "7.4kW",
    "socket:type2:voltage": "230",
    "website": "https://www.mobie.pt/",
    "id": "node/8410092764"
  },
  "geometry": {
    "type": "Point",
    "coordinates": [
      -9.1311119,
      38.7222961
    ]
  }
},
{
  "type": "Feature",
  "id": "node/8435052810",
  "properties": {
    "access": "customers",
    "addr:country": "PT",
    "amenity": "charging_station",
    "authentication:membership_card": "yes",
    "authentication:none": "no",
    "capacity": "4",
    "email": "mobilidade.electricacrc@galp.com",
    "fee": "yes",
    "motorcar": "yes",
    "name": "SNT-00029/35 - Hospital CUF",
    "network": "Mobi.E",
    "opening_hours": "24/7",
    "operator": "Galp Power",
    "parking:fee": "no",
    "phone": "+351 800 249 249",
    "ref": "SNT-00029;SNT-00035",
    "socket:type2": "4",
    "socket:type2:current": "32",
    "socket:type2:output": "7.4kW",
    "socket:type2:voltage": "230",
    "website": "https://www.mobie.pt/",
    "id": "node/8435052810"
  },
  "geometry": {
    "type": "Point",
    "coordinates": [
      -9.3532571,
      38.7810318
    ]
  }
},
{
  "type": "Feature",
  "id": "node/8441004459",
  "properties": {
    "access": "customers",
    "addr:country": "PT",
    "amenity": "charging_station",
    "authentication:membership_card": "yes",
    "authentication:none": "no",
    "capacity": "2",
    "email": "mobilidade-eletrica@edp.pt",
    "fee": "yes",
    "motorcar": "yes",
    "name": "VFC-00003/4 - Pestana Bahia Praia",
    "network": "Mobi.E",
    "opening_hours": "24/7",
    "operator": "EDP Comercial",
    "parking:fee": "no",
    "phone": "+351 800 222 222",
    "ref": "VFC-00003;VFC-00004",
    "socket:type2": "2",
    "socket:type2:current": "32",
    "socket:type2:output": "7.4kW",
    "socket:type2:voltage": "230",
    "website": "https://www.mobie.pt/",
    "id": "node/8441004459"
  },
  "geometry": {
    "type": "Point",
    "coordinates": [
      -25.4690606,
      37.7148428
    ]
  }
},
{
  "type": "Feature",
  "id": "node/8460493196",
  "properties": {
    "access": "private",
    "addr:country": "PT",
    "amenity": "charging_station",
    "authentication:membership_card": "yes",
    "authentication:none": "no",
    "capacity": "3",
    "email": "electric@prioenergy.com",
    "fee": "yes",
    "motorcar": "yes",
    "name": "AMD-00004/5/6 - APA",
    "network": "Mobi.E",
    "opening_hours": "24/7",
    "operator": "Prio.E",
    "parking:fee": "no",
    "phone": "+351 800 450 111",
    "ref": "AMD-00004;AMD-00005;AMD-00006",
    "socket:type2": "3",
    "socket:type2:current": "32",
    "socket:type2:output": "7.2kW",
    "socket:type2:voltage": "230",
    "website": "https://www.mobie.pt/",
    "id": "node/8460493196"
  },
  "geometry": {
    "type": "Point",
    "coordinates": [
      -9.2068024,
      38.7382452
    ]
  }
},
{
  "type": "Feature",
  "id": "node/8460926799",
  "properties": {
    "access": "private",
    "addr:country": "PT",
    "amenity": "charging_station",
    "authentication:membership_card": "yes",
    "authentication:none": "no",
    "capacity": "6",
    "email": "suporte@mobiletric.com",
    "fee": "yes",
    "motorcar": "yes",
    "name": "AMD-00008/9/10 - Alfrapark",
    "network": "Mobi.E",
    "opening_hours": "24/7",
    "operator": "Mobiletric",
    "parking:fee": "no",
    "phone": "+351 800 210 204",
    "ref": "AMD-00008;AMD-00009;AMD-00010",
    "socket:type2": "6",
    "socket:type2:current": "32",
    "socket:type2:output": "7.4kW",
    "socket:type2:voltage": "230",
    "website": "https://www.mobie.pt/",
    "id": "node/8460926799"
  },
  "geometry": {
    "type": "Point",
    "coordinates": [
      -9.2243353,
      38.7342281
    ]
  }
},
{
  "type": "Feature",
  "id": "node/8460993134",
  "properties": {
    "access": "private",
    "addr:country": "PT",
    "amenity": "charging_station",
    "authentication:membership_card": "yes",
    "authentication:none": "no",
    "capacity": "1",
    "email": "electric@prioenergy.com",
    "fee": "yes",
    "motorcar": "yes",
    "name": "AMD-00007",
    "network": "Mobi.E",
    "opening_hours": "24/7",
    "operator": "Prio.E",
    "parking:fee": "no",
    "phone": "+351 800 450 111",
    "ref": "AMD-00007",
    "socket:type2": "2",
    "socket:type2:current": "32",
    "socket:type2:output": "7.2kW",
    "socket:type2:voltage": "230",
    "website": "https://www.mobie.pt/",
    "id": "node/8460993134"
  },
  "geometry": {
    "type": "Point",
    "coordinates": [
      -9.215882,
      38.737185
    ]
  }
},
{
  "type": "Feature",
  "id": "node/8461027279",
  "properties": {
    "access": "private",
    "addr:country": "PT",
    "amenity": "charging_station",
    "authentication:membership_card": "yes",
    "authentication:none": "no",
    "capacity": "2",
    "email": "electric@prioenergy.com",
    "fee": "yes",
    "motorcar": "yes",
    "name": "AVR-00017 - Prio.E",
    "network": "Mobi.E",
    "opening_hours": "24/7",
    "operator": "Prio.E",
    "parking:fee": "no",
    "phone": "+351 800 450 111",
    "ref": "AVR-00017",
    "socket:type2": "2",
    "socket:type2:current": "16",
    "socket:type2:output": "3.7kW",
    "socket:type2:voltage": "230",
    "website": "https://www.mobie.pt/",
    "id": "node/8461027279"
  },
  "geometry": {
    "type": "Point",
    "coordinates": [
      -8.703177,
      40.653844
    ]
  }
},
{
  "type": "Feature",
  "id": "node/8461358776",
  "properties": {
    "access": "private",
    "addr:country": "PT",
    "amenity": "charging_station",
    "authentication:membership_card": "yes",
    "authentication:none": "no",
    "capacity": "1",
    "email": "electric@prioenergy.com",
    "fee": "yes",
    "motorcar": "yes",
    "name": "CBR-00022",
    "network": "Mobi.E",
    "opening_hours": "24/7",
    "operator": "Prio.E",
    "parking:fee": "no",
    "phone": "+351 800 450 111",
    "ref": "CBR-00022",
    "socket:type2": "1",
    "socket:type2:current": "32",
    "socket:type2:output": "7.2kW",
    "socket:type2:voltage": "230",
    "website": "https://www.mobie.pt/",
    "id": "node/8461358776"
  },
  "geometry": {
    "type": "Point",
    "coordinates": [
      -8.4064813,
      40.1926759
    ]
  }
},
{
  "type": "Feature",
  "id": "node/8461365462",
  "properties": {
    "access": "private",
    "addr:country": "PT",
    "amenity": "charging_station",
    "authentication:membership_card": "yes",
    "authentication:none": "no",
    "capacity": "2",
    "email": "electric@prioenergy.com",
    "fee": "yes",
    "motorcar": "yes",
    "name": "CBR-00023/24",
    "network": "Mobi.E",
    "opening_hours": "24/7",
    "operator": "Prio.E",
    "parking:fee": "no",
    "phone": "+351 800 450 111",
    "ref": "CBR-00023;CBR-00024",
    "socket:type2": "2",
    "socket:type2:current": "32",
    "socket:type2:output": "7.2kW",
    "socket:type2:voltage": "230",
    "website": "https://www.mobie.pt/",
    "id": "node/8461365462"
  },
  "geometry": {
    "type": "Point",
    "coordinates": [
      -8.408647,
      40.208849
    ]
  }
},
{
  "type": "Feature",
  "id": "node/8461610962",
  "properties": {
    "access": "private",
    "addr:country": "PT",
    "amenity": "charging_station",
    "authentication:membership_card": "yes",
    "authentication:none": "no",
    "capacity": "1",
    "email": "electric@prioenergy.com",
    "fee": "yes",
    "motorcar": "yes",
    "name": "EVR-00010",
    "network": "Mobi.E",
    "opening_hours": "24/7",
    "operator": "Prio.E",
    "parking:fee": "no",
    "phone": "+351 800 450 111",
    "ref": "EVR-00010",
    "socket:type2": "1",
    "socket:type2:current": "32",
    "socket:type2:output": "7.2kW",
    "socket:type2:voltage": "230",
    "website": "https://www.mobie.pt/",
    "id": "node/8461610962"
  },
  "geometry": {
    "type": "Point",
    "coordinates": [
      -7.9092181,
      38.5511834
    ]
  }
},
{
  "type": "Feature",
  "id": "node/8461999959",
  "properties": {
    "access": "private",
    "addr:country": "PT",
    "amenity": "charging_station",
    "authentication:membership_card": "yes",
    "authentication:none": "no",
    "capacity": "1",
    "email": "electric@prioenergy.com",
    "fee": "yes",
    "motorcar": "yes",
    "name": "LSB-01513",
    "network": "Mobi.E",
    "opening_hours": "24/7",
    "operator": "Prio.E",
    "parking:fee": "no",
    "phone": "+351 800 450 111",
    "ref": "LSB-01513",
    "socket:type2": "1",
    "socket:type2:current": "32",
    "socket:type2:output": "7.2kW",
    "socket:type2:voltage": "230",
    "website": "https://www.mobie.pt/",
    "id": "node/8461999959"
  },
  "geometry": {
    "type": "Point",
    "coordinates": [
      -9.148978,
      38.743585
    ]
  }
},
{
  "type": "Feature",
  "id": "node/8461999960",
  "properties": {
    "access": "private",
    "addr:country": "PT",
    "amenity": "charging_station",
    "authentication:membership_card": "yes",
    "authentication:none": "no",
    "capacity": "2",
    "email": "electric@prioenergy.com",
    "fee": "yes",
    "motorcar": "yes",
    "name": "LSB-01511/12",
    "network": "Mobi.E",
    "opening_hours": "24/7",
    "operator": "Prio.E",
    "parking:fee": "no",
    "phone": "+351 800 450 111",
    "ref": "LSB-01511;LSB-01512",
    "socket:type2": "2",
    "socket:type2:current": "32",
    "socket:type2:output": "7.2kW",
    "socket:type2:voltage": "230",
    "website": "https://www.mobie.pt/",
    "id": "node/8461999960"
  },
  "geometry": {
    "type": "Point",
    "coordinates": [
      -9.162163,
      38.71605
    ]
  }
},
{
  "type": "Feature",
  "id": "node/8462022954",
  "properties": {
    "access": "private",
    "addr:country": "PT",
    "amenity": "charging_station",
    "authentication:membership_card": "yes",
    "authentication:none": "no",
    "capacity": "2",
    "email": "electric@prioenergy.com",
    "fee": "yes",
    "motorcar": "yes",
    "name": "LSB-01518/19",
    "network": "Mobi.E",
    "opening_hours": "24/7",
    "operator": "Prio.E",
    "parking:fee": "no",
    "phone": "+351 800 450 111",
    "ref": "LSB-01518;LSB-01519",
    "socket:type2": "2",
    "socket:type2:current": "32",
    "socket:type2:output": "7.4kW",
    "socket:type2:voltage": "230",
    "website": "https://www.mobie.pt/",
    "id": "node/8462022954"
  },
  "geometry": {
    "type": "Point",
    "coordinates": [
      -9.158269,
      38.725961
    ]
  }
},
{
  "type": "Feature",
  "id": "node/8462022955",
  "properties": {
    "access": "private",
    "addr:country": "PT",
    "amenity": "charging_station",
    "authentication:membership_card": "yes",
    "authentication:none": "no",
    "capacity": "1",
    "email": "electric@prioenergy.com",
    "fee": "yes",
    "motorcar": "yes",
    "name": "LSB-01516",
    "network": "Mobi.E",
    "opening_hours": "24/7",
    "operator": "Prio.E",
    "parking:fee": "no",
    "phone": "+351 800 450 111",
    "ref": "LSB-01516",
    "socket:type2": "1",
    "socket:type2:current": "32",
    "socket:type2:output": "7.2kW",
    "socket:type2:voltage": "230",
    "website": "https://www.mobie.pt/",
    "id": "node/8462022955"
  },
  "geometry": {
    "type": "Point",
    "coordinates": [
      -9.1602017,
      38.737752
    ]
  }
},
{
  "type": "Feature",
  "id": "node/8462084210",
  "properties": {
    "access": "private",
    "addr:country": "PT",
    "amenity": "charging_station",
    "authentication:membership_card": "yes",
    "authentication:none": "no",
    "capacity": "3",
    "email": "electric@prioenergy.com",
    "fee": "yes",
    "motorcar": "yes",
    "name": "LSB-01520/21/22",
    "network": "Mobi.E",
    "opening_hours": "24/7",
    "operator": "Prio.E",
    "parking:fee": "no",
    "phone": "+351 800 450 111",
    "ref": "LSB-01520;LSB-01521;LSB-01522",
    "socket:type2": "3",
    "socket:type2:current": "32",
    "socket:type2:output": "7.4kW",
    "socket:type2:voltage": "230",
    "website": "https://www.mobie.pt/",
    "id": "node/8462084210"
  },
  "geometry": {
    "type": "Point",
    "coordinates": [
      -9.147527,
      38.712088
    ]
  }
},
{
  "type": "Feature",
  "id": "node/8480294435",
  "properties": {
    "access": "private",
    "addr:country": "PT",
    "amenity": "charging_station",
    "authentication:membership_card": "yes",
    "authentication:none": "no",
    "capacity": "1",
    "email": "electric@prioenergy.com",
    "fee": "yes",
    "motorcar": "yes",
    "name": "OBD-00004",
    "network": "Mobi.E",
    "opening_hours": "24/7",
    "operator": "Prio.E",
    "parking:fee": "no",
    "phone": "+351 800 450 111",
    "ref": "OBD-00004",
    "socket:type2": "1",
    "socket:type2:current": "16",
    "socket:type2:output": "3.7kW",
    "socket:type2:voltage": "230",
    "website": "https://www.mobie.pt/",
    "id": "node/8480294435"
  },
  "geometry": {
    "type": "Point",
    "coordinates": [
      -9.1572487,
      39.3606866
    ]
  }
},
{
  "type": "Feature",
  "id": "node/8489965576",
  "properties": {
    "access": "customers",
    "addr:country": "PT",
    "amenity": "charging_station",
    "authentication:membership_card": "yes",
    "authentication:none": "no",
    "capacity": "2",
    "email": "mobilidade-eletrica@edp.pt",
    "fee": "yes",
    "motorcar": "yes",
    "name": "BJA-00010/11 - Pousada Convento de São Francisco",
    "network": "Mobi.E",
    "opening_hours": "24/7",
    "operator": "EDP Comercial",
    "parking:fee": "no",
    "phone": "+351 800 222 222",
    "ref": "BJA-00010;BJA-00011",
    "socket:type2": "2",
    "socket:type2:current": "32",
    "socket:type2:output": "7.4kW",
    "socket:type2:voltage": "230",
    "website": "https://www.mobie.pt/",
    "id": "node/8489965576"
  },
  "geometry": {
    "type": "Point",
    "coordinates": [
      -7.860734,
      38.012752
    ]
  }
},
{
  "type": "Feature",
  "id": "node/8558518833",
  "properties": {
    "access": "customers",
    "addr:country": "PT",
    "amenity": "charging_station",
    "authentication:membership_card": "yes",
    "authentication:none": "no",
    "capacity": "2",
    "email": "mobilidade-eletrica@edp.pt",
    "fee": "yes",
    "name": "GDM-00007/8 - Pestana Douro Hotel",
    "network": "Mobi.E",
    "opening_hours": "24/7",
    "operator": "EDP Comercial",
    "parking:fee": "no",
    "phone": "+351 800 222 222",
    "ref": "GDM-00007;GDM-00008",
    "socket:type2": "2",
    "socket:type2:current": "32",
    "socket:type2:output": "7.4kW",
    "socket:type2:voltage": "230",
    "website": "https://www.mobie.pt/",
    "id": "node/8558518833"
  },
  "geometry": {
    "type": "Point",
    "coordinates": [
      -8.5735465,
      41.1418787
    ]
  }
},
{
  "type": "Feature",
  "id": "node/8693796208",
  "properties": {
    "access": "customers",
    "addr:country": "PT",
    "amenity": "charging_station",
    "capacity": "2",
    "name": "Hotel Nova Cruz",
    "network": "none",
    "operator": "Hotel Nova Cruz",
    "socket:type2": "2",
    "socket:type2:current": "32",
    "socket:type2:output": "7.4kW",
    "socket:type2:voltage": "230",
    "id": "node/8693796208"
  },
  "geometry": {
    "type": "Point",
    "coordinates": [
      -8.5604337,
      40.9256255
    ]
  }
},
{
  "type": "Feature",
  "id": "node/8693944209",
  "properties": {
    "access": "customers",
    "addr:country": "PT",
    "amenity": "charging_station",
    "authentication:membership_card": "yes",
    "authentication:none": "no",
    "capacity": "2",
    "fee": "yes",
    "name": "CBR-00018 - Leitão do Aires",
    "network": "Mobi.E",
    "opening_hours": "24/7",
    "operator": "Logical Gravity",
    "parking:fee": "no",
    "ref": "CBR-00018",
    "socket:type2": "2",
    "socket:type2:current": "32",
    "socket:type2:output": "7.4kW",
    "socket:type2:voltage": "230",
    "website": "https://www.mobie.pt/",
    "id": "node/8693944209"
  },
  "geometry": {
    "type": "Point",
    "coordinates": [
      -8.3209231,
      40.3032172
    ]
  }
},
{
  "type": "Feature",
  "id": "node/8710878294",
  "properties": {
    "access": "customers",
    "addr:city": "Ovar",
    "addr:country": "PT",
    "addr:street": "Rua Família Colares Pinto",
    "amenity": "charging_station",
    "authentication:membership_card": "yes",
    "authentication:none": "no",
    "capacity": "2",
    "fee": "yes",
    "name": "OVR-00011/12 - Restaurante Oxalá",
    "network": "Mobi.E",
    "opening_hours": "24/7",
    "operator": "Iberdrola",
    "parking:fee": "no",
    "ref": "OVR-00011;OVR-00012",
    "socket:chademo": "1",
    "socket:chademo:current": "120",
    "socket:chademo:output": "50kW",
    "socket:chademo:voltage": "500",
    "socket:type2": "1",
    "socket:type2:current": "32",
    "socket:type2:output": "7.4kW",
    "socket:type2:voltage": "230",
    "socket:type2_combo": "1",
    "socket:type2_combo:current": "125",
    "socket:type2_combo:output": "50kW",
    "socket:type2_combo:voltage": "500",
    "website": "https://www.mobie.pt/",
    "id": "node/8710878294"
  },
  "geometry": {
    "type": "Point",
    "coordinates": [
      -8.6591442,
      40.8597338
    ]
  }
},
{
  "type": "Feature",
  "id": "node/8781101652",
  "properties": {
    "access": "private",
    "addr:country": "PT",
    "amenity": "charging_station",
    "authentication:membership_card": "yes",
    "authentication:none": "no",
    "capacity": "2",
    "email": "mobilidade.electricacrc@galp.com",
    "fee": "yes",
    "name": "LSB-00336 - Aeroporto Terminal de Carga Aérea",
    "network": "Mobi.E",
    "opening_hours": "24/7",
    "operator": "Galp Power",
    "parking:fee": "no",
    "phone": "+351 800 249 249",
    "ref": "LSB-00336",
    "socket:type2": "2",
    "socket:type2:current": "16",
    "socket:type2:output": "3.7kW",
    "socket:type2:voltage": "230",
    "website": "https://www.mobie.pt/",
    "id": "node/8781101652"
  },
  "geometry": {
    "type": "Point",
    "coordinates": [
      -9.143836,
      38.772766
    ]
  }
},
{
  "type": "Feature",
  "id": "node/8781101653",
  "properties": {
    "access": "customers",
    "addr:country": "PT",
    "amenity": "charging_station",
    "authentication:membership_card": "yes",
    "authentication:none": "no",
    "capacity": "4",
    "email": "mobilidade.electricacrc@galp.com",
    "fee": "yes",
    "name": "LSB-00345/346 - Aeroporto Parque P4",
    "network": "Mobi.E",
    "opening_hours": "24/7",
    "operator": "Galp Power",
    "parking:fee": "no",
    "phone": "+351 800 249 249",
    "ref": "LSB-00345;LSB-00346",
    "socket:type2": "4",
    "socket:type2:current": "16",
    "socket:type2:output": "3.7kW",
    "socket:type2:voltage": "230",
    "website": "https://www.mobie.pt/",
    "id": "node/8781101653"
  },
  "geometry": {
    "type": "Point",
    "coordinates": [
      -9.126403,
      38.767469
    ]
  }
},
{
  "type": "Feature",
  "id": "node/8836883440",
  "properties": {
    "access": "customers",
    "addr:country": "PT",
    "amenity": "charging_station",
    "capacity": "1",
    "name": "Restaurante Praia Azul",
    "network": "none",
    "operator": "Restaurante Praia Azul",
    "socket:type2": "1",
    "socket:type2:current": "32",
    "socket:type2:output": "7.4kW",
    "socket:type2:voltage": "230",
    "id": "node/8836883440"
  },
  "geometry": {
    "type": "Point",
    "coordinates": [
      -9.39311,
      39.11204
    ]
  }
},
{
  "type": "Feature",
  "id": "node/8888392020",
  "properties": {
    "access": "customers",
    "addr:country": "PT",
    "amenity": "charging_station",
    "authentication:membership_card": "yes",
    "authentication:none": "no",
    "capacity": "2",
    "email": "ajuda@powerdot.pt",
    "fee": "yes",
    "motorcar": "yes",
    "name": "LSB-00209",
    "network": "Mobi.E",
    "opening_hours": "24/7",
    "operator": "Powerdot",
    "parking:fee": "yes",
    "phone": "+351 800 180 292",
    "ref": "LSB-00209",
    "socket:type2": "2",
    "socket:type2:current": "32",
    "socket:type2:output": "7.4kW",
    "socket:type2:voltage": "230",
    "website": "https://www.mobie.pt/",
    "id": "node/8888392020"
  },
  "geometry": {
    "type": "Point",
    "coordinates": [
      -9.1594154,
      38.7207985
    ]
  }
},
{
  "type": "Feature",
  "id": "node/8908343322",
  "properties": {
    "access": "private",
    "addr:country": "PT",
    "amenity": "charging_station",
    "authentication:membership_card": "yes",
    "authentication:none": "no",
    "capacity": "2",
    "email": "mobilidade.electricacrc@galp.com",
    "fee": "yes",
    "name": "LSB-00337 - Aeroporto Terminal de Carga Aérea",
    "network": "Mobi.E",
    "opening_hours": "24/7",
    "operator": "Galp Power",
    "parking:fee": "no",
    "phone": "+351 800 249 249",
    "ref": "LSB-00337",
    "socket:type2": "2",
    "socket:type2:current": "16",
    "socket:type2:output": "3.7kW",
    "socket:type2:voltage": "230",
    "website": "https://www.mobie.pt/",
    "id": "node/8908343322"
  },
  "geometry": {
    "type": "Point",
    "coordinates": [
      -9.146584,
      38.768365
    ]
  }
}
]
}
