{
  "version": 0.6,
  "generator": "Overpass API 0.7.56.9 76e5016d",
  "osm3s": {
    "copyright": "The data included in this document is from www.openstreetmap.org. The data is made available under ODbL."
  },
  "elements": [

{
  "type": "node",
  "id": 7133557515,
  "lat": 37.0946707,
  "lon": -8.1774625,
  "tags": {
    "access": "permissive",
    "addr:city": "Aldeia das Açoteias",
    "addr:country": "PT",
    "addr:street": "Estrada das Açoteias",
    "amenity": "charging_station",
    "authentication:membership_card": "yes",
    "authentication:none": "no",
    "capacity": "2",
    "fee": "yes",
    "motorcar": "yes",
    "name": "ABF-00003",
    "network": "Mobi.E",
    "opening_hours": "24/7",
    "operator": "Mobi.E",
    "parking:fee": "no",
    "ref": "ABF-00003",
    "socket:type2": "2",
    "socket:type2:current": "16",
    "socket:type2:output": "11kW",
    "socket:type2:voltage": "400",
    "website": "https://www.mobie.pt/"
  }
},
{
  "type": "node",
  "id": 7563719576,
  "lat": 37.0959193,
  "lon": -8.1773311,
  "tags": {
    "access": "private",
    "addr:city": "Aldeia das Açoteias",
    "addr:country": "PT",
    "addr:street": "Estrada das Açoteias",
    "amenity": "charging_station",
    "authentication:membership_card": "yes",
    "authentication:none": "no",
    "capacity": "2",
    "fee": "yes",
    "motorcar": "yes",
    "name": "ABF-00004",
    "network": "Mobi.E",
    "opening_hours": "24/7",
    "operator": "Mobi.E",
    "parking:fee": "no",
    "ref": "ABF-00004",
    "socket:type2": "2",
    "socket:type2:output": "11kW",
    "website": "https://www.mobie.pt/"
  }
},
{
  "type": "node",
  "id": 7785698988,
  "lat": 40.2951973,
  "lon": -7.6713656,
  "tags": {
    "access": "customers",
    "amenity": "charging_station",
    "capacity": "0",
    "name": "Alvoco da Serra",
    "network": "none",
    "operator": "Serra da Estrela",
    "socket:type2": "1",
    "socket:type2:current": "16",
    "socket:type2:output": "11kW",
    "socket:type2:voltage": "400"
  }
},
{
  "type": "node",
  "id": 8089522316,
  "lat": 39.3959932,
  "lon": -9.1347409,
  "tags": {
    "access": "permissive",
    "addr:country": "PT",
    "amenity": "charging_station",
    "authentication:membership_card": "yes",
    "authentication:none": "no",
    "capacity": "2",
    "email": "electric@prioenergy.com",
    "fee": "yes",
    "motorcar": "yes",
    "name": "CLD-00007",
    "network": "Mobi.E",
    "opening_hours": "Mo-Fr 09:00-18:00",
    "operator": "Prio.E",
    "parking:fee": "no",
    "phone": "+351 800 450 111",
    "ref": "CLD-00007",
    "socket:type2": "2",
    "socket:type2:current": "32",
    "socket:type2:output": "22kW",
    "socket:type2:voltage": "400",
    "website": "https://www.mobie.pt/"
  }
},
{
  "type": "node",
  "id": 8104906836,
  "lat": 38.7852512,
  "lon": -9.0997561,
  "tags": {
    "access": "customers",
    "addr:country": "PT",
    "amenity": "charging_station",
    "authentication:membership_card": "yes",
    "authentication:none": "no",
    "capacity": "2",
    "email": "mobilidade.electricacrc@galp.com",
    "fee": "yes",
    "motorcar": "yes",
    "name": "LSB-00052 - Expofor",
    "network": "Mobi.E",
    "opening_hours": "24/7",
    "operator": "Galp Power",
    "parking:fee": "no",
    "phone": "+351 800 249 249",
    "ref": "LSB-00052",
    "socket:type2": "2",
    "socket:type2:current": "32",
    "socket:type2:output": "22kW",
    "socket:type2:voltage": "400",
    "website": "https://www.mobie.pt/"
  }
},
{
  "type": "node",
  "id": 8109646968,
  "lat": 40.5411916,
  "lon": -7.2847000,
  "tags": {
    "access": "permissive",
    "addr:country": "PT",
    "amenity": "charging_station",
    "authentication:membership_card": "yes",
    "authentication:none": "no",
    "capacity": "2",
    "email": "suporte@emobtec.pt",
    "fee": "yes",
    "motorcar": "yes",
    "name": "GRD-00006 - Instituto Politécnico da Guarda",
    "network": "Mobi.E",
    "opening_hours": "Mo-Fr 09:00-17:00",
    "operator": "Emobtec",
    "parking:fee": "no",
    "phone": "+351 800 500 216",
    "ref": "GRD-00006",
    "socket:type2": "2",
    "socket:type2:current": "32",
    "socket:type2:output": "22kW",
    "socket:type2:voltage": "400",
    "website": "https://www.mobie.pt/"
  }
},
{
  "type": "node",
  "id": 8113094743,
  "lat": 41.4066547,
  "lon": -8.5140315,
  "tags": {
    "access": "customers",
    "addr:country": "PT",
    "amenity": "charging_station",
    "authentication:membership_card": "yes",
    "authentication:none": "no",
    "capacity": "2",
    "email": "suporte@evpower.pt",
    "fee": "yes",
    "motorcar": "yes",
    "name": "CESPU-00004",
    "network": "Mobi.E",
    "opening_hours": "24/7",
    "operator": "EV Power",
    "parking:fee": "no",
    "phone": "+351 210 152 562",
    "ref": "CESPU-00004",
    "socket:type2": "2",
    "socket:type2:current": "32",
    "socket:type2:output": "22kW",
    "socket:type2:voltage": "400",
    "website": "https://www.mobie.pt/"
  }
},
{
  "type": "node",
  "id": 8113094744,
  "lat": 41.4067130,
  "lon": -8.5140248,
  "tags": {
    "access": "customers",
    "addr:country": "PT",
    "amenity": "charging_station",
    "authentication:membership_card": "yes",
    "authentication:none": "no",
    "capacity": "2",
    "email": "suporte@evpower.pt",
    "fee": "yes",
    "motorcar": "yes",
    "name": "CESPU-00003",
    "network": "Mobi.E",
    "opening_hours": "24/7",
    "operator": "EV Power",
    "parking:fee": "no",
    "phone": "+351 210 152 562",
    "ref": "CESPU-00003",
    "socket:type2": "2",
    "socket:type2:current": "32",
    "socket:type2:output": "22kW",
    "socket:type2:voltage": "400",
    "website": "https://www.mobie.pt/"
  }
},
{
  "type": "node",
  "id": 8116408192,
  "lat": 37.1017049,
  "lon": -8.0000900,
  "tags": {
    "access": "customers",
    "addr:city": "Caliços",
    "addr:country": "PT",
    "addr:housenumber": "2",
    "addr:postcode": "8100-299 Loulé",
    "addr:street": "Leroy Merlin, Avenida Algarve",
    "amenity": "charging_station",
    "authentication:membership_card": "yes",
    "authentication:none": "no",
    "capacity": "4",
    "email": "geral@bluecharge.pt",
    "fee": "yes",
    "location": "underground",
    "motorcar": "yes",
    "name": "LLE-00041/42",
    "network": "Mobi.E",
    "opening_hours": "Mo-Su 09:00-21:00",
    "operator": "Bluecharge",
    "parking:fee": "no",
    "phone": "+351 914 537 278",
    "ref": "LLE-00041;LLE-00042",
    "socket:type2": "4",
    "socket:type2:current": "16",
    "socket:type2:output": "11kW",
    "socket:type2:voltage": "400",
    "website": "https://www.mobie.pt/"
  }
},
{
  "type": "node",
  "id": 8116444244,
  "lat": 38.7256086,
  "lon": -9.2154090,
  "tags": {
    "access": "customers",
    "addr:country": "PT",
    "amenity": "charging_station",
    "authentication:membership_card": "yes",
    "authentication:none": "no",
    "capacity": "4",
    "email": "geral@bluecharge.pt",
    "fee": "yes",
    "motorcar": "yes",
    "name": "OER-00026/27 - Leroy Merlin",
    "network": "Mobi.E",
    "opening_hours": "24/7",
    "operator": "Bluecharge",
    "parking:fee": "no",
    "phone": "+351 914 537 278",
    "ref": "OER-00026;OER-00027",
    "socket:type2": "4",
    "socket:type2:current": "16",
    "socket:type2:output": "11kW",
    "socket:type2:voltage": "400",
    "website": "https://www.mobie.pt/"
  }
},
{
  "type": "node",
  "id": 8116475846,
  "lat": 41.1205021,
  "lon": -8.6257066,
  "tags": {
    "access": "customers",
    "addr:country": "PT",
    "amenity": "charging_station",
    "authentication:membership_card": "yes",
    "authentication:none": "no",
    "capacity": "4",
    "email": "mobilidade.electricacrc@galp.com",
    "fee": "yes",
    "motorcar": "yes",
    "name": "VNG-00037/38 - Makro",
    "network": "Mobi.E",
    "opening_hours": "Mo-Su 09:00-20:00",
    "operator": "Galp Power",
    "parking:fee": "no",
    "phone": "+351 800 249 249",
    "ref": "VNG-00037;VNG-00038",
    "socket:type2": "4",
    "socket:type2:current": "32",
    "socket:type2:output": "22kW",
    "socket:type2:voltage": "400",
    "website": "https://www.mobie.pt/"
  }
},
{
  "type": "node",
  "id": 8155634978,
  "lat": 40.1921105,
  "lon": -8.4129967,
  "tags": {
    "access": "private",
    "addr:city": "Coimbra",
    "addr:country": "PT",
    "amenity": "charging_station",
    "authentication:membership_card": "yes",
    "authentication:none": "no",
    "capacity": "2",
    "email": "apoio.cliente@kmlowcost.com",
    "fee": "yes",
    "motorcar": "yes",
    "name": "CBR-00028",
    "network": "Mobi.E",
    "opening_hours": "24/7",
    "operator": "KLC",
    "parking:fee": "no",
    "phone": "+351 800 296 929",
    "ref": "CBR-00028",
    "socket:type2": "2",
    "socket:type2:current": "32",
    "socket:type2:output": "22kW",
    "socket:type2:voltage": "400",
    "website": "https://www.mobie.pt/"
  }
},
{
  "type": "node",
  "id": 8155668797,
  "lat": 40.2048616,
  "lon": -8.4537220,
  "tags": {
    "access": "permissive",
    "addr:city": "Coimbra",
    "addr:country": "PT",
    "amenity": "charging_station",
    "authentication:membership_card": "yes",
    "authentication:none": "no",
    "capacity": "2",
    "email": "apoio.cliente@kmlowcost.com",
    "fee": "yes",
    "motorcar": "yes",
    "name": "CBR-00029",
    "network": "Mobi.E",
    "opening_hours": "Mo-Fr 09:00-17:00",
    "operator": "KLC",
    "parking:fee": "no",
    "phone": "+351 800 296 929",
    "ref": "CBR-00029",
    "socket:type2": "2",
    "socket:type2:current": "32",
    "socket:type2:output": "22kW",
    "socket:type2:voltage": "400",
    "website": "https://www.mobie.pt/"
  }
},
{
  "type": "node",
  "id": 8155678964,
  "lat": 40.1983932,
  "lon": -8.4609452,
  "tags": {
    "access": "permissive",
    "addr:city": "Coimbra",
    "addr:country": "PT",
    "amenity": "charging_station",
    "authentication:membership_card": "yes",
    "authentication:none": "no",
    "capacity": "2",
    "email": "apoio.cliente@kmlowcost.com",
    "fee": "yes",
    "motorcar": "yes",
    "name": "CBR-00031",
    "network": "Mobi.E",
    "opening_hours": "Mo-Fr 09:00-17:00",
    "operator": "KLC",
    "parking:fee": "no",
    "phone": "+351 800 296 929",
    "ref": "CBR-00031",
    "socket:type2": "2",
    "socket:type2:current": "32",
    "socket:type2:output": "22kW",
    "socket:type2:voltage": "400",
    "website": "https://www.mobie.pt/"
  }
},
{
  "type": "node",
  "id": 8155693771,
  "lat": 40.2117177,
  "lon": -8.4537649,
  "tags": {
    "access": "permissive",
    "addr:city": "Coimbra",
    "addr:country": "PT",
    "amenity": "charging_station",
    "authentication:membership_card": "yes",
    "authentication:none": "no",
    "capacity": "2",
    "email": "apoio.cliente@kmlowcost.com",
    "fee": "yes",
    "motorcar": "yes",
    "name": "CBR-00026",
    "network": "Mobi.E",
    "opening_hours": "Mo-Fr 09:00-17:00",
    "operator": "KLC",
    "parking:fee": "no",
    "phone": "+351 800 296 929",
    "ref": "CBR-00026",
    "socket:type2": "2",
    "socket:type2:current": "32",
    "socket:type2:output": "22kW",
    "socket:type2:voltage": "400",
    "website": "https://www.mobie.pt/"
  }
},
{
  "type": "node",
  "id": 8155693772,
  "lat": 40.2100944,
  "lon": -8.4532164,
  "tags": {
    "access": "permissive",
    "addr:city": "Coimbra",
    "addr:country": "PT",
    "amenity": "charging_station",
    "authentication:membership_card": "yes",
    "authentication:none": "no",
    "capacity": "2",
    "email": "apoio.cliente@kmlowcost.com",
    "fee": "yes",
    "motorcar": "yes",
    "name": "CBR-00027",
    "network": "Mobi.E",
    "opening_hours": "Mo-Fr 09:00-17:00",
    "operator": "KLC",
    "parking:fee": "no",
    "phone": "+351 800 296 929",
    "ref": "CBR-00027",
    "socket:type2": "2",
    "socket:type2:current": "32",
    "socket:type2:output": "22kW",
    "socket:type2:voltage": "400",
    "website": "https://www.mobie.pt/"
  }
},
{
  "type": "node",
  "id": 8238712864,
  "lat": 37.8376044,
  "lon": -7.9668286,
  "tags": {
    "access": "customers",
    "addr:country": "PT",
    "amenity": "charging_station",
    "capacity": "1",
    "name": "Herdade da Malhadinha Nova",
    "network": "none",
    "operator": "Herdade da Malhadinha Nova",
    "socket:type2": "2",
    "socket:type2:current": "32",
    "socket:type2:output": "22kW",
    "socket:type2:voltage": "400"
  }
},
{
  "type": "node",
  "id": 8255574845,
  "lat": 39.9239453,
  "lon": -8.4367141,
  "tags": {
    "access": "private",
    "addr:country": "PT",
    "amenity": "charging_station",
    "capacity": "1",
    "name": "Ramalho & Mendes Lda.",
    "network": "none",
    "operator": "Ramalho & Mendes Lda.",
    "socket:type2": "1",
    "socket:type2:current": "16",
    "socket:type2:output": "11kW",
    "socket:type2:voltage": "400"
  }
},
{
  "type": "node",
  "id": 8255633446,
  "lat": 40.9505436,
  "lon": -8.5136399,
  "tags": {
    "access": "customers",
    "addr:country": "PT",
    "amenity": "charging_station",
    "capacity": "2",
    "name": "Hotel Feira Pedra Bela",
    "network": "none",
    "operator": "Hotel Feira Pedra Bela",
    "socket:type2": "2",
    "socket:type2:current": "32",
    "socket:type2:output": "22kW",
    "socket:type2:voltage": "400"
  }
},
{
  "type": "node",
  "id": 8255636046,
  "lat": 40.8538206,
  "lon": -7.5121406,
  "tags": {
    "access": "customers",
    "addr:country": "PT",
    "amenity": "charging_station",
    "capacity": "1",
    "name": "Hotel Rural Quinta de Santo Estêvão",
    "network": "none",
    "operator": "Hotel Rural Quinta de Santo Estêvão",
    "socket:type2": "1",
    "socket:type2:current": "32",
    "socket:type2:output": "22kW",
    "socket:type2:voltage": "400"
  }
},
{
  "type": "node",
  "id": 8262666665,
  "lat": 37.1969501,
  "lon": -8.5680404,
  "tags": {
    "access": "customers",
    "addr:country": "PT",
    "amenity": "charging_station",
    "capacity": "1",
    "name": "Nau Morgado Golf Hotel",
    "network": "none",
    "operator": "Nau Morgado Golf Hotel",
    "socket:type2": "1",
    "socket:type2:current": "16",
    "socket:type2:output": "11kW",
    "socket:type2:voltage": "400"
  }
},
{
  "type": "node",
  "id": 8269975156,
  "lat": 37.0916648,
  "lon": -8.2050947,
  "tags": {
    "access": "customers",
    "addr:country": "PT",
    "amenity": "charging_station",
    "authentication:membership_card": "yes",
    "authentication:none": "no",
    "capacity": "2",
    "fee": "yes",
    "motorcar": "yes",
    "name": "ABF-00011",
    "network": "Mobi.E",
    "opening_hours": "24/7",
    "operator": "Bluecharge",
    "parking:fee": "no",
    "ref": "ABF-00011",
    "socket:type2": "2",
    "socket:type2:current": "32",
    "socket:type2:output": "22kW",
    "socket:type2:voltage": "400",
    "start_date": "2021-03-21",
    "website": "https://www.mobie.pt/"
  }
},
{
  "type": "node",
  "id": 8269980883,
  "lat": 37.0934341,
  "lon": -8.2327040,
  "tags": {
    "access": "private",
    "addr:country": "PT",
    "amenity": "charging_station",
    "capacity": "1",
    "name": "Ourabay Hotel",
    "network": "none",
    "operator": "Ourabay Hotel",
    "socket:type2": "1",
    "socket:type2:current": "32",
    "socket:type2:output": "22kW",
    "socket:type2:voltage": "400"
  }
},
{
  "type": "node",
  "id": 8270014602,
  "lat": 37.1315841,
  "lon": -8.2991168,
  "tags": {
    "access": "customers",
    "addr:country": "PT",
    "amenity": "charging_station",
    "capacity": "2",
    "fee": "no",
    "name": "O Teodósio",
    "network": "none",
    "opening_hours": "Mo-Su 12:00-21:30",
    "operator": "O Teodósio",
    "socket:type2": "2",
    "socket:type2:current": "32",
    "socket:type2:output": "22kW",
    "socket:type2:voltage": "400"
  }
},
{
  "type": "node",
  "id": 8270017091,
  "lat": 37.0947841,
  "lon": -8.3199200,
  "tags": {
    "access": "customers",
    "addr:country": "PT",
    "amenity": "charging_station",
    "capacity": "1",
    "name": "Hotel Nau Salgados Palm Village",
    "network": "none",
    "operator": "Hotel Nau Salgados Palm Village",
    "socket:type2": "1",
    "socket:type2:current": "32",
    "socket:type2:output": "22kW",
    "socket:type2:voltage": "400"
  }
},
{
  "type": "node",
  "id": 8270046347,
  "lat": 37.1681718,
  "lon": -8.4270930,
  "tags": {
    "access": "customers",
    "addr:country": "PT",
    "amenity": "charging_station",
    "authentication:membership_card": "yes",
    "authentication:none": "no",
    "capacity": "2",
    "fee": "yes",
    "motorcar": "yes",
    "name": "SLV-00005 - Pestana Golf Resort",
    "network": "Mobi.E",
    "opening_hours": "24/7",
    "operator": "Veimonte",
    "parking:fee": "no",
    "ref": "SLV-00005",
    "socket:type2": "2",
    "socket:type2:current": "32",
    "socket:type2:output": "22kW",
    "socket:type2:voltage": "400",
    "website": "https://www.mobie.pt/"
  }
},
{
  "type": "node",
  "id": 8270166839,
  "lat": 37.1325934,
  "lon": -8.4779102,
  "tags": {
    "access": "customers",
    "addr:country": "PT",
    "amenity": "charging_station",
    "authentication:membership_card": "yes",
    "authentication:none": "no",
    "capacity": "2",
    "fee": "yes",
    "motorcar": "yes",
    "name": "LGA-00006 - Pestana Golf Resort Vale da Pinta",
    "network": "Mobi.E",
    "opening_hours": "24/7",
    "operator": "Veimonte",
    "parking:fee": "no",
    "ref": "LGA-00006",
    "socket:type2": "2",
    "socket:type2:current": "32",
    "socket:type2:output": "22kW",
    "socket:type2:voltage": "400",
    "website": "https://www.mobie.pt/"
  }
},
{
  "type": "node",
  "id": 8270194487,
  "lat": 37.1250853,
  "lon": -8.4878960,
  "tags": {
    "access": "customers",
    "addr:country": "PT",
    "amenity": "charging_station",
    "authentication:membership_card": "yes",
    "authentication:none": "no",
    "capacity": "2",
    "fee": "yes",
    "motorcar": "yes",
    "name": "LGA-00005 - Pestana Golf Resort Gramacho",
    "network": "Mobi.E",
    "opening_hours": "24/7",
    "operator": "Veimonte",
    "parking:fee": "no",
    "ref": "LGA-00005",
    "socket:type2": "2",
    "socket:type2:current": "32",
    "socket:type2:output": "22kW",
    "socket:type2:voltage": "400",
    "website": "https://www.mobie.pt/"
  }
},
{
  "type": "node",
  "id": 8270308912,
  "lat": 32.6464492,
  "lon": -16.8256494,
  "tags": {
    "access": "customers",
    "addr:country": "PT",
    "amenity": "charging_station",
    "authentication:membership_card": "yes",
    "authentication:none": "no",
    "capacity": "2",
    "email": "suporte@mobiletric.com",
    "fee": "yes",
    "motorcar": "yes",
    "name": "SCR-00006 - Four Views Oasis",
    "network": "Mobi.E",
    "opening_hours": "24/7",
    "operator": "Mobiletric",
    "parking:fee": "no",
    "phone": "+351 800 210 204",
    "ref": "SCR-00006",
    "socket:type2": "2",
    "socket:type2:current": "16",
    "socket:type2:output": "11kW",
    "socket:type2:voltage": "400",
    "website": "https://www.mobie.pt/"
  }
},
{
  "type": "node",
  "id": 8270361501,
  "lat": 37.7515965,
  "lon": -25.6558509,
  "tags": {
    "access": "customers",
    "addr:country": "PT",
    "amenity": "charging_station",
    "capacity": "1",
    "fee": "yes",
    "motorcar": "yes",
    "name": "Nissan Auto Elgê",
    "network": "Nissan",
    "opening_hours": "24/7",
    "operator": "Nissan",
    "parking:fee": "no",
    "socket:chademo": "1",
    "socket:chademo:current": "110",
    "socket:chademo:output": "44kW",
    "socket:chademo:voltage": "500",
    "socket:type2": "1",
    "socket:type2:current": "32",
    "socket:type2:output": "22kW",
    "socket:type2:voltage": "400"
  }
},
{
  "type": "node",
  "id": 8270470890,
  "lat": 37.7782326,
  "lon": -8.7899101,
  "tags": {
    "access": "customers",
    "addr:country": "PT",
    "amenity": "charging_station",
    "capacity": "2",
    "fee": "yes",
    "name": "Orbitur Sitava Camping",
    "network": "none",
    "opening_hours": "24/7",
    "operator": "Orbitur",
    "parking:fee": "no",
    "socket:type2": "2",
    "socket:type2:current": "32",
    "socket:type2:output": "22kW",
    "socket:type2:voltage": "400"
  }
},
{
  "type": "node",
  "id": 8275081880,
  "lat": 38.5276112,
  "lon": -8.0176055,
  "tags": {
    "access": "private",
    "addr:country": "PT",
    "amenity": "charging_station",
    "authentication:membership_card": "yes",
    "authentication:none": "no",
    "capacity": "2",
    "email": "suporte@evpower.pt",
    "fee": "yes",
    "motorcar": "yes",
    "name": "UEVORA-00002",
    "network": "Mobi.E",
    "opening_hours": "24/7",
    "operator": "EV Power",
    "parking:fee": "no",
    "phone": "+351 210 152 562",
    "ref": "UEVORA-00002",
    "socket:type2": "2",
    "socket:type2:current": "16",
    "socket:type2:output": "11kW",
    "socket:type2:voltage": "400",
    "website": "https://www.mobie.pt/"
  }
},
{
  "type": "node",
  "id": 8275202544,
  "lat": 38.5786702,
  "lon": -7.9048924,
  "tags": {
    "access": "private",
    "addr:country": "PT",
    "amenity": "charging_station",
    "authentication:membership_card": "yes",
    "authentication:none": "no",
    "capacity": "2",
    "email": "suporte@evpower.pt",
    "fee": "yes",
    "motorcar": "yes",
    "name": "UEVORA-00001",
    "network": "Mobi.E",
    "opening_hours": "24/7",
    "operator": "EV Power",
    "parking:fee": "no",
    "phone": "+351 210 152 562",
    "ref": "UEVORA-00001",
    "socket:type2": "2",
    "socket:type2:current": "16",
    "socket:type2:output": "11kW",
    "socket:type2:voltage": "400",
    "website": "https://www.mobie.pt/"
  }
},
{
  "type": "node",
  "id": 8275229538,
  "lat": 38.6330685,
  "lon": -9.1450560,
  "tags": {
    "access": "customers",
    "addr:country": "PT",
    "amenity": "charging_station",
    "capacity": "12",
    "name": "Recheio",
    "network": "none",
    "opening_hours": "Mo-Fr 07:00-18:30; Sa 07:00-18:00; Su 08:00-13:00",
    "operator": "Recheio",
    "socket:type2": "12",
    "socket:type2:current": "16",
    "socket:type2:output": "11kW",
    "socket:type2:voltage": "400"
  }
},
{
  "type": "node",
  "id": 8275285774,
  "lat": 38.6461007,
  "lon": -9.1679312,
  "tags": {
    "access": "customers",
    "addr:country": "PT",
    "amenity": "charging_station",
    "capacity": "2",
    "fee": "yes",
    "name": "Sadiauto",
    "network": "none",
    "opening_hours": "Mo-Fr 09:00-18:00",
    "operator": "Sadiauto",
    "socket:type2": "2",
    "socket:type2:current": "16",
    "socket:type2:output": "11kW",
    "socket:type2:voltage": "400"
  }
},
{
  "type": "node",
  "id": 8275596349,
  "lat": 37.0253384,
  "lon": -7.8949937,
  "tags": {
    "access": "customers",
    "addr:country": "PT",
    "amenity": "charging_station",
    "capacity": "2",
    "motorcar": "yes",
    "name": "Entreposto Renault",
    "network": "Renault",
    "operator": "Renault",
    "socket:type2": "2",
    "socket:type2:current": "32",
    "socket:type2:output": "22kW",
    "socket:type2:voltage": "400"
  }
},
{
  "type": "node",
  "id": 8279646490,
  "lat": 38.4634571,
  "lon": -8.8674085,
  "tags": {
    "access": "customers",
    "addr:country": "PT",
    "amenity": "charging_station",
    "capacity": "2",
    "name": "Pestana Troia Eco-Resort & Residences",
    "network": "none",
    "operator": "Pestana Troia Eco-Resort & Residences",
    "socket:type2": "2",
    "socket:type2:current": "32",
    "socket:type2:output": "22kW",
    "socket:type2:voltage": "400"
  }
},
{
  "type": "node",
  "id": 8279649961,
  "lat": 38.5219654,
  "lon": -8.8390844,
  "tags": {
    "access": "private",
    "addr:country": "PT",
    "amenity": "charging_station",
    "authentication:membership_card": "yes",
    "authentication:none": "no",
    "capacity": "2",
    "email": "apoio.cliente@kmlowcost.com",
    "fee": "yes",
    "motorcar": "yes",
    "name": "IPS-00001 - Campus do IPS - Estefanilha",
    "network": "Mobi.E",
    "opening_hours": "24/7",
    "operator": "KLC",
    "parking:fee": "no",
    "phone": "+351 800 296 929",
    "ref": "IPS-00001",
    "socket:type2": "2",
    "socket:type2:current": "32",
    "socket:type2:output": "22kW",
    "socket:type2:voltage": "400",
    "website": "https://www.mobie.pt/"
  }
},
{
  "type": "node",
  "id": 8279649962,
  "lat": 38.5224848,
  "lon": -8.8390414,
  "tags": {
    "access": "private",
    "addr:country": "PT",
    "amenity": "charging_station",
    "authentication:membership_card": "yes",
    "authentication:none": "no",
    "capacity": "2",
    "email": "apoio.cliente@kmlowcost.com",
    "fee": "yes",
    "motorcar": "yes",
    "name": "IPS-00002 - Campus do IPS - Estefanilha",
    "network": "Mobi.E",
    "opening_hours": "24/7",
    "operator": "KLC",
    "parking:fee": "no",
    "phone": "+351 800 296 929",
    "ref": "IPS-00002",
    "socket:type2": "2",
    "socket:type2:current": "32",
    "socket:type2:output": "22kW",
    "socket:type2:voltage": "400",
    "website": "https://www.mobie.pt/"
  }
},
{
  "type": "node",
  "id": 8279677299,
  "lat": 38.6624696,
  "lon": -9.2057940,
  "tags": {
    "access": "private",
    "addr:country": "PT",
    "amenity": "charging_station",
    "authentication:membership_card": "yes",
    "authentication:none": "no",
    "capacity": "4",
    "email": "suporte@mobiletric.com",
    "fee": "yes",
    "motorcar": "yes",
    "name": "FCT-00003/4",
    "network": "Mobi.E",
    "opening_hours": "24/7",
    "operator": "Mobiletric",
    "parking:fee": "no",
    "phone": "+351 800 210 204",
    "ref": "FCT-00003;FCT-00004",
    "socket:type2": "2",
    "socket:type2:current": "32",
    "socket:type2:output": "22kW",
    "socket:type2:voltage": "400",
    "website": "https://www.mobie.pt/"
  }
},
{
  "type": "node",
  "id": 8279724371,
  "lat": 38.5649787,
  "lon": -7.8981534,
  "tags": {
    "access": "customers",
    "addr:country": "PT",
    "amenity": "charging_station",
    "capacity": "1",
    "name": "Hospedaria d'El Rei",
    "network": "none",
    "operator": "Hospedaria d'El Rei",
    "socket:type2": "1",
    "socket:type2:current": "32",
    "socket:type2:output": "22kW",
    "socket:type2:voltage": "400"
  }
},
{
  "type": "node",
  "id": 8280518909,
  "lat": 38.8805049,
  "lon": -7.1670999,
  "tags": {
    "access": "customers",
    "addr:country": "PT",
    "amenity": "charging_station",
    "authentication:membership_card": "yes",
    "authentication:none": "no",
    "capacity": "2",
    "email": "mobilidade-eletrica@edp.pt",
    "fee": "yes",
    "motorcar": "yes",
    "name": "ELV-00002/3 - Hotel VIla Galé Collection",
    "network": "Mobi.E",
    "opening_hours": "24/7",
    "operator": "EDP Comercial",
    "parking:fee": "no",
    "phone": "+351 800 222 222",
    "ref": "ELV-00002;ELV-00003",
    "socket:type2": "2",
    "socket:type2:current": "32",
    "socket:type2:output": "22kW",
    "socket:type2:voltage": "400",
    "website": "https://www.mobie.pt/"
  }
},
{
  "type": "node",
  "id": 8280625577,
  "lat": 38.8679655,
  "lon": -9.1077290,
  "tags": {
    "access": "customers",
    "addr:country": "PT",
    "amenity": "charging_station",
    "authentication:membership_card": "yes",
    "authentication:none": "no",
    "capacity": "2",
    "email": "ajuda@powerdot.pt",
    "fee": "yes",
    "motorcar": "yes",
    "name": "LRS-00046",
    "network": "Mobi.E",
    "opening_hours": "24/7",
    "operator": "Powerdot",
    "parking:fee": "yes",
    "phone": "+351 800 180 292",
    "ref": "LRS-00046",
    "socket:type2": "2",
    "socket:type2:current": "32",
    "socket:type2:output": "22kW",
    "socket:type2:voltage": "400",
    "website": "https://www.mobie.pt/"
  }
},
{
  "type": "node",
  "id": 8280712204,
  "lat": 39.1398895,
  "lon": -8.8038093,
  "tags": {
    "access": "customers",
    "addr:country": "PT",
    "amenity": "charging_station",
    "capacity": "2",
    "fee": "no",
    "name": "Casa das Peles",
    "network": "none",
    "operator": "Casa das Peles",
    "parking:fee": "no",
    "socket:type2": "2",
    "socket:type2:current": "32",
    "socket:type2:output": "22kW",
    "socket:type2:voltage": "400"
  }
},
{
  "type": "node",
  "id": 8280757514,
  "lat": 39.2607438,
  "lon": -8.7109244,
  "tags": {
    "access": "customers",
    "addr:country": "PT",
    "amenity": "charging_station",
    "capacity": "1",
    "motorcar": "yes",
    "name": "Renault Roques Vale do Tejo",
    "network": "Renault",
    "operator": "Renault",
    "socket:type2": "1",
    "socket:type2:current": "32",
    "socket:type2:output": "22kW",
    "socket:type2:voltage": "400"
  }
},
{
  "type": "node",
  "id": 8280784217,
  "lat": 39.2696059,
  "lon": -7.4418580,
  "tags": {
    "access": "customers",
    "addr:country": "PT",
    "amenity": "charging_station",
    "authentication:membership_card": "yes",
    "authentication:none": "no",
    "capacity": "2",
    "email": "suporte@evpower.pt",
    "fee": "yes",
    "motorcar": "yes",
    "name": "PTG-00006",
    "network": "Mobi.E",
    "opening_hours": "24/7",
    "operator": "EV Power",
    "parking:fee": "no",
    "phone": "+351 210 152 562",
    "ref": "PTG-00006",
    "socket:type2": "2",
    "socket:type2:current": "16",
    "socket:type2:output": "11kW",
    "socket:type2:voltage": "400",
    "website": "https://www.mobie.pt/"
  }
},
{
  "type": "node",
  "id": 8280870169,
  "lat": 39.3918673,
  "lon": -9.1305144,
  "tags": {
    "access": "customers",
    "addr:country": "PT",
    "amenity": "charging_station",
    "capacity": "1",
    "motorcar": "yes",
    "name": "Nissan Auto Júlio",
    "network": "Nissan",
    "operator": "Auto Júlio",
    "parking:fee": "no",
    "socket:type2": "1",
    "socket:type2:current": "32",
    "socket:type2:output": "22kW",
    "socket:type2:voltage": "400"
  }
},
{
  "type": "node",
  "id": 8280884329,
  "lat": 39.3746613,
  "lon": -9.1399705,
  "tags": {
    "access": "customers",
    "addr:country": "PT",
    "amenity": "charging_station",
    "authentication:membership_card": "yes",
    "authentication:none": "no",
    "capacity": "16",
    "fee": "no",
    "name": "Recheio Óbidos",
    "network": "none",
    "operator": "Recheio Óbidos",
    "parking:fee": "no",
    "socket:type2": "16",
    "socket:type2:current": "32",
    "socket:type2:output": "22kW",
    "socket:type2:voltage": "400",
    "website": "https://www.mobie.pt/"
  }
},
{
  "type": "node",
  "id": 8283808791,
  "lat": 39.5692481,
  "lon": -9.0022244,
  "tags": {
    "access": "customers",
    "addr:country": "PT",
    "amenity": "charging_station",
    "capacity": "1",
    "name": "Your Hotel & Spa",
    "network": "none",
    "operator": "Your Hotel & Spa",
    "socket:type2": "1",
    "socket:type2:current": "32",
    "socket:type2:output": "22kW",
    "socket:type2:voltage": "400"
  }
},
{
  "type": "node",
  "id": 8283834256,
  "lat": 39.6683453,
  "lon": -8.8349766,
  "tags": {
    "access": "private",
    "addr:country": "PT",
    "amenity": "charging_station",
    "capacity": "2",
    "name": "Novas Tecnologias Auto",
    "network": "none",
    "operator": "Novas Tecnologias Auto",
    "socket:type2": "2",
    "socket:type2:current": "32",
    "socket:type2:output": "22kW",
    "socket:type2:voltage": "400"
  }
},
{
  "type": "node",
  "id": 8283975482,
  "lat": 39.7159889,
  "lon": -8.8302183,
  "tags": {
    "access": "private",
    "addr:country": "PT",
    "amenity": "charging_station",
    "capacity": "2",
    "motorcar": "yes",
    "name": "Centro Porsche Leiria",
    "network": "Porsche",
    "operator": "Porsche",
    "socket:type2": "1",
    "socket:type2:current": "32",
    "socket:type2:output": "22kW",
    "socket:type2:voltage": "400",
    "socket:type2_combo": "1",
    "socket:type2_combo:current": "125",
    "socket:type2_combo:output": "50kW",
    "socket:type2_combo:voltage": "500"
  }
},
{
  "type": "node",
  "id": 8284917412,
  "lat": 39.7627357,
  "lon": -8.7882578,
  "tags": {
    "access": "private",
    "addr:country": "PT",
    "amenity": "charging_station",
    "capacity": "2",
    "name": "MCoutinho",
    "network": "none",
    "operator": "MCoutinho",
    "socket:type2": "2",
    "socket:type2:current": "32",
    "socket:type2:output": "22kW",
    "socket:type2:voltage": "400"
  }
},
{
  "type": "node",
  "id": 8284944414,
  "lat": 39.8103863,
  "lon": -7.5087717,
  "tags": {
    "access": "customers",
    "addr:country": "PT",
    "amenity": "charging_station",
    "authentication:membership_card": "yes",
    "authentication:none": "no",
    "capacity": "2",
    "fee": "yes",
    "motorcar": "yes",
    "name": "CTB-00008",
    "network": "Mobi.E",
    "opening_hours": "Mo-Fr 09:00-18:00",
    "operator": "ENAT",
    "parking:fee": "no",
    "ref": "CTB-00008",
    "socket:type2": "2",
    "socket:type2:current": "32",
    "socket:type2:output": "22kW",
    "socket:type2:voltage": "400",
    "website": "https://www.mobie.pt/"
  }
},
{
  "type": "node",
  "id": 8285004918,
  "lat": 39.9119006,
  "lon": -8.6324148,
  "tags": {
    "access": "customers",
    "addr:country": "PT",
    "amenity": "charging_station",
    "capacity": "1",
    "motorcar": "yes",
    "name": "Renault Silva & Santos",
    "network": "Renault",
    "operator": "Renault",
    "socket:type2": "1",
    "socket:type2:current": "32",
    "socket:type2:output": "22kW",
    "socket:type2:voltage": "400"
  }
},
{
  "type": "node",
  "id": 8285018508,
  "lat": 40.2050737,
  "lon": -8.4059398,
  "tags": {
    "access": "private",
    "addr:country": "PT",
    "amenity": "charging_station",
    "authentication:membership_card": "yes",
    "authentication:none": "no",
    "capacity": "2",
    "email": "apoio.cliente@kmlowcost.com",
    "fee": "yes",
    "motorcar": "yes",
    "name": "CBR-00030",
    "network": "Mobi.E",
    "opening_hours": "24/7",
    "operator": "KLC",
    "parking:fee": "no",
    "phone": "+351 800 296 929",
    "ref": "CBR-00030",
    "socket:type2": "2",
    "socket:type2:current": "32",
    "socket:type2:output": "22kW",
    "socket:type2:voltage": "400",
    "website": "https://www.mobie.pt/"
  }
},
{
  "type": "node",
  "id": 8285024989,
  "lat": 40.0937823,
  "lon": -8.1964217,
  "tags": {
    "access": "customers",
    "addr:country": "PT",
    "amenity": "charging_station",
    "authentication:membership_card": "yes",
    "authentication:none": "no",
    "capacity": "2",
    "motorcar": "yes",
    "name": "LSA-00003 - Aldeias de Xisto",
    "network": "Mobi.E",
    "opening_hours": "24/7",
    "operator": "True-Kare",
    "parking:fee": "no",
    "ref": "LSA-00003",
    "socket:type2": "2",
    "socket:type2:current": "16",
    "socket:type2:output": "11kW",
    "socket:type2:voltage": "400"
  }
},
{
  "type": "node",
  "id": 8285086803,
  "lat": 40.2325120,
  "lon": -8.4387030,
  "tags": {
    "access": "customers",
    "addr:country": "PT",
    "amenity": "charging_station",
    "capacity": "2",
    "name": "Sodicentro",
    "network": "none",
    "operator": "Sodicentro",
    "socket:type2": "2",
    "socket:type2:current": "32",
    "socket:type2:output": "22kW",
    "socket:type2:voltage": "400"
  }
},
{
  "type": "node",
  "id": 8286110927,
  "lat": 40.2970680,
  "lon": -8.3375341,
  "tags": {
    "access": "customers",
    "addr:country": "PT",
    "amenity": "charging_station",
    "capacity": "1",
    "name": "Trilhos energéticos",
    "network": "none",
    "operator": "Trilhos Energéticos",
    "socket:type2": "1",
    "socket:type2:current": "16",
    "socket:type2:output": "11kW",
    "socket:type2:voltage": "400"
  }
},
{
  "type": "node",
  "id": 8286131500,
  "lat": 40.3071138,
  "lon": -7.5489137,
  "tags": {
    "access": "customers",
    "addr:country": "PT",
    "amenity": "charging_station",
    "capacity": "1",
    "name": "Luna Hotel Serra da Estrela",
    "network": "none",
    "operator": "Luna Hotel",
    "socket:type2": "1",
    "socket:type2:current": "16",
    "socket:type2:output": "11kW",
    "socket:type2:voltage": "400"
  }
},
{
  "type": "node",
  "id": 8286178835,
  "lat": 40.4045813,
  "lon": -7.6450185,
  "tags": {
    "access": "customers",
    "addr:country": "PT",
    "amenity": "charging_station",
    "capacity": "2",
    "name": "Abrigo da Montanha",
    "network": "none",
    "operator": "Abrigo da Montanha",
    "socket:type2": "2",
    "socket:type2:current": "24",
    "socket:type2:output": "16kW",
    "socket:type2:voltage": "400"
  }
},
{
  "type": "node",
  "id": 8286179569,
  "lat": 40.3836203,
  "lon": -8.4417969,
  "tags": {
    "access": "customers",
    "addr:country": "PT",
    "amenity": "charging_station",
    "authentication:membership_card": "yes",
    "authentication:none": "no",
    "capacity": "2",
    "email": "info@evce.pt",
    "fee": "yes",
    "motorcar": "yes",
    "name": "MLD-00001",
    "network": "Mobi.E",
    "opening_hours": "Mo-Su 12:00-22:00",
    "operator": "EVCE",
    "parking:fee": "no",
    "phone": "+351 253 623 190",
    "ref": "MLD-00001",
    "socket:type2": "2",
    "socket:type2:current": "16",
    "socket:type2:output": "11kW",
    "socket:type2:voltage": "400",
    "website": "https://www.mobie.pt/"
  }
},
{
  "type": "node",
  "id": 8286186881,
  "lat": 40.4293416,
  "lon": -7.7033767,
  "tags": {
    "access": "permissive",
    "addr:country": "PT",
    "amenity": "charging_station",
    "authentication:membership_card": "yes",
    "authentication:none": "no",
    "capacity": "2",
    "email": "suporte@emobtec.pt",
    "fee": "yes",
    "motorcar": "yes",
    "name": "SEI-00002",
    "network": "Mobi.E",
    "opening_hours": "Mo-Fr 09:00-17:00",
    "operator": "Emobtec",
    "parking:fee": "no",
    "phone": "+351 800 500 216",
    "ref": "SEI-00002",
    "socket:type2": "2",
    "socket:type2:current": "32",
    "socket:type2:output": "22kW",
    "socket:type2:voltage": "400",
    "website": "https://www.mobie.pt/"
  }
},
{
  "type": "node",
  "id": 8286241425,
  "lat": 40.6360018,
  "lon": -7.8459173,
  "tags": {
    "access": "customers",
    "addr:country": "PT",
    "amenity": "charging_station",
    "capacity": "1",
    "motorcar": "yes",
    "name": "Renault Litocar",
    "network": "Renault",
    "operator": "Renault",
    "socket:type2": "1",
    "socket:type2:current": "32",
    "socket:type2:output": "22kW",
    "socket:type2:voltage": "400"
  }
},
{
  "type": "node",
  "id": 8286254049,
  "lat": 40.6991902,
  "lon": -8.2513064,
  "tags": {
    "access": "private",
    "addr:country": "PT",
    "amenity": "charging_station",
    "capacity": "1",
    "name": "Bestmeat",
    "network": "none",
    "operator": "Bestmeat",
    "socket:type2": "1",
    "socket:type2:current": "32",
    "socket:type2:output": "22kW",
    "socket:type2:voltage": "400"
  }
},
{
  "type": "node",
  "id": 8286258895,
  "lat": 40.7350413,
  "lon": -8.2465830,
  "tags": {
    "access": "customers",
    "addr:country": "PT",
    "amenity": "charging_station",
    "capacity": "1",
    "name": "Quinta do Cruzeiro",
    "network": "none",
    "operator": "Quinta do Cruzeiro",
    "socket:type2": "1",
    "socket:type2:current": "32",
    "socket:type2:output": "22kW",
    "socket:type2:voltage": "400"
  }
},
{
  "type": "node",
  "id": 8286279885,
  "lat": 40.6045918,
  "lon": -8.7291527,
  "tags": {
    "access": "customers",
    "addr:country": "PT",
    "amenity": "charging_station",
    "capacity": "1",
    "name": "Restaurante O Gafanhoto",
    "network": "none",
    "opening_hours": "Tu-Sa 12:00-15:00,19:00-22:30; Su 12:00-15:00",
    "operator": "Restaurante O Gafanhoto",
    "socket:type2": "1",
    "socket:type2:current": "32",
    "socket:type2:output": "22kW",
    "socket:type2:voltage": "400"
  }
},
{
  "type": "node",
  "id": 8286312420,
  "lat": 40.7414248,
  "lon": -8.3742267,
  "tags": {
    "access": "customers",
    "addr:country": "PT",
    "amenity": "charging_station",
    "capacity": "2",
    "name": "Auto Visto",
    "network": "none",
    "operator": "Auto Visto",
    "socket:type2": "2",
    "socket:type2:current": "16",
    "socket:type2:output": "11kW",
    "socket:type2:voltage": "400"
  }
},
{
  "type": "node",
  "id": 8286394034,
  "lat": 40.6309497,
  "lon": -8.6415759,
  "tags": {
    "access": "customers",
    "addr:country": "PT",
    "amenity": "charging_station",
    "capacity": "1",
    "motorcar": "yes",
    "name": "Renault - Entreposto A.Fontes",
    "network": "Renault",
    "opening_hours": "Mo-Fr 09:00-18:00",
    "operator": "Renault",
    "socket:type2": "1",
    "socket:type2:current": "32",
    "socket:type2:output": "22kW",
    "socket:type2:voltage": "400"
  }
},
{
  "type": "node",
  "id": 8286401543,
  "lat": 40.6575372,
  "lon": -8.6177337,
  "tags": {
    "access": "customers",
    "addr:country": "PT",
    "amenity": "charging_station",
    "capacity": "2",
    "name": "Mercentro - Mercedes Benz Aveiro",
    "network": "none",
    "operator": "Mercentro",
    "socket:type2": "2",
    "socket:type2:current": "32",
    "socket:type2:output": "22kW",
    "socket:type2:voltage": "400"
  }
},
{
  "type": "node",
  "id": 8287604447,
  "lat": 40.9703717,
  "lon": -7.6080081,
  "tags": {
    "access": "customers",
    "addr:country": "PT",
    "amenity": "charging_station",
    "capacity": "1",
    "name": "Minipreço",
    "network": "none",
    "operator": "Minipreço",
    "socket:type2": "1",
    "socket:type2:current": "32",
    "socket:type2:output": "22kW",
    "socket:type2:voltage": "400"
  }
},
{
  "type": "node",
  "id": 8287611580,
  "lat": 40.9199356,
  "lon": -8.5722703,
  "tags": {
    "access": "customers",
    "addr:country": "PT",
    "amenity": "charging_station",
    "capacity": "2",
    "motorcar": "yes",
    "name": "VFR-00001 - Caetano Baviera BMW",
    "network": "Mobi.E",
    "operator": "Prio.E",
    "ref": "VFR-00001",
    "socket:type2": "2",
    "socket:type2:current": "32",
    "socket:type2:output": "22kW",
    "socket:type2:voltage": "400"
  }
},
{
  "type": "node",
  "id": 8287618145,
  "lat": 40.9377483,
  "lon": -7.5291283,
  "tags": {
    "access": "customers",
    "addr:country": "PT",
    "amenity": "charging_station",
    "capacity": "1",
    "name": "Hotel Convento Nossa Senhora do Carmo",
    "network": "none",
    "operator": "Hotel Convento Nossa Senhora do Carmo",
    "socket:type2": "1",
    "socket:type2:current": "32",
    "socket:type2:output": "22kW",
    "socket:type2:voltage": "400"
  }
},
{
  "type": "node",
  "id": 8287631339,
  "lat": 40.9200866,
  "lon": -8.5707508,
  "tags": {
    "access": "private",
    "addr:country": "PT",
    "amenity": "charging_station",
    "capacity": "1",
    "name": "Entreposto A.Fontes",
    "network": "none",
    "operator": "Entreposto",
    "socket:type2": "1",
    "socket:type2:current": "32",
    "socket:type2:output": "22kW",
    "socket:type2:voltage": "400"
  }
},
{
  "type": "node",
  "id": 8287721051,
  "lat": 41.1536010,
  "lon": -7.6445626,
  "tags": {
    "access": "customers",
    "addr:country": "PT",
    "amenity": "charging_station",
    "authentication:membership_card": "yes",
    "authentication:none": "no",
    "capacity": "2",
    "email": "mobilidade-eletrica@edp.pt",
    "fee": "yes",
    "motorcar": "yes",
    "name": "AMM-00002/3 - Quinta do Val Moreira",
    "network": "Mobi.E",
    "opening_hours": "24/7",
    "operator": "EDP Comercial",
    "parking:fee": "no",
    "phone": "+351 800 222 222",
    "ref": "AMM-00002;AMM-00003",
    "socket:type2": "2",
    "socket:type2:current": "32",
    "socket:type2:output": "22kW",
    "socket:type2:voltage": "400",
    "website": "https://www.mobie.pt/"
  }
},
{
  "type": "node",
  "id": 8289331299,
  "lat": 38.5226149,
  "lon": -8.9454085,
  "tags": {
    "access": "customers",
    "addr:country": "PT",
    "amenity": "charging_station",
    "authentication:membership_card": "yes",
    "authentication:none": "no",
    "capacity": "2",
    "fee": "yes",
    "motorcar": "yes",
    "name": "STB-00015 - Hotel Casa Palmela",
    "network": "Mobi.E",
    "opening_hours": "24/7",
    "operator": "Powerdot",
    "parking:fee": "no",
    "ref": "STB-00015",
    "socket:type2": "2",
    "socket:type2:current": "32",
    "socket:type2:output": "22kW",
    "socket:type2:voltage": "400",
    "website": "https://www.mobie.pt/"
  }
},
{
  "type": "node",
  "id": 8289547096,
  "lat": 38.9291780,
  "lon": -9.2461739,
  "tags": {
    "access": "customers",
    "addr:country": "PT",
    "amenity": "charging_station",
    "capacity": "1",
    "name": "Stand Fernandes Auto",
    "network": "none",
    "operator": "Stand Fernandes Auto",
    "socket:type2": "1",
    "socket:type2:current": "32",
    "socket:type2:output": "22kW",
    "socket:type2:voltage": "400"
  }
},
{
  "type": "node",
  "id": 8289944481,
  "lat": 38.7552669,
  "lon": -9.3929548,
  "tags": {
    "access": "customers",
    "addr:country": "PT",
    "amenity": "charging_station",
    "capacity": "1",
    "motorcar": "yes",
    "name": "Centro Porsche Estoril",
    "network": "Porsche",
    "operator": "Porsche",
    "socket:type2": "1",
    "socket:type2:current": "32",
    "socket:type2:output": "22kW",
    "socket:type2:voltage": "400"
  }
},
{
  "type": "node",
  "id": 8294709198,
  "lat": 38.7412783,
  "lon": -9.3020625,
  "tags": {
    "access": "private",
    "addr:country": "PT",
    "amenity": "charging_station",
    "authentication:membership_card": "yes",
    "authentication:none": "no",
    "capacity": "2",
    "email": "apoio.cliente@kmlowcost.com",
    "fee": "yes",
    "motorcar": "yes",
    "name": "OER-00024/25",
    "network": "Mobi.E",
    "opening_hours": "24/7",
    "operator": "KLC",
    "parking:fee": "no",
    "phone": "+351 800 296 929",
    "ref": "OER-00024;OER-00025",
    "socket:type2": "2",
    "socket:type2:current": "32",
    "socket:type2:output": "22kW",
    "socket:type2:voltage": "400",
    "website": "https://www.mobie.pt/"
  }
},
{
  "type": "node",
  "id": 8294714637,
  "lat": 38.7394954,
  "lon": -9.3040279,
  "tags": {
    "access": "customers",
    "addr:country": "PT",
    "amenity": "charging_station",
    "authentication:membership_card": "yes",
    "authentication:none": "no",
    "capacity": "4",
    "email": "apoio.cliente@kmlowcost.com",
    "fee": "yes",
    "motorcar": "yes",
    "name": "OER-00006/7/18/19 - Taguspark",
    "network": "Mobi.E",
    "opening_hours": "24/7",
    "operator": "KLC",
    "parking:fee": "no",
    "phone": "+351 800 296 929",
    "ref": "OER-00006;OER-00007;OER-00018;OER-00019",
    "socket:type2": "4",
    "socket:type2:current": "32",
    "socket:type2:output": "22kW",
    "socket:type2:voltage": "400",
    "website": "https://www.mobie.pt/"
  }
},
{
  "type": "node",
  "id": 8294762421,
  "lat": 38.7349496,
  "lon": -9.2995231,
  "tags": {
    "access": "private",
    "addr:country": "PT",
    "amenity": "charging_station",
    "authentication:membership_card": "yes",
    "authentication:none": "no",
    "capacity": "2",
    "email": "suporte@mobiletric.com",
    "fee": "yes",
    "motorcar": "yes",
    "name": "TAGUS-00004",
    "network": "Mobi.E",
    "opening_hours": "24/7",
    "operator": "Mobiletric",
    "parking:fee": "no",
    "phone": "+351 800 210 204",
    "ref": "TAGUS-00004",
    "socket:type2": "2",
    "socket:type2:current": "32",
    "socket:type2:output": "22kW",
    "socket:type2:voltage": "400",
    "website": "https://www.mobie.pt/"
  }
},
{
  "type": "node",
  "id": 8294762422,
  "lat": 38.7349904,
  "lon": -9.3003599,
  "tags": {
    "access": "private",
    "addr:country": "PT",
    "amenity": "charging_station",
    "authentication:membership_card": "yes",
    "authentication:none": "no",
    "capacity": "2",
    "email": "suporte@mobiletric.com",
    "fee": "yes",
    "motorcar": "yes",
    "name": "TAGUS-00002/3",
    "network": "Mobi.E",
    "opening_hours": "24/7",
    "operator": "Mobiletric",
    "parking:fee": "no",
    "phone": "+351 800 210 204",
    "ref": "TAGUS-00002;TAGUS-00003",
    "socket:type2": "2",
    "socket:type2:current": "32",
    "socket:type2:output": "22kW",
    "socket:type2:voltage": "400",
    "website": "https://www.mobie.pt/"
  }
},
{
  "type": "node",
  "id": 8294762423,
  "lat": 38.7350296,
  "lon": -9.3011452,
  "tags": {
    "access": "private",
    "addr:country": "PT",
    "amenity": "charging_station",
    "authentication:membership_card": "yes",
    "authentication:none": "no",
    "capacity": "2",
    "email": "suporte@mobiletric.com",
    "fee": "yes",
    "motorcar": "yes",
    "name": "TAGUS-00001",
    "network": "Mobi.E",
    "opening_hours": "24/7",
    "operator": "Mobiletric",
    "parking:fee": "no",
    "phone": "+351 800 210 204",
    "ref": "TAGUS-00001",
    "socket:type2": "2",
    "socket:type2:current": "32",
    "socket:type2:output": "22kW",
    "socket:type2:voltage": "400",
    "website": "https://www.mobie.pt/"
  }
},
{
  "type": "node",
  "id": 8294844791,
  "lat": 38.7582817,
  "lon": -9.2397970,
  "tags": {
    "access": "customers",
    "addr:country": "PT",
    "amenity": "charging_station",
    "capacity": "1",
    "name": "Parkgest",
    "network": "none",
    "operator": "Parkgest",
    "socket:type2": "1",
    "socket:type2:current": "32",
    "socket:type2:output": "22kW",
    "socket:type2:voltage": "400"
  }
},
{
  "type": "node",
  "id": 8298150319,
  "lat": 38.7232398,
  "lon": -9.2135563,
  "tags": {
    "access": "customers",
    "addr:country": "PT",
    "amenity": "charging_station",
    "authentication:membership_card": "yes",
    "authentication:none": "no",
    "capacity": "4",
    "email": "mobilidade.electricacrc@galp.com",
    "fee": "yes",
    "motorcar": "yes",
    "name": "OER-00021/22 - Makro",
    "network": "Mobi.E",
    "opening_hours": "24/7",
    "operator": "Galp Power",
    "parking:fee": "no",
    "phone": "+351 800 249 249",
    "ref": "OER-00021;OER-00022",
    "socket:type2": "2",
    "socket:type2:current": "32",
    "socket:type2:output": "22kW",
    "socket:type2:voltage": "400",
    "website": "https://www.mobie.pt/"
  }
},
{
  "type": "node",
  "id": 8298171917,
  "lat": 38.7564688,
  "lon": -9.1931601,
  "tags": {
    "access": "customers",
    "addr:country": "PT",
    "amenity": "charging_station",
    "authentication:membership_card": "yes",
    "authentication:none": "no",
    "capacity": "8",
    "email": "mobilidade-eletrica@edp.pt",
    "fee": "yes",
    "motorcar": "yes",
    "name": "LSB-00177/180/182/183",
    "network": "Mobi.E",
    "opening_hours": "24/7",
    "operator": "EDP Comercial",
    "parking:fee": "yes",
    "phone": "+351 800 222 222",
    "ref": "LSB-00177;LSB-00180;LSB-00182;LSB-00183",
    "socket:type2": "8",
    "socket:type2:current": "32",
    "socket:type2:output": "22kW",
    "socket:type2:voltage": "400",
    "website": "https://www.mobie.pt/"
  }
},
{
  "type": "node",
  "id": 8298203804,
  "lat": 38.8151691,
  "lon": -9.1589338,
  "tags": {
    "access": "customers",
    "addr:country": "PT",
    "amenity": "charging_station",
    "authentication:membership_card": "yes",
    "authentication:none": "no",
    "capacity": "2",
    "fee": "yes",
    "motorcar": "yes",
    "name": "LRS-00050",
    "network": "Mobi.E",
    "opening_hours": "Mo-Su 09:00-21:00",
    "operator": "EDP Comercial",
    "parking:fee": "no",
    "ref": "LRS-00050",
    "socket:type2": "2",
    "socket:type2:current": "32",
    "socket:type2:output": "22kW",
    "socket:type2:voltage": "400",
    "website": "https://www.mobie.pt/"
  }
},
{
  "type": "node",
  "id": 8301117657,
  "lat": 38.7161989,
  "lon": -9.1573794,
  "tags": {
    "access": "private",
    "addr:country": "PT",
    "amenity": "charging_station",
    "authentication:membership_card": "yes",
    "authentication:none": "no",
    "capacity": "2",
    "email": "suporte@mobiletric.com",
    "fee": "yes",
    "motorcar": "yes",
    "name": "GOV-UK-00001",
    "network": "Mobi.E",
    "opening_hours": "24/7",
    "operator": "Mobiletric",
    "parking:fee": "no",
    "phone": "+351 800 210 204",
    "ref": "GOV-UK-00001",
    "socket:type2": "2",
    "socket:type2:current": "32",
    "socket:type2:output": "22kW",
    "socket:type2:voltage": "400",
    "website": "https://www.mobie.pt/"
  }
},
{
  "type": "node",
  "id": 8301177098,
  "lat": 38.7208498,
  "lon": -9.1593786,
  "tags": {
    "access": "customers",
    "addr:country": "PT",
    "amenity": "charging_station",
    "authentication:membership_card": "yes",
    "authentication:none": "no",
    "capacity": "2",
    "email": "ajuda@powerdot.pt",
    "fee": "yes",
    "motorcar": "yes",
    "name": "LSB-00213",
    "network": "Mobi.E",
    "opening_hours": "24/7",
    "operator": "Powerdot",
    "parking:fee": "yes",
    "phone": "+351 800 180 292",
    "ref": "LSB-00213",
    "socket:type2": "2",
    "socket:type2:current": "32",
    "socket:type2:output": "22kW",
    "socket:type2:voltage": "400",
    "website": "https://www.mobie.pt/"
  }
},
{
  "type": "node",
  "id": 8303946443,
  "lat": 38.7453683,
  "lon": -9.1640931,
  "tags": {
    "access": "private",
    "addr:country": "PT",
    "amenity": "charging_station",
    "authentication:membership_card": "yes",
    "authentication:none": "no",
    "capacity": "1",
    "fee": "yes",
    "motorcar": "yes",
    "name": "BFIN-00001",
    "network": "Mobi.E",
    "opening_hours": "24/7",
    "operator": "Bluecharge",
    "parking:fee": "no",
    "ref": "BFIN-00001",
    "socket:type2": "1",
    "socket:type2:current": "32",
    "socket:type2:output": "22kW",
    "socket:type2:voltage": "400",
    "website": "https://www.mobie.pt/"
  }
},
{
  "type": "node",
  "id": 8303976485,
  "lat": 38.7528293,
  "lon": -9.1642821,
  "tags": {
    "access": "customers",
    "addr:country": "PT",
    "amenity": "charging_station",
    "authentication:membership_card": "yes",
    "authentication:none": "no",
    "capacity": "2",
    "fee": "yes",
    "motorcar": "yes",
    "name": "LSB-00268",
    "network": "Mobi.E",
    "opening_hours": "24/7",
    "operator": "Veimonte",
    "parking:fee": "no",
    "ref": "LSB-00268",
    "socket:type2": "2",
    "socket:type2:current": "32",
    "socket:type2:output": "22kW",
    "socket:type2:voltage": "400",
    "website": "https://www.mobie.pt/"
  }
},
{
  "type": "node",
  "id": 8304000519,
  "lat": 38.7277586,
  "lon": -9.1583665,
  "tags": {
    "access": "customers",
    "addr:country": "PT",
    "amenity": "charging_station",
    "capacity": "1",
    "name": "Lux Lisboa Park Hotel",
    "network": "none",
    "operator": "Lux Lisboa Park Hotel",
    "socket:type2": "1",
    "socket:type2:current": "32",
    "socket:type2:output": "22kW",
    "socket:type2:voltage": "400"
  }
},
{
  "type": "node",
  "id": 8307307696,
  "lat": 41.1845829,
  "lon": -7.8117836,
  "tags": {
    "access": "customers",
    "addr:country": "PT",
    "amenity": "charging_station",
    "capacity": "2",
    "name": "Casa da Quinta de Santa Cruz",
    "network": "none",
    "operator": "Casa da Quinta de Santa Cruz",
    "socket:type2": "2",
    "socket:type2:current": "16",
    "socket:type2:output": "11kW",
    "socket:type2:voltage": "400"
  }
},
{
  "type": "node",
  "id": 8307392486,
  "lat": 41.5969872,
  "lon": -7.3131904,
  "tags": {
    "access": "customers",
    "addr:country": "PT",
    "amenity": "charging_station",
    "authentication:membership_card": "yes",
    "authentication:none": "no",
    "capacity": "2",
    "fee": "yes",
    "motorcar": "yes",
    "name": "Friautomóveis",
    "network": "none",
    "operator": "Friautomóveis",
    "parking:fee": "no",
    "socket:type2": "2",
    "socket:type2:current": "32",
    "socket:type2:output": "22kW",
    "socket:type2:voltage": "400"
  }
},
{
  "type": "node",
  "id": 8307392487,
  "lat": 41.5939834,
  "lon": -7.3036324,
  "tags": {
    "access": "customers",
    "addr:country": "PT",
    "amenity": "charging_station",
    "capacity": "1",
    "name": "Quinta Dona Adelaide",
    "network": "none",
    "operator": "Quinta Dona Adelaide",
    "socket:type2": "1",
    "socket:type2:current": "32",
    "socket:type2:output": "22kW",
    "socket:type2:voltage": "400"
  }
},
{
  "type": "node",
  "id": 8307397344,
  "lat": 41.2760961,
  "lon": -7.7163123,
  "tags": {
    "access": "customers",
    "addr:country": "PT",
    "amenity": "charging_station",
    "capacity": "2",
    "name": "JAPautomotive",
    "network": "none",
    "operator": "JAPautomotive",
    "socket:type2": "2",
    "socket:type2:current": "32",
    "socket:type2:output": "22kW",
    "socket:type2:voltage": "400"
  }
},
{
  "type": "node",
  "id": 8308351935,
  "lat": 41.9806536,
  "lon": -8.6668758,
  "tags": {
    "access": "customers",
    "addr:country": "PT",
    "amenity": "charging_station",
    "capacity": "1",
    "name": "Hotel Padre Cruz",
    "network": "none",
    "operator": "Hotel Padre Cruz",
    "socket:type2": "1",
    "socket:type2:current": "25",
    "socket:type2:output": "17kW",
    "socket:type2:voltage": "400"
  }
},
{
  "type": "node",
  "id": 8308355522,
  "lat": 41.7095651,
  "lon": -8.8523908,
  "tags": {
    "access": "customers",
    "addr:country": "PT",
    "amenity": "charging_station",
    "capacity": "1",
    "motorcar": "yes",
    "name": "Confiauto - Nissan",
    "network": "Nissan",
    "operator": "Nissan",
    "socket:type2": "1",
    "socket:type2:current": "32",
    "socket:type2:output": "22kW",
    "socket:type2:voltage": "400"
  }
},
{
  "type": "node",
  "id": 8308355861,
  "lat": 41.4442414,
  "lon": -8.1737959,
  "tags": {
    "access": "customers",
    "addr:country": "PT",
    "amenity": "charging_station",
    "capacity": "1",
    "fee": "no",
    "name": "Cachorrão",
    "network": "none",
    "operator": "Cachorrão",
    "socket:type2": "1",
    "socket:type2:current": "16",
    "socket:type2:output": "11kW",
    "socket:type2:voltage": "400"
  }
},
{
  "type": "node",
  "id": 8308356022,
  "lat": 41.6810034,
  "lon": -8.8293171,
  "tags": {
    "access": "customers",
    "addr:country": "PT",
    "amenity": "charging_station",
    "capacity": "1",
    "name": "Hotel FeelViana",
    "network": "none",
    "operator": "Hotel FeelViana",
    "socket:type2": "1",
    "socket:type2:current": "32",
    "socket:type2:output": "22kW",
    "socket:type2:voltage": "400"
  }
},
{
  "type": "node",
  "id": 8308356225,
  "lat": 41.8226229,
  "lon": -8.4368482,
  "tags": {
    "access": "private",
    "addr:country": "PT",
    "amenity": "charging_station",
    "capacity": "2",
    "name": "Mora Portugal",
    "network": "none",
    "official_name": "Mora Portugal, Lda.",
    "operator": "Mora Portugal Lda.",
    "socket:type2": "2",
    "socket:type2:current": "32",
    "socket:type2:output": "22kW",
    "socket:type2:voltage": "400"
  }
},
{
  "type": "node",
  "id": 8308363420,
  "lat": 41.6526194,
  "lon": -8.4344731,
  "tags": {
    "access": "customers",
    "addr:country": "PT",
    "amenity": "charging_station",
    "authentication:membership_card": "yes",
    "authentication:none": "no",
    "capacity": "2",
    "email": "info@evce.pt",
    "fee": "yes",
    "motorcar": "yes",
    "name": "VVD-00003 - Hospital da Misericórdia",
    "network": "Mobi.E",
    "opening_hours": "24/7",
    "operator": "EVCE",
    "parking:fee": "no",
    "phone": "+351 253 623 190",
    "ref": "VVD-00003",
    "socket:type2": "2",
    "socket:type2:current": "32",
    "socket:type2:output": "22kW",
    "socket:type2:voltage": "400",
    "website": "https://www.mobie.pt/"
  }
},
{
  "type": "node",
  "id": 8308363421,
  "lat": 41.6526634,
  "lon": -8.4344664,
  "tags": {
    "access": "customers",
    "addr:country": "PT",
    "amenity": "charging_station",
    "authentication:membership_card": "yes",
    "authentication:none": "no",
    "capacity": "2",
    "email": "info@evce.pt",
    "fee": "yes",
    "motorcar": "yes",
    "name": "VVD-00002 - Hospital da Misericórdia",
    "network": "Mobi.E",
    "opening_hours": "24/7",
    "operator": "EVCE",
    "parking:fee": "no",
    "phone": "+351 253 623 190",
    "ref": "VVD-00002",
    "socket:type2": "2",
    "socket:type2:current": "32",
    "socket:type2:output": "22kW",
    "socket:type2:voltage": "400",
    "website": "https://www.mobie.pt/"
  }
},
{
  "type": "node",
  "id": 8308363486,
  "lat": 41.5497067,
  "lon": -8.4014732,
  "tags": {
    "access": "customers",
    "addr:country": "PT",
    "amenity": "charging_station",
    "authentication:membership_card": "yes",
    "authentication:none": "no",
    "capacity": "6",
    "email": "mobilidade.electricacrc@galp.com",
    "fee": "yes",
    "motorcar": "yes",
    "name": "BRG-00040/41/42 - Makro",
    "network": "Mobi.E",
    "opening_hours": "24/7",
    "operator": "Galp Power",
    "parking:fee": "no",
    "phone": "+351 800 249 249",
    "ref": "BRG-00040;BRG-00041;BRG-00042",
    "socket:type2": "6",
    "socket:type2:current": "32",
    "socket:type2:output": "22kW",
    "socket:type2:voltage": "400",
    "website": "https://www.mobie.pt/"
  }
},
{
  "type": "node",
  "id": 8308390341,
  "lat": 41.3667857,
  "lon": -8.1948164,
  "tags": {
    "access": "private",
    "addr:country": "PT",
    "amenity": "charging_station",
    "authentication:membership_card": "yes",
    "authentication:none": "no",
    "capacity": "2",
    "email": "apoio.cliente@kmlowcost.com",
    "fee": "yes",
    "motorcar": "yes",
    "name": "IPP-00003",
    "network": "Mobi.E",
    "opening_hours": "24/7",
    "operator": "KLC",
    "parking:fee": "yes",
    "phone": "+351 800 296 929",
    "ref": "IPP-00003",
    "socket:type2": "2",
    "socket:type2:current": "32",
    "socket:type2:output": "22kW",
    "socket:type2:voltage": "400",
    "website": "https://www.mobie.pt/"
  }
},
{
  "type": "node",
  "id": 8308404028,
  "lat": 41.5674460,
  "lon": -8.4004980,
  "tags": {
    "access": "customers",
    "addr:country": "PT",
    "amenity": "charging_station",
    "authentication:membership_card": "yes",
    "authentication:none": "no",
    "capacity": "2",
    "fee": "yes",
    "motorcar": "yes",
    "name": "BRG-00038 - Hospital Escala",
    "network": "Mobi.E",
    "opening_hours": "24/7",
    "operator": "Galp Power",
    "parking:fee": "yes",
    "ref": "BRG-00038",
    "socket:type2": "2",
    "socket:type2:current": "16",
    "socket:type2:output": "11kW",
    "socket:type2:voltage": "400",
    "website": "https://www.mobie.pt/"
  }
},
{
  "type": "node",
  "id": 8308415456,
  "lat": 41.5201879,
  "lon": -8.6300142,
  "tags": {
    "access": "customers",
    "addr:country": "PT",
    "amenity": "charging_station",
    "capacity": "1",
    "motorcar": "yes",
    "name": "Renault Confiauto Barcelos",
    "network": "Renault",
    "operator": "Renault",
    "socket:type2": "1",
    "socket:type2:current": "32",
    "socket:type2:output": "22kW",
    "socket:type2:voltage": "400"
  }
},
{
  "type": "node",
  "id": 8308422172,
  "lat": 41.1977207,
  "lon": -8.3513126,
  "tags": {
    "access": "customers",
    "addr:country": "PT",
    "amenity": "charging_station",
    "capacity": "1",
    "motorcar": "yes",
    "name": "JAPautomotive Paredes",
    "network": "Renault",
    "operator": "JAPautomotive",
    "socket:type2": "1",
    "socket:type2:current": "32",
    "socket:type2:output": "22kW",
    "socket:type2:voltage": "400"
  }
},
{
  "type": "node",
  "id": 8308425202,
  "lat": 41.4785841,
  "lon": -8.5938996,
  "tags": {
    "access": "customers",
    "addr:country": "PT",
    "amenity": "charging_station",
    "capacity": "1",
    "name": "ProFlor",
    "network": "none",
    "operator": "Proflor",
    "socket:type2": "1",
    "socket:type2:current": "32",
    "socket:type2:output": "22kW",
    "socket:type2:voltage": "400"
  }
},
{
  "type": "node",
  "id": 8308431111,
  "lat": 41.3661506,
  "lon": -8.7394121,
  "tags": {
    "access": "private",
    "addr:country": "PT",
    "amenity": "charging_station",
    "authentication:membership_card": "yes",
    "authentication:none": "no",
    "capacity": "2",
    "email": "apoio.cliente@kmlowcost.com",
    "fee": "yes",
    "motorcar": "yes",
    "name": "IPP-00004",
    "network": "Mobi.E",
    "opening_hours": "24/7",
    "operator": "KLC",
    "parking:fee": "no",
    "phone": "+351 800 296 929",
    "ref": "IPP-00004",
    "socket:type2": "2",
    "socket:type2:current": "32",
    "socket:type2:output": "22kW",
    "socket:type2:voltage": "400",
    "website": "https://www.mobie.pt/"
  }
},
{
  "type": "node",
  "id": 8308433798,
  "lat": 41.1829670,
  "lon": -8.6061493,
  "tags": {
    "access": "customers",
    "addr:country": "PT",
    "amenity": "charging_station",
    "authentication:membership_card": "yes",
    "authentication:none": "no",
    "capacity": "6",
    "email": "ajuda@powerdot.pt",
    "fee": "yes",
    "motorcar": "yes",
    "name": "PRT-00023/24/25 - IPO",
    "network": "Mobi.E",
    "opening_hours": "24/7",
    "operator": "Powerdot",
    "parking:fee": "yes",
    "phone": "+351 800 180 292",
    "ref": "PRT-00023;PRT-00024;PRT-00025",
    "socket:type2": "6",
    "socket:type2:current": "32",
    "socket:type2:output": "22kW",
    "socket:type2:voltage": "400",
    "website": "https://www.mobie.pt/"
  }
},
{
  "type": "node",
  "id": 8308447583,
  "lat": 41.1245841,
  "lon": -8.6353813,
  "tags": {
    "access": "customers",
    "addr:country": "PT",
    "amenity": "charging_station",
    "authentication:membership_card": "yes",
    "authentication:none": "no",
    "capacity": "2",
    "email": "mobilidade-eletrica@edp.pt",
    "fee": "yes",
    "motorcar": "yes",
    "name": "VNG-00039 - McDonald's",
    "network": "Mobi.E",
    "opening_hours": "24/7",
    "operator": "EDP Comercial",
    "parking:fee": "no",
    "phone": "+351 800 222 222",
    "ref": "VNG-00039",
    "socket:type2": "2",
    "socket:type2:current": "32",
    "socket:type2:output": "22kW",
    "socket:type2:voltage": "400",
    "website": "https://www.mobie.pt/"
  }
},
{
  "type": "node",
  "id": 8308456463,
  "lat": 41.1160294,
  "lon": -8.6307773,
  "tags": {
    "access": "customers",
    "addr:country": "PT",
    "amenity": "charging_station",
    "authentication:membership_card": "yes",
    "authentication:none": "no",
    "capacity": "2",
    "motorcar": "yes",
    "name": "VNG-00024 - Caetano Baviera",
    "network": "Mobi.E",
    "operator": "Prio.E",
    "ref": "VNG-00024",
    "socket:type2": "2",
    "socket:type2:current": "32",
    "socket:type2:output": "22kW",
    "socket:type2:voltage": "400"
  }
},
{
  "type": "node",
  "id": 8308460513,
  "lat": 41.1967429,
  "lon": -8.5797523,
  "tags": {
    "access": "customers",
    "addr:country": "PT",
    "amenity": "charging_station",
    "capacity": "1",
    "motorcar": "yes",
    "name": "Renault Carvalhos & M.Moura",
    "network": "Renault",
    "operator": "Renault",
    "socket:type2": "1",
    "socket:type2:current": "32",
    "socket:type2:output": "22kW",
    "socket:type2:voltage": "400"
  }
},
{
  "type": "node",
  "id": 8308473981,
  "lat": 41.1831971,
  "lon": -8.6538550,
  "tags": {
    "access": "private",
    "addr:country": "PT",
    "amenity": "charging_station",
    "authentication:membership_card": "yes",
    "authentication:none": "no",
    "capacity": "3",
    "email": "suporte@mobiletric.com",
    "fee": "yes",
    "motorcar": "yes",
    "name": "MTS-00018/19/20 - Porto Business School",
    "network": "Mobi.E",
    "opening_hours": "24/7",
    "operator": "Mobiletric",
    "parking:fee": "no",
    "phone": "+351 800 210 204",
    "ref": "MTS-00018;MTS-00019;MTS-00020",
    "socket:type2": "3",
    "socket:type2:current": "32",
    "socket:type2:output": "22kW",
    "socket:type2:voltage": "400",
    "website": "https://www.mobie.pt/"
  }
},
{
  "type": "node",
  "id": 8308473982,
  "lat": 41.1833001,
  "lon": -8.6538369,
  "tags": {
    "access": "private",
    "addr:country": "PT",
    "amenity": "charging_station",
    "authentication:membership_card": "yes",
    "authentication:none": "no",
    "capacity": "2",
    "email": "suporte@mobiletric.com",
    "fee": "yes",
    "motorcar": "yes",
    "name": "MTS-00016/17 - Porto Business School",
    "network": "Mobi.E",
    "opening_hours": "24/7",
    "operator": "Mobiletric",
    "parking:fee": "no",
    "phone": "+351 800 210 204",
    "ref": "MTS-00016;MTS-00017",
    "socket:type2": "2",
    "socket:type2:current": "32",
    "socket:type2:output": "22kW",
    "socket:type2:voltage": "400",
    "website": "https://www.mobie.pt/"
  }
},
{
  "type": "node",
  "id": 8308474807,
  "lat": 41.2364487,
  "lon": -8.6388132,
  "tags": {
    "access": "private",
    "addr:country": "PT",
    "amenity": "charging_station",
    "authentication:membership_card": "yes",
    "authentication:none": "no",
    "capacity": "2",
    "fee": "yes",
    "motorcar": "yes",
    "name": "MAI-00006",
    "network": "Mobi.E",
    "opening_hours": "24/7",
    "operator": "CapWatt",
    "parking:fee": "no",
    "ref": "MAI-00006",
    "socket:type2": "2",
    "socket:type2:current": "32",
    "socket:type2:output": "22kW",
    "socket:type2:voltage": "400",
    "website": "https://www.mobie.pt/"
  }
},
{
  "type": "node",
  "id": 8308485030,
  "lat": 41.2013604,
  "lon": -8.6253512,
  "tags": {
    "access": "customers",
    "addr:country": "PT",
    "amenity": "charging_station",
    "authentication:membership_card": "yes",
    "authentication:none": "no",
    "capacity": "4",
    "email": "mobilidade.electricacrc@galp.com",
    "fee": "yes",
    "motorcar": "yes",
    "name": "MTS-00025/26 - Makro",
    "network": "Mobi.E",
    "opening_hours": "24/7",
    "operator": "Galp Power",
    "parking:fee": "no",
    "phone": "+351 800 249 249",
    "ref": "MTS-00025;MTS-00026",
    "socket:type2": "4",
    "socket:type2:current": "16",
    "socket:type2:output": "11kW",
    "socket:type2:voltage": "400",
    "website": "https://www.mobie.pt/"
  }
},
{
  "type": "node",
  "id": 8308491580,
  "lat": 41.1777516,
  "lon": -8.6542010,
  "tags": {
    "access": "customers",
    "addr:country": "PT",
    "amenity": "charging_station",
    "capacity": "2",
    "fee": "yes",
    "name": "Kinda Home",
    "network": "none",
    "operator": "Kinda Home",
    "socket:type2": "2",
    "socket:type2:current": "32",
    "socket:type2:output": "22kW",
    "socket:type2:voltage": "400"
  }
},
{
  "type": "node",
  "id": 8308514983,
  "lat": 41.1516572,
  "lon": -8.5972007,
  "tags": {
    "access": "customers",
    "addr:country": "PT",
    "amenity": "charging_station",
    "capacity": "2",
    "name": "The Avenue Hotel",
    "network": "none",
    "operator": "The Avenue Hotel",
    "socket:type2": "2",
    "socket:type2:current": "16",
    "socket:type2:output": "11kW",
    "socket:type2:voltage": "400"
  }
},
{
  "type": "node",
  "id": 8308528651,
  "lat": 41.1777849,
  "lon": -8.6072838,
  "tags": {
    "access": "private",
    "addr:country": "PT",
    "amenity": "charging_station",
    "authentication:membership_card": "yes",
    "authentication:none": "no",
    "capacity": "2",
    "email": "suporte@emobtec.pt",
    "fee": "yes",
    "motorcar": "yes",
    "name": "ISEP-00001",
    "network": "Mobi.E",
    "opening_hours": "24/7",
    "operator": "Emobtec",
    "parking:fee": "no",
    "phone": "+351 800 500 216",
    "ref": "ISEP-00001",
    "socket:type2": "2",
    "socket:type2:current": "32",
    "socket:type2:output": "22kW",
    "socket:type2:voltage": "400",
    "website": "https://www.mobie.pt/"
  }
},
{
  "type": "node",
  "id": 8308903232,
  "lat": 38.7044678,
  "lon": -9.3043645,
  "tags": {
    "access": "customers",
    "addr:country": "PT",
    "amenity": "charging_station",
    "authentication:membership_card": "yes",
    "authentication:none": "no",
    "capacity": "2",
    "fee": "yes",
    "motorcar": "yes",
    "name": "OER-00060 - Leroy Merlin Oeiras",
    "network": "Mobi.E",
    "opening_hours": "Mo-Su 09:00-21:00",
    "operator": "Bluecharge",
    "parking:fee": "no",
    "ref": "OER-00060",
    "socket:type2": "2",
    "socket:type2:current": "32",
    "socket:type2:output": "22kW",
    "socket:type2:voltage": "400",
    "website": "https://www.mobie.pt/"
  }
},
{
  "type": "node",
  "id": 8308912606,
  "lat": 38.7810673,
  "lon": -9.3532504,
  "tags": {
    "access": "customers",
    "addr:country": "PT",
    "amenity": "charging_station",
    "authentication:membership_card": "yes",
    "authentication:none": "no",
    "capacity": "2",
    "fee": "yes",
    "motorcar": "yes",
    "name": "SNT-00034 - Hospital CUF",
    "network": "Mobi.E",
    "opening_hours": "24/7",
    "operator": "Galp Power",
    "parking:fee": "no",
    "ref": "SNT-00034",
    "socket:type2": "2",
    "socket:type2:current": "32",
    "socket:type2:output": "22kW",
    "socket:type2:voltage": "400",
    "website": "https://www.mobie.pt/"
  }
},
{
  "type": "node",
  "id": 8308969365,
  "lat": 38.7341215,
  "lon": -9.1534111,
  "tags": {
    "access": "private",
    "addr:country": "PT",
    "amenity": "charging_station",
    "authentication:membership_card": "yes",
    "authentication:none": "no",
    "capacity": "8",
    "fee": "yes",
    "motorcar": "yes",
    "name": "LSB-00075/77/82/86",
    "network": "Mobi.E",
    "opening_hours": "24/7",
    "operator": "EDP Comercial",
    "parking:fee": "no",
    "ref": "LSB-00075;LSB-00077;LSB-00082;LSB-00086",
    "socket:type2": "8",
    "socket:type2:current": "32",
    "socket:type2:output": "22kW",
    "socket:type2:voltage": "400",
    "website": "https://www.mobie.pt/"
  }
},
{
  "type": "node",
  "id": 8397467224,
  "lat": 38.7329153,
  "lon": -9.1449393,
  "tags": {
    "access": "customers",
    "addr:country": "PT",
    "amenity": "charging_station",
    "authentication:membership_card": "yes",
    "authentication:none": "no",
    "capacity": "6",
    "fee": "yes",
    "motorcar": "yes",
    "name": "LSB-00273/274/275/276",
    "network": "Mobi.E",
    "opening_hours": "24/7",
    "operator": "Circuitos de Inovação",
    "parking:fee": "yes",
    "ref": "LSB-00273;LSB-00274;LSB-00275;LSB-00276",
    "socket:type2": "6",
    "socket:type2:current": "32",
    "socket:type2:output": "22kW",
    "socket:type2:voltage": "400",
    "website": "https://www.mobie.pt/"
  }
},
{
  "type": "node",
  "id": 8402760603,
  "lat": 37.0135293,
  "lon": -7.9335954,
  "tags": {
    "access": "private",
    "addr:country": "PT",
    "amenity": "charging_station",
    "authentication:membership_card": "yes",
    "authentication:none": "no",
    "capacity": "2",
    "motorcar": "yes",
    "name": "Águas do Algarve (sede)",
    "network": "Mobi.E",
    "opening_hours": "24/7",
    "operator": "Águas de Portugal",
    "ref": "ADPORTUGAL-00105",
    "socket:type2": "2",
    "socket:type2:current": "32",
    "socket:type2:output": "22kW",
    "socket:type2:voltage": "400"
  }
},
{
  "type": "node",
  "id": 8402779730,
  "lat": 37.1454503,
  "lon": -7.7051020,
  "tags": {
    "access": "private",
    "addr:country": "PT",
    "amenity": "charging_station",
    "authentication:membership_card": "yes",
    "authentication:none": "no",
    "capacity": "2",
    "motorcar": "yes",
    "name": "ETA de Tavira",
    "network": "Mobi.E",
    "opening_hours": "24/7",
    "operator": "Águas de Portugal",
    "ref": "ADPORTUGAL-00104",
    "socket:type2": "2",
    "socket:type2:current": "32",
    "socket:type2:output": "22kW",
    "socket:type2:voltage": "400"
  }
},
{
  "type": "node",
  "id": 8402840619,
  "lat": 37.1525204,
  "lon": -8.6227548,
  "tags": {
    "access": "private",
    "addr:country": "PT",
    "amenity": "charging_station",
    "authentication:membership_card": "yes",
    "authentication:none": "no",
    "capacity": "2",
    "motorcar": "yes",
    "name": "ETA das Fontaínhas",
    "network": "Mobi.E",
    "opening_hours": "24/7",
    "operator": "Águas de Portugal",
    "ref": "ADPORTUGAL-00107",
    "socket:type2": "2",
    "socket:type2:current": "32",
    "socket:type2:output": "22kW",
    "socket:type2:voltage": "400",
    "website": "https://www.mobie.pt/"
  }
},
{
  "type": "node",
  "id": 8403278699,
  "lat": 40.7143787,
  "lon": -8.2060736,
  "tags": {
    "access": "private",
    "addr:country": "PT",
    "amenity": "charging_station",
    "authentication:membership_card": "yes",
    "authentication:none": "no",
    "capacity": "2",
    "fee": "yes",
    "motorcar": "yes",
    "name": "OFR-00001 - Martifer",
    "network": "Mobi.E",
    "opening_hours": "24/7",
    "operator": "Prio.E",
    "parking:fee": "no",
    "ref": "OFR-00001",
    "socket:type2": "2",
    "socket:type2:current": "32",
    "socket:type2:output": "22kW",
    "socket:type2:voltage": "400",
    "website": "https://www.mobie.pt/"
  }
},
{
  "type": "node",
  "id": 8409780438,
  "lat": 38.7437496,
  "lon": -9.1489854,
  "tags": {
    "access": "private",
    "addr:country": "PT",
    "amenity": "charging_station",
    "authentication:membership_card": "yes",
    "authentication:none": "no",
    "capacity": "6",
    "fee": "yes",
    "motorcar": "yes",
    "name": "ADENE-00004/5/6",
    "network": "Mobi.E",
    "opening_hours": "24/7",
    "operator": "Galp Power",
    "parking:fee": "no",
    "ref": "ADENE-00004;ADENE-00005;ADENE-00006",
    "socket:type2": "2",
    "socket:type2:current": "16",
    "socket:type2:output": "11kW",
    "socket:type2:voltage": "400",
    "website": "https://www.mobie.pt/"
  }
},
{
  "type": "node",
  "id": 8410068781,
  "lat": 38.6950951,
  "lon": -9.3180129,
  "tags": {
    "access": "private",
    "addr:country": "PT",
    "amenity": "charging_station",
    "authentication:membership_card": "yes",
    "authentication:none": "no",
    "capacity": "2",
    "fee": "yes",
    "motorcar": "yes",
    "name": "INIAV-00001",
    "network": "Mobi.E",
    "opening_hours": "24/7",
    "operator": "KLC",
    "parking:fee": "no",
    "ref": "INIAV-00001",
    "socket:type2": "2",
    "socket:type2:current": "32",
    "socket:type2:output": "22kW",
    "socket:type2:voltage": "400",
    "website": "https://www.mobie.pt/"
  }
},
{
  "type": "node",
  "id": 8410079835,
  "lat": 38.5287254,
  "lon": -7.9931398,
  "tags": {
    "access": "private",
    "addr:country": "PT",
    "amenity": "charging_station",
    "authentication:membership_card": "yes",
    "authentication:none": "no",
    "capacity": "2",
    "fee": "yes",
    "motorcar": "yes",
    "name": "INIAV-00006",
    "network": "Mobi.E",
    "opening_hours": "24/7",
    "operator": "KLC",
    "parking:fee": "no",
    "ref": "INIAV-00006",
    "socket:type2": "2",
    "socket:type2:current": "32",
    "socket:type2:output": "22kW",
    "socket:type2:voltage": "400",
    "website": "https://www.mobie.pt/"
  }
},
{
  "type": "node",
  "id": 8410120114,
  "lat": 39.2031331,
  "lon": -8.7397387,
  "tags": {
    "access": "private",
    "addr:country": "PT",
    "amenity": "charging_station",
    "authentication:membership_card": "yes",
    "authentication:none": "no",
    "capacity": "2",
    "fee": "yes",
    "motorcar": "yes",
    "name": "INIAV-00009",
    "network": "Mobi.E",
    "opening_hours": "24/7",
    "operator": "KLC",
    "parking:fee": "no",
    "ref": "INIAV-00009",
    "socket:type2": "2",
    "socket:type2:current": "32",
    "socket:type2:output": "22kW",
    "socket:type2:voltage": "400",
    "website": "https://www.mobie.pt/"
  }
},
{
  "type": "node",
  "id": 8410120618,
  "lat": 39.0413154,
  "lon": -9.1818841,
  "tags": {
    "access": "private",
    "addr:country": "PT",
    "amenity": "charging_station",
    "authentication:membership_card": "yes",
    "authentication:none": "no",
    "capacity": "2",
    "fee": "yes",
    "motorcar": "yes",
    "name": "INIAV-00008",
    "network": "Mobi.E",
    "opening_hours": "24/7",
    "operator": "KLC",
    "parking:fee": "no",
    "ref": "INIAV-00008",
    "socket:type2": "2",
    "socket:type2:current": "32",
    "socket:type2:output": "22kW",
    "socket:type2:voltage": "400",
    "website": "https://www.mobie.pt/"
  }
},
{
  "type": "node",
  "id": 8410120697,
  "lat": 39.2217230,
  "lon": -7.6869039,
  "tags": {
    "access": "private",
    "addr:country": "PT",
    "amenity": "charging_station",
    "authentication:membership_card": "yes",
    "authentication:none": "no",
    "capacity": "2",
    "fee": "yes",
    "motorcar": "yes",
    "name": "INIAV-00005",
    "network": "Mobi.E",
    "opening_hours": "24/7",
    "operator": "KLC",
    "parking:fee": "no",
    "ref": "INIAV-00005",
    "socket:type2": "2",
    "socket:type2:current": "32",
    "socket:type2:output": "22kW",
    "socket:type2:voltage": "400",
    "website": "https://www.mobie.pt/"
  }
},
{
  "type": "node",
  "id": 8410129829,
  "lat": 40.3610407,
  "lon": -7.8609035,
  "tags": {
    "access": "permissive",
    "addr:country": "PT",
    "amenity": "charging_station",
    "authentication:membership_card": "yes",
    "authentication:none": "no",
    "capacity": "2",
    "fee": "yes",
    "motorcar": "yes",
    "name": "OHP-00001",
    "network": "Mobi.E",
    "opening_hours": "24/7",
    "operator": "KLC",
    "parking:fee": "no",
    "ref": "OHP-00001",
    "socket:type2": "2",
    "socket:type2:current": "32",
    "socket:type2:output": "22kW",
    "socket:type2:voltage": "400",
    "website": "https://www.mobie.pt/"
  }
},
{
  "type": "node",
  "id": 8410138272,
  "lat": 39.5490717,
  "lon": -8.9699876,
  "tags": {
    "access": "private",
    "addr:country": "PT",
    "amenity": "charging_station",
    "authentication:membership_card": "yes",
    "authentication:none": "no",
    "capacity": "2",
    "fee": "yes",
    "motorcar": "yes",
    "name": "INIAV-00007",
    "network": "Mobi.E",
    "opening_hours": "24/7",
    "operator": "KLC",
    "parking:fee": "no",
    "ref": "INIAV-00007",
    "socket:type2": "2",
    "socket:type2:current": "32",
    "socket:type2:output": "22kW",
    "socket:type2:voltage": "400",
    "website": "https://www.mobie.pt/"
  }
},
{
  "type": "node",
  "id": 8410138321,
  "lat": 41.5771383,
  "lon": -8.4510291,
  "tags": {
    "access": "private",
    "addr:country": "PT",
    "amenity": "charging_station",
    "authentication:membership_card": "yes",
    "authentication:none": "no",
    "capacity": "2",
    "fee": "yes",
    "motorcar": "yes",
    "name": "INIAV-00002",
    "network": "Mobi.E",
    "opening_hours": "24/7",
    "operator": "KLC",
    "parking:fee": "no",
    "ref": "INIAV-00002",
    "socket:type2": "2",
    "socket:type2:current": "32",
    "socket:type2:output": "22kW",
    "socket:type2:voltage": "400",
    "website": "https://www.mobie.pt/"
  }
},
{
  "type": "node",
  "id": 8410143953,
  "lat": 38.8888251,
  "lon": -7.1441388,
  "tags": {
    "access": "private",
    "addr:country": "PT",
    "amenity": "charging_station",
    "authentication:membership_card": "yes",
    "authentication:none": "no",
    "capacity": "2",
    "fee": "yes",
    "motorcar": "yes",
    "name": "INIAV-00004",
    "network": "Mobi.E",
    "opening_hours": "24/7",
    "operator": "KLC",
    "parking:fee": "no",
    "ref": "INIAV-00004",
    "socket:type2": "2",
    "socket:type2:current": "32",
    "socket:type2:output": "22kW",
    "socket:type2:voltage": "400",
    "website": "https://www.mobie.pt/"
  }
},
{
  "type": "node",
  "id": 8421289206,
  "lat": 38.7240591,
  "lon": -9.2157215,
  "tags": {
    "access": "customers",
    "addr:country": "PT",
    "amenity": "charging_station",
    "authentication:membership_card": "yes",
    "authentication:none": "no",
    "capacity": "2",
    "fee": "yes",
    "motorcar": "yes",
    "name": "OER-00061",
    "network": "Mobi.E",
    "opening_hours": "Mo-Su 10:00-20:00",
    "operator": "Powerdot",
    "parking:fee": "no",
    "ref": "OER-00061",
    "socket:type2": "2",
    "socket:type2:current": "32",
    "socket:type2:output": "22kW",
    "socket:type2:voltage": "400",
    "website": "https://www.mobie.pt/"
  }
},
{
  "type": "node",
  "id": 8431722290,
  "lat": 41.4461940,
  "lon": -8.1635000,
  "tags": {
    "access": "customers",
    "addr:country": "PT",
    "amenity": "charging_station",
    "capacity": "2",
    "name": "Fafe Diesel Bosch",
    "network": "none",
    "operator": "Fafe Diesel",
    "socket:schuko": "1",
    "socket:schuko:output": "3.7kW",
    "socket:type2": "1",
    "socket:type2:current": "32",
    "socket:type2:output": "22kW",
    "socket:type2:voltage": "400"
  }
},
{
  "type": "node",
  "id": 8459431464,
  "lat": 38.6650545,
  "lon": -9.1507396,
  "tags": {
    "access": "private",
    "addr:country": "PT",
    "amenity": "charging_station",
    "authentication:membership_card": "yes",
    "authentication:none": "no",
    "capacity": "2",
    "fee": "yes",
    "motorcar": "yes",
    "name": "ALM-00029",
    "network": "Mobi.E",
    "opening_hours": "24/7",
    "operator": "EV Power",
    "parking:fee": "no",
    "ref": "ALM-00029",
    "socket:type2": "2",
    "socket:type2:current": "32",
    "socket:type2:output": "22kW",
    "socket:type2:voltage": "400",
    "website": "https://www.mobie.pt/"
  }
},
{
  "type": "node",
  "id": 8460987956,
  "lat": 38.7345280,
  "lon": -9.2265190,
  "tags": {
    "access": "private",
    "addr:country": "PT",
    "amenity": "charging_station",
    "authentication:membership_card": "yes",
    "authentication:none": "no",
    "capacity": "2",
    "fee": "yes",
    "motorcar": "yes",
    "name": "AMD-00012",
    "network": "Mobi.E",
    "opening_hours": "24/7",
    "operator": "Prio.E",
    "parking:fee": "no",
    "ref": "AMD-00012",
    "socket:type2": "2",
    "socket:type2:current": "32",
    "socket:type2:output": "22kW",
    "socket:type2:voltage": "400",
    "website": "https://www.mobie.pt/"
  }
},
{
  "type": "node",
  "id": 8461068495,
  "lat": 40.6525800,
  "lon": -8.7065400,
  "tags": {
    "access": "private",
    "addr:country": "PT",
    "amenity": "charging_station",
    "authentication:membership_card": "yes",
    "authentication:none": "no",
    "capacity": "2",
    "fee": "yes",
    "motorcar": "yes",
    "name": "AVR-00016 - Prio.E",
    "network": "Mobi.E",
    "opening_hours": "24/7",
    "operator": "Prio.E",
    "parking:fee": "no",
    "ref": "AVR-00016",
    "socket:type2": "2",
    "socket:type2:current": "32",
    "socket:type2:output": "22kW",
    "socket:type2:voltage": "400",
    "website": "https://www.mobie.pt/"
  }
},
{
  "type": "node",
  "id": 8462115910,
  "lat": 38.7048020,
  "lon": -9.1705360,
  "tags": {
    "access": "private",
    "addr:country": "PT",
    "amenity": "charging_station",
    "authentication:membership_card": "yes",
    "authentication:none": "no",
    "capacity": "2",
    "fee": "yes",
    "motorcar": "yes",
    "name": "LSB-01538",
    "network": "Mobi.E",
    "opening_hours": "24/7",
    "operator": "EV Power",
    "parking:fee": "no",
    "ref": "LSB-01538",
    "socket:type2": "2",
    "socket:type2:current": "32",
    "socket:type2:output": "22kW",
    "socket:type2:voltage": "400",
    "website": "https://www.mobie.pt/"
  }
},
{
  "type": "node",
  "id": 8479499867,
  "lat": 39.2681710,
  "lon": -7.4427960,
  "tags": {
    "access": "private",
    "addr:country": "PT",
    "ame": "PTG-00005",
    "amenity": "charging_station",
    "authentication:membership_card": "yes",
    "authentication:none": "no",
    "capacity": "2",
    "fee": "yes",
    "motorcar": "yes",
    "network": "Mobi.E",
    "opening_hours": "24/7",
    "operator": "EV Power",
    "parking:fee": "no",
    "ref": "PTG-00005",
    "socket:type2": "2",
    "socket:type2:current": "32",
    "socket:type2:output": "22kW",
    "socket:type2:voltage": "400",
    "website": "https://www.mobie.pt/"
  }
},
{
  "type": "node",
  "id": 8511198579,
  "lat": 37.0437440,
  "lon": -8.0122960,
  "tags": {
    "access": "private",
    "addr:country": "PT",
    "amenity": "charging_station",
    "authentication:membership_card": "yes",
    "authentication:none": "no",
    "capacity": "2",
    "fee": "yes",
    "name": "LLE-00051",
    "network": "Mobi.E",
    "opening_hours": "24/7",
    "operator": "EDP Comercial",
    "parking:fee": "no",
    "ref": "LLE-00051",
    "socket:type2": "2",
    "socket:type2:current": "32",
    "socket:type2:output": "22kW",
    "socket:type2:voltage": "400",
    "website": "https://www.mobie.pt/"
  }
},
{
  "type": "node",
  "id": 8536551682,
  "lat": 41.5676912,
  "lon": -8.3995414,
  "tags": {
    "access": "customers",
    "addr:country": "PT",
    "amenity": "charging_station",
    "authentication:membership_card": "yes",
    "authentication:none": "no",
    "capacity": "2",
    "fee": "yes",
    "motorcar": "yes",
    "name": "BRG-00039 - Hospital Escala",
    "network": "Mobi.E",
    "opening_hours": "24/7",
    "operator": "Galp Power",
    "parking:fee": "yes",
    "ref": "BRG-00039",
    "socket:type2": "2",
    "socket:type2:current": "16",
    "socket:type2:output": "11kW",
    "socket:type2:voltage": "400",
    "website": "https://www.mobie.pt/"
  }
},
{
  "type": "node",
  "id": 8608038347,
  "lat": 38.7595080,
  "lon": -9.1186100,
  "tags": {
    "access": "private",
    "addr:country": "PT",
    "amenity": "charging_station",
    "capacity": "4",
    "name": "RTP - Parque Exterior",
    "network": "none",
    "operator": "RTP",
    "socket:type2": "4",
    "socket:type2:current": "32",
    "socket:type2:output": "22kW",
    "socket:type2:voltage": "400"
  }
},
{
  "type": "node",
  "id": 8612634632,
  "lat": 38.6955380,
  "lon": -9.2197210,
  "tags": {
    "access": "customers",
    "addr:country": "PT",
    "amenity": "charging_station",
    "authentication:membership_card": "yes",
    "authentication:none": "no",
    "capacity": "2",
    "fee": "yes",
    "name": "LSB-00329",
    "network": "Mobi.E",
    "opening_hours": "24/7",
    "operator": "E-Plug",
    "parking:fee": "no",
    "ref": "LSB-00329",
    "socket:type2": "2",
    "socket:type2:current": "32",
    "socket:type2:output": "22kW",
    "socket:type2:voltage": "400",
    "website": "https://www.mobie.pt/"
  }
},
{
  "type": "node",
  "id": 8640076098,
  "lat": 40.3640231,
  "lon": -8.0244157,
  "tags": {
    "access": "customers",
    "addr:country": "PT",
    "amenity": "charging_station",
    "authentication:membership_card": "yes",
    "authentication:none": "no",
    "capacity": "2",
    "fee": "yes",
    "name": "Intermarché de Tábua",
    "network": "none",
    "opening_hours": "Mo-Su 08:30-20:00",
    "operator": "unknown",
    "parking:fee": "no",
    "socket:type2": "2",
    "socket:type2:current": "32",
    "socket:type2:output": "22kW",
    "socket:type2:voltage": "400"
  }
},
{
  "type": "node",
  "id": 8665591629,
  "lat": 38.0213200,
  "lon": -7.8566800,
  "tags": {
    "access": "customers",
    "addr:country": "PT",
    "amenity": "charging_station",
    "authentication:membership_card": "yes",
    "authentication:none": "no",
    "capacity": "1",
    "name": "Peugeot Motorex",
    "network": "none",
    "operator": "Motorex",
    "socket:type2": "1",
    "socket:type2:current": "32",
    "socket:type2:output": "22kW",
    "socket:type2:voltage": "400"
  }
},
{
  "type": "node",
  "id": 8665591630,
  "lat": 38.0217900,
  "lon": -7.8566300,
  "tags": {
    "access": "customers",
    "addr:country": "PT",
    "amenity": "charging_station",
    "authentication:membership_card": "yes",
    "authentication:none": "no",
    "capacity": "1",
    "name": "Renault Multiauto",
    "network": "Renault",
    "operator": "Multiauto",
    "socket:type2": "1",
    "socket:type2:current": "32",
    "socket:type2:output": "22kW",
    "socket:type2:voltage": "400"
  }
},
{
  "type": "node",
  "id": 8693956621,
  "lat": 37.1369374,
  "lon": -8.5544363,
  "tags": {
    "access": "customers",
    "addr:country": "PT",
    "amenity": "charging_station",
    "capacity": "2",
    "name": "Forportil",
    "network": "none",
    "operator": "Forportil",
    "socket:type2": "2",
    "socket:type2:current": "32",
    "socket:type2:output": "22kW",
    "socket:type2:voltage": "400"
  }
},
{
  "type": "node",
  "id": 8709394157,
  "lat": 41.0913520,
  "lon": -8.1679310,
  "tags": {
    "access": "customers",
    "addr:country": "PT",
    "amenity": "charging_station",
    "capacity": "1",
    "name": "Quinta de Cabanas - Douro Country House",
    "network": "none",
    "operator": "Quinta de Cabanas",
    "socket:type2": "1",
    "socket:type2:current": "32",
    "socket:type2:output": "22kW",
    "socket:type2:voltage": "400"
  }
},
{
  "type": "node",
  "id": 8710878293,
  "lat": 39.2610738,
  "lon": -8.6954120,
  "tags": {
    "access": "customers",
    "addr:country": "PT",
    "amenity": "charging_station",
    "capacity": "2",
    "name": "Restaurante Oh Vargas",
    "network": "none",
    "operator": "Restaurante Oh Vargas",
    "socket:type2": "2",
    "socket:type2:current": "32",
    "socket:type2:output": "22kW",
    "socket:type2:voltage": "400"
  }
},
{
  "type": "node",
  "id": 8726338734,
  "lat": 40.2671490,
  "lon": -7.4995420,
  "tags": {
    "access": "customers",
    "addr:country": "PT",
    "amenity": "charging_station",
    "capacity": "1",
    "name": "Puralã Wool Valey Hotel & SPA",
    "network": "none",
    "operator": "Puralã Wool Valey Hotel & SPA",
    "socket:type2": "1",
    "socket:type2:current": "16",
    "socket:type2:output": "11kW",
    "socket:type2:voltage": "400"
  }
},
{
  "type": "node",
  "id": 8830322332,
  "lat": 38.8073993,
  "lon": -7.4637130,
  "tags": {
    "access": "customers",
    "addr:country": "PT",
    "amenity": "charging_station",
    "capacity": "2",
    "name": "Adega de Borba Wineshop",
    "network": "none",
    "operator": "Adega de Borba",
    "socket:type2": "2",
    "socket:type2:current": "32",
    "socket:type2:output": "22kW",
    "socket:type2:voltage": "400"
  }
},
{
  "type": "node",
  "id": 8830322333,
  "lat": 41.2710860,
  "lon": -7.5048789,
  "tags": {
    "access": "customers",
    "addr:country": "PT",
    "amenity": "charging_station",
    "capacity": "2",
    "name": "Adega de Favaios",
    "network": "none",
    "operator": "Adega de Favaios",
    "socket:type2": "2",
    "socket:type2:current": "32",
    "socket:type2:output": "22kW",
    "socket:type2:voltage": "400"
  }
}

  ]
}
