{
"type": "FeatureCollection",
"features": [
{
  "type": "Feature",
  "id": "node/8206970203",
  "properties": {
    "access": "yes",
    "addr:city": "Vila do Bispo",
    "addr:country": "PT",
    "authentication:membership_card": "yes",
    "authentication:none": "no",
    "capacity": "2",
    "fee": "yes",
    "motorcar": "yes",
    "name": "VBP-00003",
    "network": "Mobi.E",
    "opening_hours": "24/7",
    "operator": "KLC",
    "parking:fee": "no",
    "planned:amenity": "charging_station",
    "ref": "VBP-00003",
    "socket:chademo": "1",
    "socket:chademo:current": "120",
    "socket:chademo:output": "50kW",
    "socket:chademo:voltage": "500",
    "socket:type2_cable": "1",
    "socket:type2_cable:current": "63",
    "socket:type2_cable:output": "43kW",
    "socket:type2_cable:voltage": "400",
    "socket:type2_combo": "1",
    "socket:type2_combo:current": "125",
    "socket:type2_combo:output": "50kW",
    "socket:type2_combo:voltage": "500",
    "website": "https://www.mobie.pt/",
    "id": "node/8206970203"
  },
  "geometry": {
    "type": "Point",
    "coordinates": [
      -8.9136216,
      37.0796129
    ]
  }
},
{
  "type": "Feature",
  "id": "node/8207138999",
  "properties": {
    "access": "yes",
    "addr:country": "PT",
    "authentication:membership_card": "yes",
    "authentication:none": "no",
    "capacity": "2",
    "fee": "yes",
    "motorcar": "yes",
    "name": "MMN-00001",
    "network": "Mobi.E",
    "opening_hours": "24/7",
    "operator": "Galp Geste",
    "parking:fee": "no",
    "planned:amenity": "charging_station",
    "ref": "MMN-00001",
    "socket:chademo": "1",
    "socket:chademo:current": "120",
    "socket:chademo:output": "50kW",
    "socket:chademo:voltage": "500",
    "socket:type2_cable": "1",
    "socket:type2_cable:current": "63",
    "socket:type2_cable:output": "43kW",
    "socket:type2_cable:voltage": "400",
    "socket:type2_combo": "1",
    "socket:type2_combo:current": "125",
    "socket:type2_combo:output": "50kW",
    "socket:type2_combo:voltage": "500",
    "website": "https://www.mobie.pt/",
    "id": "node/8207138999"
  },
  "geometry": {
    "type": "Point",
    "coordinates": [
      -8.0783968,
      38.6182193
    ]
  }
},
{
  "type": "Feature",
  "id": "node/8207139000",
  "properties": {
    "access": "yes",
    "addr:country": "PT",
    "authentication:membership_card": "yes",
    "authentication:none": "no",
    "capacity": "2",
    "fee": "yes",
    "motorcar": "yes",
    "name": "MMN-00002",
    "network": "Mobi.E",
    "opening_hours": "24/7",
    "operator": "Galp Geste",
    "parking:fee": "no",
    "planned:amenity": "charging_station",
    "ref": "MMN-00002",
    "socket:chademo": "1",
    "socket:chademo:current": "120",
    "socket:chademo:output": "50kW",
    "socket:chademo:voltage": "500",
    "socket:type2_cable": "1",
    "socket:type2_cable:current": "63",
    "socket:type2_cable:output": "43kW",
    "socket:type2_cable:voltage": "400",
    "socket:type2_combo": "1",
    "socket:type2_combo:current": "125",
    "socket:type2_combo:output": "50kW",
    "socket:type2_combo:voltage": "500",
    "website": "https://www.mobie.pt/",
    "id": "node/8207139000"
  },
  "geometry": {
    "type": "Point",
    "coordinates": [
      -8.0799232,
      38.6169414
    ]
  }
},
{
  "type": "Feature",
  "id": "node/8220729785",
  "properties": {
    "access": "yes",
    "addr:city": "Angra do Heroísmo",
    "addr:country": "PT",
    "addr:street": "Via Rápida - Via Vitorino Nemésio",
    "authentication:membership_card": "yes",
    "authentication:none": "no",
    "capacity": "2",
    "fee": "yes",
    "motorcar": "yes",
    "name": "AGH-XXXXX",
    "network": "Mobi.E",
    "opening_hours": "24/7",
    "operator": "Mobi.E",
    "parking:fee": "no",
    "planned:amenity": "charging_station",
    "ref": "AGH-XXXXX",
    "socket:chademo": "1",
    "socket:chademo:current": "120",
    "socket:chademo:output": "50kW",
    "socket:chademo:voltage": "500",
    "socket:type2_cable": "1",
    "socket:type2_cable:current": "63",
    "socket:type2_cable:output": "43kW",
    "socket:type2_cable:voltage": "400",
    "socket:type2_combo": "1",
    "socket:type2_combo:current": "125",
    "socket:type2_combo:output": "50kW",
    "socket:type2_combo:voltage": "500",
    "website": "https://www.mobie.pt/",
    "id": "node/8220729785"
  },
  "geometry": {
    "type": "Point",
    "coordinates": [
      -27.2037786,
      38.6654702
    ]
  }
},
{
  "type": "Feature",
  "id": "node/8222783912",
  "properties": {
    "access": "yes",
    "addr:city": "Sintra",
    "addr:country": "PT",
    "addr:street": "IC 19",
    "authentication:membership_card": "yes",
    "authentication:none": "no",
    "capacity": "2",
    "fee": "yes",
    "motorcar": "yes",
    "name": "SNT-00009",
    "network": "Mobi.E",
    "opening_hours": "24/7",
    "operator": "unknown",
    "parking:fee": "no",
    "planned:amenity": "charging_station",
    "ref": "SNT-00009",
    "socket:chademo": "1",
    "socket:chademo:current": "120",
    "socket:chademo:output": "50kW",
    "socket:chademo:voltage": "500",
    "socket:type2_cable": "1",
    "socket:type2_cable:current": "63",
    "socket:type2_cable:output": "43kW",
    "socket:type2_cable:voltage": "400",
    "socket:type2_combo": "1",
    "socket:type2_combo:current": "125",
    "socket:type2_combo:output": "50kW",
    "socket:type2_combo:voltage": "500",
    "website": "https://www.mobie.pt/",
    "id": "node/8222783912"
  },
  "geometry": {
    "type": "Point",
    "coordinates": [
      -9.2968915,
      38.761878
    ]
  }
},
{
  "type": "Feature",
  "id": "node/8222805988",
  "properties": {
    "access": "yes",
    "addr:city": "Porto Salvo",
    "addr:country": "PT",
    "addr:street": "Avenida Doutor Mário Soares",
    "authentication:membership_card": "yes",
    "authentication:none": "no",
    "capacity": "2",
    "fee": "yes",
    "motorcar": "yes",
    "name": "OER-XXXXX",
    "network": "Mobi.E",
    "opening_hours": "24/7",
    "operator": "unknown",
    "parking:fee": "no",
    "planned:amenity": "charging_station",
    "ref": "OER-XXXXX",
    "socket:chademo": "1",
    "socket:chademo:current": "120",
    "socket:chademo:output": "50kW",
    "socket:chademo:voltage": "500",
    "socket:type2_cable": "1",
    "socket:type2_cable:current": "63",
    "socket:type2_cable:output": "43kW",
    "socket:type2_cable:voltage": "400",
    "socket:type2_combo": "1",
    "socket:type2_combo:current": "125",
    "socket:type2_combo:output": "50kW",
    "socket:type2_combo:voltage": "500",
    "website": "https://www.mobie.pt/",
    "id": "node/8222805988"
  },
  "geometry": {
    "type": "Point",
    "coordinates": [
      -9.3067253,
      38.7419128
    ]
  }
},
{
  "type": "Feature",
  "id": "node/8223094755",
  "properties": {
    "access": "yes",
    "addr:city": "Oeiras",
    "addr:country": "PT",
    "addr:street": "Rua Engenheiro Álvaro Roquette",
    "authentication:membership_card": "yes",
    "authentication:none": "no",
    "capacity": "2",
    "fee": "yes",
    "motorcar": "yes",
    "name": "OER-00010",
    "network": "Mobi.E",
    "opening_hours": "24/7",
    "operator": "Galp Geste",
    "parking:fee": "no",
    "planned:amenity": "charging_station",
    "ref": "OER-00010",
    "socket:chademo": "1",
    "socket:chademo:current": "120",
    "socket:chademo:output": "50kW",
    "socket:chademo:voltage": "500",
    "socket:type2_cable": "1",
    "socket:type2_cable:current": "63",
    "socket:type2_cable:output": "43kW",
    "socket:type2_cable:voltage": "400",
    "socket:type2_combo": "1",
    "socket:type2_combo:current": "125",
    "socket:type2_combo:output": "50kW",
    "socket:type2_combo:voltage": "500",
    "website": "https://www.mobie.pt/",
    "id": "node/8223094755"
  },
  "geometry": {
    "type": "Point",
    "coordinates": [
      -9.3063124,
      38.699737
    ]
  }
},
{
  "type": "Feature",
  "id": "node/8224427792",
  "properties": {
    "access": "yes",
    "addr:city": "Vila Franca de Xira",
    "addr:country": "PT",
    "addr:street": "EN 1",
    "authentication:membership_card": "yes",
    "authentication:none": "no",
    "capacity": "1",
    "fee": "yes",
    "motorcar": "yes",
    "name": "VFX-00002",
    "network": "Mobi.E",
    "opening_hours": "24/7",
    "operator": "Prio.E",
    "parking:fee": "no",
    "planned:amenity": "charging_station",
    "ref": "VFX-00002",
    "socket:chademo": "1",
    "socket:chademo:current": "120",
    "socket:chademo:output": "50kW",
    "socket:chademo:voltage": "500",
    "socket:type2_combo": "1",
    "socket:type2_combo:current": "125",
    "socket:type2_combo:output": "50kW",
    "socket:type2_combo:voltage": "500",
    "website": "https://www.mobie.pt/",
    "id": "node/8224427792"
  },
  "geometry": {
    "type": "Point",
    "coordinates": [
      -8.9711228,
      39.0006502
    ]
  }
},
{
  "type": "Feature",
  "id": "node/8224925045",
  "properties": {
    "access": "yes",
    "addr:city": "Coimbra",
    "addr:country": "PT",
    "addr:street": "Rua Garcia da Horta",
    "authentication:membership_card": "yes",
    "authentication:none": "no",
    "capacity": "10",
    "fee": "yes",
    "motorcar": "yes",
    "name": "CBR-XXXXX",
    "network": "Mobi.E",
    "opening_hours": "24/7",
    "operator": "unknown",
    "parking:fee": "no",
    "planned:amenity": "charging_station",
    "ref": "CBR-XXXXX",
    "socket:type2": "10",
    "socket:type2:current": "32",
    "socket:type2:output": "22kW",
    "socket:type2:voltage": "400",
    "website": "https://www.mobie.pt/",
    "id": "node/8224925045"
  },
  "geometry": {
    "type": "Point",
    "coordinates": [
      -8.412239,
      40.193683
    ]
  }
},
{
  "type": "Feature",
  "id": "node/8224925046",
  "properties": {
    "access": "yes",
    "addr:city": "Coimbra",
    "addr:country": "PT",
    "addr:street": "Rua Garcia da Horta",
    "authentication:membership_card": "yes",
    "authentication:none": "no",
    "capacity": "3",
    "fee": "yes",
    "motorcar": "yes",
    "name": "CBR-XXXXX",
    "network": "Mobi.E",
    "opening_hours": "24/7",
    "operator": "unknown",
    "parking:fee": "no",
    "planned:amenity": "charging_station",
    "ref": "CBR-XXXXX",
    "socket:chademo": "3",
    "socket:chademo:current": "120",
    "socket:chademo:output": "50kW",
    "socket:chademo:voltage": "500",
    "socket:type2_combo": "3",
    "socket:type2_combo:current": "125",
    "socket:type2_combo:output": "50kW",
    "socket:type2_combo:voltage": "500",
    "website": "https://www.mobie.pt/",
    "id": "node/8224925046"
  },
  "geometry": {
    "type": "Point",
    "coordinates": [
      -8.4122229,
      40.1937598
    ]
  }
},
{
  "type": "Feature",
  "id": "node/8224925047",
  "properties": {
    "access": "yes",
    "addr:city": "Coimbra",
    "addr:country": "PT",
    "addr:street": "Rua Garcia da Horta",
    "authentication:membership_card": "yes",
    "authentication:none": "no",
    "capacity": "1",
    "fee": "yes",
    "motorcar": "yes",
    "name": "CBR-XXXXX",
    "network": "Mobi.E",
    "opening_hours": "24/7",
    "operator": "unknown",
    "parking:fee": "no",
    "planned:amenity": "charging_station",
    "ref": "CBR-XXXXX",
    "socket:chademo": "1",
    "socket:chademo:current": "120",
    "socket:chademo:output": "50kW",
    "socket:chademo:voltage": "500",
    "socket:type2_combo": "1",
    "socket:type2_combo:current": "350",
    "socket:type2_combo:output": "160kW",
    "socket:type2_combo:voltage": "920",
    "website": "https://www.mobie.pt/",
    "id": "node/8224925047"
  },
  "geometry": {
    "type": "Point",
    "coordinates": [
      -8.4122886,
      40.1937506
    ]
  }
},
{
  "type": "Feature",
  "id": "node/8225238548",
  "properties": {
    "access": "yes",
    "addr:country": "PT",
    "authentication:membership_card": "yes",
    "authentication:none": "no",
    "capacity": "10",
    "fee": "yes",
    "motorcar": "yes",
    "name": "VIS-XXXXX",
    "network": "Mobi.E",
    "opening_hours": "24/7",
    "operator": "unknown",
    "parking:fee": "no",
    "planned:amenity": "charging_station",
    "ref": "VIS-XXXXX",
    "socket:type2": "2",
    "socket:type2:current": "32",
    "socket:type2:output": "22kW",
    "socket:type2:voltage": "400",
    "website": "https://www.mobie.pt/",
    "id": "node/8225238548"
  },
  "geometry": {
    "type": "Point",
    "coordinates": [
      -7.9090079,
      40.6566953
    ]
  }
},
{
  "type": "Feature",
  "id": "node/8225238549",
  "properties": {
    "access": "yes",
    "addr:city": "Viseu",
    "addr:country": "PT",
    "addr:street": "Rua 5 de Outubro",
    "authentication:membership_card": "yes",
    "authentication:none": "no",
    "capacity": "1",
    "fee": "yes",
    "motorcar": "yes",
    "name": "VIS-XXXXX",
    "network": "Mobi.E",
    "opening_hours": "24/7",
    "operator": "unknown",
    "parking:fee": "no",
    "planned:amenity": "charging_station",
    "ref": "VIS-XXXXX",
    "socket:chademo": "1",
    "socket:chademo:current": "120",
    "socket:chademo:output": "50kW",
    "socket:chademo:voltage": "500",
    "socket:type2_combo": "1",
    "socket:type2_combo:current": "350",
    "socket:type2_combo:output": "160kW",
    "socket:type2_combo:voltage": "920",
    "website": "https://www.mobie.pt/",
    "id": "node/8225238549"
  },
  "geometry": {
    "type": "Point",
    "coordinates": [
      -7.9089415,
      40.6567162
    ]
  }
},
{
  "type": "Feature",
  "id": "node/8225238550",
  "properties": {
    "access": "yes",
    "addr:city": "Viseu",
    "addr:country": "PT",
    "addr:street": "Rua 5 de Outubro",
    "authentication:membership_card": "yes",
    "authentication:none": "no",
    "capacity": "3",
    "fee": "yes",
    "motorcar": "yes",
    "name": "VIS-XXXXX",
    "network": "Mobi.E",
    "opening_hours": "24/7",
    "operator": "unknown",
    "parking:fee": "no",
    "planned:amenity": "charging_station",
    "ref": "VIS-XXXXX",
    "socket:chademo": "3",
    "socket:chademo:current": "120",
    "socket:chademo:output": "50kW",
    "socket:chademo:voltage": "500",
    "socket:type2_combo": "3",
    "socket:type2_combo:current": "125",
    "socket:type2_combo:output": "50kW",
    "socket:type2_combo:voltage": "500",
    "website": "https://www.mobie.pt/",
    "id": "node/8225238550"
  },
  "geometry": {
    "type": "Point",
    "coordinates": [
      -7.9089861,
      40.6567096
    ]
  }
},
{
  "type": "Feature",
  "id": "node/8228846822",
  "properties": {
    "access": "yes",
    "addr:city": "Porto",
    "addr:country": "PT",
    "addr:street": "Rua de José Gomes Ferreira",
    "authentication:membership_card": "yes",
    "authentication:none": "no",
    "capacity": "2",
    "fee": "yes",
    "motorcar": "yes",
    "name": "PRT-XXXXX",
    "network": "Mobi.E",
    "opening_hours": "24/7",
    "operator": "KLC",
    "parking:fee": "no",
    "planned:amenity": "charging_station",
    "ref": "PRT-XXXXX",
    "socket:chademo": "1",
    "socket:chademo:current": "120",
    "socket:chademo:output": "50kW",
    "socket:chademo:voltage": "500",
    "socket:type2_cable": "1",
    "socket:type2_cable:current": "63",
    "socket:type2_cable:output": "43kW",
    "socket:type2_cable:voltage": "400",
    "socket:type2_combo": "1",
    "socket:type2_combo:current": "125",
    "socket:type2_combo:output": "50kW",
    "socket:type2_combo:voltage": "500",
    "website": "https://www.mobie.pt/",
    "id": "node/8228846822"
  },
  "geometry": {
    "type": "Point",
    "coordinates": [
      -8.66736,
      41.1628707
    ]
  }
},
{
  "type": "Feature",
  "id": "node/8229011333",
  "properties": {
    "access": "yes",
    "addr:city": "Maia",
    "addr:country": "PT",
    "authentication:membership_card": "yes",
    "authentication:none": "no",
    "capacity": "2",
    "fee": "yes",
    "motorcar": "yes",
    "name": "MAI-00002",
    "network": "Mobi.E",
    "opening_hours": "24/7",
    "operator": "Galp Geste",
    "parking:fee": "no",
    "planned:amenity": "charging_station",
    "ref": "MAI-00002",
    "socket:chademo": "1",
    "socket:chademo:current": "120",
    "socket:chademo:output": "50kW",
    "socket:chademo:voltage": "500",
    "socket:type2_cable": "1",
    "socket:type2_cable:current": "63",
    "socket:type2_cable:output": "43kW",
    "socket:type2_cable:voltage": "400",
    "socket:type2_combo": "1",
    "socket:type2_combo:current": "125",
    "socket:type2_combo:output": "50kW",
    "socket:type2_combo:voltage": "500",
    "website": "https://www.mobie.pt/",
    "id": "node/8229011333"
  },
  "geometry": {
    "type": "Point",
    "coordinates": [
      -8.5660878,
      41.2002051
    ]
  }
},
{
  "type": "Feature",
  "id": "node/8229011334",
  "properties": {
    "access": "yes",
    "addr:city": "Maia",
    "addr:country": "PT",
    "authentication:membership_card": "yes",
    "authentication:none": "no",
    "capacity": "2",
    "fee": "yes",
    "motorcar": "yes",
    "name": "MAI-00003",
    "network": "Mobi.E",
    "opening_hours": "24/7",
    "operator": "Galp Geste",
    "parking:fee": "no",
    "planned:amenity": "charging_station",
    "ref": "MAI-00003",
    "socket:chademo": "1",
    "socket:chademo:current": "120",
    "socket:chademo:output": "50kW",
    "socket:chademo:voltage": "500",
    "socket:type2_cable": "1",
    "socket:type2_cable:current": "63",
    "socket:type2_cable:output": "43kW",
    "socket:type2_cable:voltage": "400",
    "socket:type2_combo": "1",
    "socket:type2_combo:current": "125",
    "socket:type2_combo:output": "50kW",
    "socket:type2_combo:voltage": "500",
    "website": "https://www.mobie.pt/",
    "id": "node/8229011334"
  },
  "geometry": {
    "type": "Point",
    "coordinates": [
      -8.5683543,
      41.2006107
    ]
  }
},
{
  "type": "Feature",
  "id": "node/8231863153",
  "properties": {
    "access": "yes",
    "addr:city": "Trofa",
    "addr:country": "PT",
    "authentication:membership_card": "yes",
    "authentication:none": "no",
    "capacity": "2",
    "fee": "yes",
    "motorcar": "yes",
    "name": "TRF-00003",
    "network": "Mobi.E",
    "opening_hours": "24/7",
    "operator": "Galp Geste",
    "parking:fee": "no",
    "planned:amenity": "charging_station",
    "ref": "TRF-00003",
    "socket:chademo": "1",
    "socket:chademo:current": "120",
    "socket:chademo:output": "50kW",
    "socket:chademo:voltage": "500",
    "socket:type2_cable": "1",
    "socket:type2_cable:current": "63",
    "socket:type2_cable:output": "43kW",
    "socket:type2_cable:voltage": "400",
    "socket:type2_combo": "1",
    "socket:type2_combo:current": "125",
    "socket:type2_combo:output": "50kW",
    "socket:type2_combo:voltage": "500",
    "website": "https://www.mobie.pt/",
    "id": "node/8231863153"
  },
  "geometry": {
    "type": "Point",
    "coordinates": [
      -8.563242,
      41.263464
    ]
  }
},
{
  "type": "Feature",
  "id": "node/8232010643",
  "properties": {
    "access": "yes",
    "addr:city": "Braga",
    "addr:country": "PT",
    "addr:street": "Rua Carlos Magalhães",
    "authentication:membership_card": "yes",
    "authentication:none": "no",
    "capacity": "1",
    "fee": "yes",
    "motorcar": "yes",
    "name": "BRG-00035",
    "network": "Mobi.E",
    "opening_hours": "24/7",
    "operator": "EVCE",
    "parking:fee": "no",
    "planned:amenity": "charging_station",
    "ref": "BRG-00035",
    "socket:chademo": "1",
    "socket:chademo:current": "120",
    "socket:chademo:output": "50kW",
    "socket:chademo:voltage": "500",
    "socket:type2_combo": "1",
    "socket:type2_combo:current": "125",
    "socket:type2_combo:output": "50kW",
    "socket:type2_combo:voltage": "500",
    "website": "https://www.mobie.pt/",
    "id": "node/8232010643"
  },
  "geometry": {
    "type": "Point",
    "coordinates": [
      -8.4211667,
      41.5643007
    ]
  }
},
{
  "type": "Feature",
  "id": "node/8232128342",
  "properties": {
    "access": "yes",
    "addr:city": "Viana do Castelo",
    "addr:country": "PT",
    "authentication:membership_card": "yes",
    "authentication:none": "no",
    "capacity": "2",
    "fee": "yes",
    "motorcar": "yes",
    "name": "VCT-00015",
    "network": "Mobi.E",
    "opening_hours": "24/7",
    "operator": "KLC",
    "parking:fee": "no",
    "planned:amenity": "charging_station",
    "ref": "VCT-00015",
    "socket:chademo": "1",
    "socket:chademo:current": "120",
    "socket:chademo:output": "50kW",
    "socket:chademo:voltage": "500",
    "socket:type2_cable": "1",
    "socket:type2_cable:current": "63",
    "socket:type2_cable:output": "43kW",
    "socket:type2_cable:voltage": "400",
    "socket:type2_combo": "1",
    "socket:type2_combo:current": "125",
    "socket:type2_combo:output": "50kW",
    "socket:type2_combo:voltage": "500",
    "website": "https://www.mobie.pt/",
    "id": "node/8232128342"
  },
  "geometry": {
    "type": "Point",
    "coordinates": [
      -8.8019961,
      41.7067317
    ]
  }
},
{
  "type": "Feature",
  "id": "node/8232554200",
  "properties": {
    "access": "yes",
    "addr:city": "Amora",
    "addr:country": "PT",
    "authentication:membership_card": "yes",
    "authentication:none": "no",
    "capacity": "2",
    "fee": "yes",
    "motorcar": "yes",
    "name": "SXL-00010 - E.Leclerc",
    "network": "Mobi.E",
    "opening_hours": "24/7",
    "operator": "Powerdot",
    "parking:fee": "no",
    "planned:amenity": "charging_station",
    "ref": "SXL-00010",
    "socket:chademo": "1",
    "socket:chademo:current": "120",
    "socket:chademo:output": "50kW",
    "socket:chademo:voltage": "500",
    "socket:type2_cable": "1",
    "socket:type2_cable:current": "63",
    "socket:type2_cable:output": "43kW",
    "socket:type2_cable:voltage": "400",
    "socket:type2_combo": "1",
    "socket:type2_combo:current": "125",
    "socket:type2_combo:output": "50kW",
    "socket:type2_combo:voltage": "500",
    "website": "https://www.mobie.pt/",
    "id": "node/8232554200"
  },
  "geometry": {
    "type": "Point",
    "coordinates": [
      -9.1113406,
      38.6257201
    ]
  }
},
{
  "type": "Feature",
  "id": "node/8242649494",
  "properties": {
    "access": "yes",
    "addr:country": "PT",
    "authentication:membership_card": "yes",
    "authentication:none": "no",
    "capacity": "1",
    "name": "OER-XXXXX",
    "network": "unknown",
    "opening_hours": "24/7",
    "operator": "unknown",
    "parking:fee": "no",
    "planned:amenity": "charging_station",
    "ref": "OER-XXXXX",
    "socket:type2": "1",
    "socket:type2:current": "16",
    "socket:type2:output": "3.7kW",
    "socket:type2:voltage": "230",
    "id": "node/8242649494"
  },
  "geometry": {
    "type": "Point",
    "coordinates": [
      -9.275636,
      38.7018174
    ]
  }
},
{
  "type": "Feature",
  "id": "node/8255599299",
  "properties": {
    "access": "yes",
    "addr:country": "PT",
    "authentication:membership_card": "yes",
    "authentication:none": "no",
    "capacity": "2",
    "fee": "yes",
    "motorcar": "yes",
    "name": "VIS-00051",
    "network": "Mobi.E",
    "opening_hours": "24/7",
    "operator": "KLC",
    "parking:fee": "no",
    "planned:amenity": "charging_station",
    "ref": "VIS-00051",
    "socket:type2": "2",
    "socket:type2:current": "16",
    "socket:type2:output": "3.7kW",
    "socket:type2:voltage": "230",
    "website": "https://www.mobie.pt/",
    "id": "node/8255599299"
  },
  "geometry": {
    "type": "Point",
    "coordinates": [
      -7.9213357,
      40.6964896
    ]
  }
},
{
  "type": "Feature",
  "id": "node/8255607684",
  "properties": {
    "access": "yes",
    "addr:country": "PT",
    "authentication:membership_card": "yes",
    "authentication:none": "no",
    "capacity": "2",
    "fee": "yes",
    "motorcar": "yes",
    "name": "VIS-00054",
    "network": "Mobi.E",
    "opening_hours": "24/7",
    "operator": "Powerdot",
    "parking:fee": "no",
    "planned:amenity": "charging_station",
    "ref": "VIS-00054",
    "socket:type2": "2",
    "socket:type2:current": "16",
    "socket:type2:output": "3.7kW",
    "socket:type2:voltage": "230",
    "website": "https://www.mobie.pt/",
    "id": "node/8255607684"
  },
  "geometry": {
    "type": "Point",
    "coordinates": [
      -7.9164796,
      40.6618915
    ]
  }
},
{
  "type": "Feature",
  "id": "node/8269928582",
  "properties": {
    "access": "yes",
    "addr:country": "PT",
    "authentication:membership_card": "yes",
    "authentication:none": "no",
    "capacity": "2",
    "fee": "yes",
    "motorcar": "yes",
    "name": "SBA-00002",
    "network": "Mobi.E",
    "opening_hours": "24/7",
    "operator": "unknown",
    "parking:fee": "no",
    "planned:amenity": "charging_station",
    "ref": "SBA-00002",
    "socket:type2": "2",
    "socket:type2:current": "32",
    "socket:type2:output": "22kW",
    "socket:type2:voltage": "400",
    "website": "https://www.mobie.pt/",
    "id": "node/8269928582"
  },
  "geometry": {
    "type": "Point",
    "coordinates": [
      -7.8904815,
      37.1522576
    ]
  }
},
{
  "type": "Feature",
  "id": "node/8270210999",
  "properties": {
    "access": "yes",
    "addr:country": "PT",
    "authentication:membership_card": "yes",
    "authentication:none": "no",
    "capacity": "2",
    "fee": "yes",
    "motorcar": "yes",
    "name": "LGA-00002",
    "network": "Mobi.E",
    "opening_hours": "24/7",
    "operator": "EDP Comercial",
    "parking:fee": "no",
    "planned:amenity": "charging_station",
    "ref": "LGA-00002",
    "socket:type2": "2",
    "socket:type2:current": "32",
    "socket:type2:output": "22kW",
    "socket:type2:voltage": "400",
    "website": "https://www.mobie.pt/",
    "id": "node/8270210999"
  },
  "geometry": {
    "type": "Point",
    "coordinates": [
      -8.5209777,
      37.1246886
    ]
  }
},
{
  "type": "Feature",
  "id": "node/8270219110",
  "properties": {
    "access": "yes",
    "addr:country": "PT",
    "authentication:membership_card": "yes",
    "authentication:none": "no",
    "capacity": "2",
    "fee": "yes",
    "motorcar": "yes",
    "name": "AJZ-00002",
    "network": "Mobi.E",
    "opening_hours": "24/7",
    "operator": "unknown",
    "parking:fee": "no",
    "planned:amenity": "charging_station",
    "ref": "AJZ-00002",
    "socket:type2": "2",
    "socket:type2:current": "32",
    "socket:type2:output": "22kW",
    "socket:type2:voltage": "400",
    "website": "https://www.mobie.pt/",
    "id": "node/8270219110"
  },
  "geometry": {
    "type": "Point",
    "coordinates": [
      -8.8029577,
      37.3165989
    ]
  }
},
{
  "type": "Feature",
  "id": "node/8270238816",
  "properties": {
    "access": "yes",
    "addr:country": "PT",
    "authentication:membership_card": "yes",
    "authentication:none": "no",
    "capacity": "2",
    "fee": "yes",
    "motorcar": "yes",
    "name": "MCQ-00002",
    "network": "Mobi.E",
    "opening_hours": "24/7",
    "operator": "unknown",
    "parking:fee": "no",
    "planned:amenity": "charging_station",
    "ref": "MCQ-00002",
    "socket:type2": "2",
    "socket:type2:current": "32",
    "socket:type2:output": "22kW",
    "socket:type2:voltage": "400",
    "website": "https://www.mobie.pt/",
    "id": "node/8270238816"
  },
  "geometry": {
    "type": "Point",
    "coordinates": [
      -8.5556178,
      37.316152
    ]
  }
},
{
  "type": "Feature",
  "id": "node/8270246279",
  "properties": {
    "access": "yes",
    "addr:country": "PT",
    "authentication:membership_card": "yes",
    "authentication:none": "no",
    "capacity": "2",
    "fee": "yes",
    "motorcar": "yes",
    "name": "PTM-00002",
    "network": "Mobi.E",
    "opening_hours": "24/7",
    "operator": "Prio.E",
    "parking:fee": "no",
    "planned:amenity": "charging_station",
    "ref": "PTM-00002",
    "socket:type2": "2",
    "socket:type2:current": "32",
    "socket:type2:output": "22kW",
    "socket:type2:voltage": "400",
    "website": "https://www.mobie.pt/",
    "id": "node/8270246279"
  },
  "geometry": {
    "type": "Point",
    "coordinates": [
      -8.5508341,
      37.1535936
    ]
  }
},
{
  "type": "Feature",
  "id": "node/8270263220",
  "properties": {
    "access": "yes",
    "addr:country": "PT",
    "authentication:membership_card": "yes",
    "authentication:none": "no",
    "capacity": "2",
    "fee": "yes",
    "motorcar": "yes",
    "name": "VBP-00002",
    "network": "Mobi.E",
    "opening_hours": "24/7",
    "operator": "Powerdot",
    "parking:fee": "no",
    "planned:amenity": "charging_station",
    "ref": "VBP-00002",
    "socket:type2": "2",
    "socket:type2:current": "32",
    "socket:type2:output": "22kW",
    "socket:type2:voltage": "400",
    "website": "https://www.mobie.pt/",
    "id": "node/8270263220"
  },
  "geometry": {
    "type": "Point",
    "coordinates": [
      -8.9124294,
      37.0817677
    ]
  }
},
{
  "type": "Feature",
  "id": "node/8270360530",
  "properties": {
    "access": "yes",
    "addr:country": "PT",
    "authentication:membership_card": "yes",
    "authentication:none": "no",
    "capacity": "2",
    "fee": "yes",
    "motorcar": "yes",
    "name": "PVC-XXXXX",
    "network": "Mobi.E",
    "opening_hours": "24/7",
    "operator": "Mobi.E",
    "parking:fee": "no",
    "planned:amenity": "charging_station",
    "ref": "PVC-XXXXX",
    "socket:type2": "2",
    "socket:type2:current": "32",
    "socket:type2:output": "22kW",
    "socket:type2:voltage": "400",
    "website": "https://www.mobie.pt/",
    "id": "node/8270360530"
  },
  "geometry": {
    "type": "Point",
    "coordinates": [
      -25.2457184,
      37.7465023
    ]
  }
},
{
  "type": "Feature",
  "id": "node/8270425679",
  "properties": {
    "access": "yes",
    "addr:country": "PT",
    "authentication:membership_card": "yes",
    "authentication:none": "no",
    "capacity": "2",
    "fee": "yes",
    "motorcar": "yes",
    "name": "CRV-XXXXX",
    "network": "Mobi.E",
    "opening_hours": "24/7",
    "operator": "Mobi.E",
    "parking:fee": "no",
    "planned:amenity": "charging_station",
    "ref": "CRV-XXXXX",
    "socket:type2": "2",
    "socket:type2:current": "32",
    "socket:type2:output": "22kW",
    "socket:type2:voltage": "400",
    "website": "https://www.mobie.pt/",
    "id": "node/8270425679"
  },
  "geometry": {
    "type": "Point",
    "coordinates": [
      -31.1136004,
      39.6728739
    ]
  }
},
{
  "type": "Feature",
  "id": "node/8270429442",
  "properties": {
    "access": "yes",
    "addr:country": "PT",
    "authentication:membership_card": "yes",
    "authentication:none": "no",
    "capacity": "2",
    "fee": "yes",
    "motorcar": "yes",
    "name": "LGP-00001",
    "network": "Mobi.E",
    "opening_hours": "24/7",
    "operator": "Mobi.E",
    "parking:fee": "no",
    "planned:amenity": "charging_station",
    "ref": "LGP-00001",
    "socket:type2": "2",
    "socket:type2:current": "32",
    "socket:type2:output": "22kW",
    "socket:type2:voltage": "400",
    "website": "https://www.mobie.pt/",
    "id": "node/8270429442"
  },
  "geometry": {
    "type": "Point",
    "coordinates": [
      -28.2516941,
      38.3962367
    ]
  }
},
{
  "type": "Feature",
  "id": "node/8270461717",
  "properties": {
    "access": "yes",
    "addr:country": "PT",
    "authentication:membership_card": "yes",
    "authentication:none": "no",
    "capacity": "2",
    "fee": "yes",
    "motorcar": "yes",
    "name": "SCF-00001",
    "network": "Mobi.E",
    "opening_hours": "24/7",
    "operator": "Galp Power",
    "parking:fee": "no",
    "planned:amenity": "charging_station",
    "ref": "SCF-00001",
    "socket:type2": "2",
    "socket:type2:current": "32",
    "socket:type2:output": "22kW",
    "socket:type2:voltage": "400",
    "website": "https://www.mobie.pt/",
    "id": "node/8270461717"
  },
  "geometry": {
    "type": "Point",
    "coordinates": [
      -31.1300571,
      39.4544245
    ]
  }
},
{
  "type": "Feature",
  "id": "node/8273804468",
  "properties": {
    "access": "yes",
    "addr:country": "PT",
    "authentication:membership_card": "yes",
    "authentication:none": "no",
    "capacity": "2",
    "fee": "yes",
    "motorcar": "yes",
    "name": "SNS-00002",
    "network": "Mobi.E",
    "opening_hours": "24/7",
    "operator": "Powerdot",
    "parking:fee": "no",
    "planned:amenity": "charging_station",
    "ref": "SNS-00002",
    "socket:type2": "2",
    "socket:type2:current": "32",
    "socket:type2:output": "22kW",
    "socket:type2:voltage": "400",
    "website": "https://www.mobie.pt/",
    "id": "node/8273804468"
  },
  "geometry": {
    "type": "Point",
    "coordinates": [
      -8.8659785,
      37.9554932
    ]
  }
},
{
  "type": "Feature",
  "id": "node/8289565051",
  "properties": {
    "access": "yes",
    "addr:country": "PT",
    "authentication:membership_card": "yes",
    "authentication:none": "no",
    "capacity": "2",
    "fee": "yes",
    "motorcar": "yes",
    "name": "ARV-00004",
    "network": "Mobi.E",
    "opening_hours": "24/7",
    "operator": "EV Power",
    "parking:fee": "no",
    "planned:amenity": "charging_station",
    "ref": "ARV-00004",
    "socket:type2": "2",
    "socket:type2:current": "32",
    "socket:type2:output": "22kW",
    "socket:type2:voltage": "400",
    "website": "https://www.mobie.pt/",
    "id": "node/8289565051"
  },
  "geometry": {
    "type": "Point",
    "coordinates": [
      -9.084945,
      38.9981436
    ]
  }
},
{
  "type": "Feature",
  "id": "node/8289952652",
  "properties": {
    "access": "yes",
    "addr:city": "Portalegre",
    "addr:country": "PT",
    "authentication:membership_card": "yes",
    "authentication:none": "no",
    "capacity": "2",
    "fee": "yes",
    "motorcar": "yes",
    "name": "PTG-00011 - LIDL",
    "network": "Mobi.E",
    "opening_hours": "24/7",
    "operator": "KLC",
    "parking:fee": "no",
    "planned:amenity": "charging_station",
    "ref": "PTG-00011",
    "socket:chademo": "1",
    "socket:chademo:current": "120",
    "socket:chademo:output": "50kW",
    "socket:chademo:voltage": "500",
    "socket:type2_cable": "1",
    "socket:type2_cable:current": "63",
    "socket:type2_cable:output": "43kW",
    "socket:type2_cable:voltage": "400",
    "socket:type2_combo": "1",
    "socket:type2_combo:current": "125",
    "socket:type2_combo:output": "50kW",
    "socket:type2_combo:voltage": "500",
    "website": "https://www.mobie.pt/",
    "id": "node/8289952652"
  },
  "geometry": {
    "type": "Point",
    "coordinates": [
      -7.4309555,
      39.2803478
    ]
  }
},
{
  "type": "Feature",
  "id": "node/8303994059",
  "properties": {
    "access": "yes",
    "addr:country": "PT",
    "authentication:membership_card": "yes",
    "authentication:none": "no",
    "capacity": "1",
    "fee": "yes",
    "motorcar": "yes",
    "name": "LSB-00095",
    "network": "Mobi.E",
    "opening_hours": "24/7",
    "operator": "Maksu Services",
    "parking:fee": "yes",
    "planned:amenity": "charging_station",
    "ref": "LSB-00095",
    "socket:type2": "1",
    "socket:type2:current": "32",
    "socket:type2:output": "22kW",
    "socket:type2:voltage": "400",
    "website": "https://www.mobie.pt/",
    "id": "node/8303994059"
  },
  "geometry": {
    "type": "Point",
    "coordinates": [
      -9.1483585,
      38.7352286
    ]
  }
},
{
  "type": "Feature",
  "id": "node/8308913922",
  "properties": {
    "access": "customers",
    "addr:country": "PT",
    "authentication:membership_card": "yes",
    "authentication:none": "no",
    "capacity": "9",
    "email": "apoio.cliente@kmlowcost.com",
    "fee": "yes",
    "motorcar": "yes",
    "name": "OER-00046/47/48/49/50/51/52/53/54",
    "network": "Mobi.E",
    "opening_hours": "24/7",
    "operator": "KLC",
    "parking:fee": "no",
    "phone": "+351 800 296 929",
    "planned:amenity": "charging_station",
    "ref": "OER-00046;OER-00047;OER-00048;OER-00049;OER-00050;OER-00051;OER-00052;OER-00053;OER-00054",
    "socket:type2": "9",
    "socket:type2:current": "32",
    "socket:type2:output": "22kW",
    "socket:type2:voltage": "400",
    "website": "https://www.mobie.pt/",
    "id": "node/8308913922"
  },
  "geometry": {
    "type": "Point",
    "coordinates": [
      -9.2998356,
      38.7107428
    ]
  }
},
{
  "type": "Feature",
  "id": "node/8308917212",
  "properties": {
    "access": "customers",
    "addr:country": "PT",
    "authentication:membership_card": "yes",
    "authentication:none": "no",
    "capacity": "2",
    "fee": "yes",
    "motorcar": "yes",
    "name": "SNT-00043",
    "network": "Mobi.E",
    "opening_hours": "24/7",
    "operator": "Veimonte",
    "parking:fee": "no",
    "planned:amenity": "charging_station",
    "ref": "SNT-00043",
    "socket:type2": "2",
    "socket:type2:current": "32",
    "socket:type2:output": "22kW",
    "socket:type2:voltage": "400",
    "website": "https://www.mobie.pt/",
    "id": "node/8308917212"
  },
  "geometry": {
    "type": "Point",
    "coordinates": [
      -9.3023595,
      38.7613097
    ]
  }
},
{
  "type": "Feature",
  "id": "node/8309457209",
  "properties": {
    "access": "yes",
    "addr:country": "PT",
    "authentication:membership_card": "yes",
    "authentication:none": "no",
    "capacity": "2",
    "fee": "yes",
    "motorcar": "yes",
    "name": "GDM-00001",
    "network": "Mobi.E",
    "opening_hours": "24/7",
    "operator": "Powerdot",
    "parking:fee": "no",
    "planned:amenity": "charging_station",
    "ref": "GDM-00001",
    "socket:type2": "2",
    "socket:type2:current": "32",
    "socket:type2:output": "22kW",
    "socket:type2:voltage": "400",
    "website": "https://www.mobie.pt/",
    "id": "node/8309457209"
  },
  "geometry": {
    "type": "Point",
    "coordinates": [
      -8.5291383,
      41.139559
    ]
  }
},
{
  "type": "Feature",
  "id": "node/8309468833",
  "properties": {
    "access": "yes",
    "addr:country": "PT",
    "authentication:membership_card": "yes",
    "authentication:none": "no",
    "capacity": "2",
    "fee": "yes",
    "motorcar": "yes",
    "name": "ALD-00001",
    "network": "Mobi.E",
    "opening_hours": "24/7",
    "operator": "Galp Power",
    "parking:fee": "no",
    "planned:amenity": "charging_station",
    "ref": "ALD-00001",
    "socket:type2": "2",
    "socket:type2:current": "32",
    "socket:type2:output": "22kW",
    "socket:type2:voltage": "400",
    "website": "https://www.mobie.pt/",
    "id": "node/8309468833"
  },
  "geometry": {
    "type": "Point",
    "coordinates": [
      -6.9055939,
      40.725407
    ]
  }
},
{
  "type": "Feature",
  "id": "node/8309482986",
  "properties": {
    "access": "yes",
    "addr:country": "PT",
    "authentication:membership_card": "yes",
    "authentication:none": "no",
    "capacity": "2",
    "fee": "yes",
    "motorcar": "yes",
    "name": "PVZ-00001",
    "network": "Mobi.E",
    "opening_hours": "24/7",
    "operator": "KLC",
    "parking:fee": "no",
    "planned:amenity": "charging_station",
    "ref": "PVZ-00001",
    "socket:type2": "2",
    "socket:type2:current": "32",
    "socket:type2:output": "22kW",
    "socket:type2:voltage": "400",
    "website": "https://www.mobie.pt/",
    "id": "node/8309482986"
  },
  "geometry": {
    "type": "Point",
    "coordinates": [
      -8.7598895,
      41.3791472
    ]
  }
},
{
  "type": "Feature",
  "id": "node/8309494922",
  "properties": {
    "access": "yes",
    "addr:country": "PT",
    "authentication:membership_card": "yes",
    "authentication:none": "no",
    "capacity": "2",
    "fee": "yes",
    "motorcar": "yes",
    "name": "RSD-00001",
    "network": "Mobi.E",
    "opening_hours": "24/7",
    "operator": "EDP Comercial",
    "parking:fee": "no",
    "planned:amenity": "charging_station",
    "ref": "RSD-00001",
    "socket:type2": "2",
    "socket:type2:current": "32",
    "socket:type2:output": "22kW",
    "socket:type2:voltage": "400",
    "website": "https://www.mobie.pt/",
    "id": "node/8309494922"
  },
  "geometry": {
    "type": "Point",
    "coordinates": [
      -7.9630025,
      41.1065839
    ]
  }
},
{
  "type": "Feature",
  "id": "node/8309502490",
  "properties": {
    "access": "yes",
    "addr:country": "PT",
    "authentication:membership_card": "yes",
    "authentication:none": "no",
    "capacity": "2",
    "fee": "yes",
    "motorcar": "yes",
    "name": "PRG-00001",
    "network": "Mobi.E",
    "opening_hours": "24/7",
    "operator": "KLC",
    "parking:fee": "no",
    "planned:amenity": "charging_station",
    "ref": "PRG-00001",
    "socket:type2": "2",
    "socket:type2:current": "32",
    "socket:type2:output": "22kW",
    "socket:type2:voltage": "400",
    "website": "https://www.mobie.pt/",
    "id": "node/8309502490"
  },
  "geometry": {
    "type": "Point",
    "coordinates": [
      -7.7924059,
      41.1637435
    ]
  }
},
{
  "type": "Feature",
  "id": "node/8309571805",
  "properties": {
    "access": "yes",
    "addr:country": "PT",
    "authentication:membership_card": "yes",
    "authentication:none": "no",
    "capacity": "2",
    "fee": "yes",
    "motorcar": "yes",
    "name": "MAI-00004",
    "network": "Mobi.E",
    "opening_hours": "24/7",
    "operator": "Galp Power",
    "parking:fee": "no",
    "planned:amenity": "charging_station",
    "ref": "MAI-00004",
    "socket:type2": "2",
    "socket:type2:current": "32",
    "socket:type2:output": "22kW",
    "socket:type2:voltage": "400",
    "website": "https://www.mobie.pt/",
    "id": "node/8309571805"
  },
  "geometry": {
    "type": "Point",
    "coordinates": [
      -8.6134167,
      41.2643057
    ]
  }
},
{
  "type": "Feature",
  "id": "node/8309577432",
  "properties": {
    "access": "yes",
    "addr:country": "PT",
    "authentication:membership_card": "yes",
    "authentication:none": "no",
    "capacity": "2",
    "fee": "yes",
    "motorcar": "yes",
    "name": "AFE-00001",
    "network": "Mobi.E",
    "opening_hours": "24/7",
    "operator": "Powerdot",
    "parking:fee": "no",
    "planned:amenity": "charging_station",
    "ref": "AFE-00001",
    "socket:type2": "2",
    "socket:type2:current": "32",
    "socket:type2:output": "22kW",
    "socket:type2:voltage": "400",
    "website": "https://www.mobie.pt/",
    "id": "node/8309577432"
  },
  "geometry": {
    "type": "Point",
    "coordinates": [
      -6.9617754,
      41.3446945
    ]
  }
},
{
  "type": "Feature",
  "id": "node/8312966403",
  "properties": {
    "access": "yes",
    "addr:country": "PT",
    "authentication:membership_card": "yes",
    "authentication:none": "no",
    "capacity": "2",
    "fee": "yes",
    "motorcar": "yes",
    "name": "AVV-00001",
    "network": "Mobi.E",
    "opening_hours": "24/7",
    "operator": "Galp Power",
    "parking:fee": "no",
    "planned:amenity": "charging_station",
    "ref": "AVV-00001",
    "socket:type2": "2",
    "socket:type2:current": "32",
    "socket:type2:output": "22kW",
    "socket:type2:voltage": "400",
    "website": "https://www.mobie.pt/",
    "id": "node/8312966403"
  },
  "geometry": {
    "type": "Point",
    "coordinates": [
      -8.4176765,
      41.8449867
    ]
  }
},
{
  "type": "Feature",
  "id": "node/8313020065",
  "properties": {
    "access": "yes",
    "addr:country": "PT",
    "authentication:membership_card": "yes",
    "authentication:none": "no",
    "capacity": "2",
    "fee": "yes",
    "motorcar": "yes",
    "name": "VLN-00002",
    "network": "Mobi.E",
    "opening_hours": "24/7",
    "operator": "Galp Power",
    "parking:fee": "no",
    "planned:amenity": "charging_station",
    "ref": "VLN-00002",
    "socket:type2": "2",
    "socket:type2:current": "32",
    "socket:type2:output": "22kW",
    "socket:type2:voltage": "400",
    "website": "https://www.mobie.pt/",
    "id": "node/8313020065"
  },
  "geometry": {
    "type": "Point",
    "coordinates": [
      -8.6410341,
      42.0269535
    ]
  }
},
{
  "type": "Feature",
  "id": "node/8313025177",
  "properties": {
    "access": "yes",
    "addr:country": "PT",
    "authentication:membership_card": "yes",
    "authentication:none": "no",
    "capacity": "2",
    "fee": "yes",
    "motorcar": "yes",
    "name": "TBR-00001",
    "network": "Mobi.E",
    "opening_hours": "24/7",
    "operator": "Galp Power",
    "parking:fee": "no",
    "planned:amenity": "charging_station",
    "ref": "TBR-00001",
    "socket:type2": "2",
    "socket:type2:current": "32",
    "socket:type2:output": "22kW",
    "socket:type2:voltage": "400",
    "website": "https://www.mobie.pt/",
    "id": "node/8313025177"
  },
  "geometry": {
    "type": "Point",
    "coordinates": [
      -8.180018,
      41.6755949
    ]
  }
},
{
  "type": "Feature",
  "id": "node/8313038145",
  "properties": {
    "access": "yes",
    "addr:country": "PT",
    "authentication:membership_card": "yes",
    "authentication:none": "no",
    "capacity": "2",
    "fee": "yes",
    "motorcar": "yes",
    "name": "AMR-00001",
    "network": "Mobi.E",
    "opening_hours": "24/7",
    "operator": "Galp Power",
    "parking:fee": "no",
    "planned:amenity": "charging_station",
    "ref": "AMR-00001",
    "socket:type2": "2",
    "socket:type2:current": "32",
    "socket:type2:output": "22kW",
    "socket:type2:voltage": "400",
    "website": "https://www.mobie.pt/",
    "id": "node/8313038145"
  },
  "geometry": {
    "type": "Point",
    "coordinates": [
      -8.3656657,
      41.6273906
    ]
  }
},
{
  "type": "Feature",
  "id": "node/8313044421",
  "properties": {
    "access": "yes",
    "addr:country": "PT",
    "authentication:membership_card": "yes",
    "authentication:none": "no",
    "capacity": "2",
    "fee": "yes",
    "motorcar": "yes",
    "name": "GMR-XXXXX",
    "network": "Mobi.E",
    "opening_hours": "24/7",
    "operator": "unknown",
    "parking:fee": "no",
    "planned:amenity": "charging_station",
    "ref": "GMR-XXXXX",
    "socket:type2": "2",
    "socket:type2:current": "32",
    "socket:type2:output": "22kW",
    "socket:type2:voltage": "400",
    "website": "https://www.mobie.pt/",
    "id": "node/8313044421"
  },
  "geometry": {
    "type": "Point",
    "coordinates": [
      -8.3311303,
      41.4651923
    ]
  }
},
{
  "type": "Feature",
  "id": "node/8313046071",
  "properties": {
    "access": "yes",
    "addr:country": "PT",
    "authentication:membership_card": "yes",
    "authentication:none": "no",
    "capacity": "2",
    "fee": "yes",
    "motorcar": "yes",
    "name": "CMN-00001",
    "network": "Mobi.E",
    "opening_hours": "24/7",
    "operator": "EDP Comercial",
    "parking:fee": "no",
    "planned:amenity": "charging_station",
    "ref": "CMN-00001",
    "socket:type2": "2",
    "socket:type2:current": "32",
    "socket:type2:output": "22kW",
    "socket:type2:voltage": "400",
    "website": "https://www.mobie.pt/",
    "id": "node/8313046071"
  },
  "geometry": {
    "type": "Point",
    "coordinates": [
      -8.8381644,
      41.8789717
    ]
  }
},
{
  "type": "Feature",
  "id": "node/8313052209",
  "properties": {
    "access": "yes",
    "addr:country": "PT",
    "authentication:membership_card": "yes",
    "authentication:none": "no",
    "capacity": "2",
    "fee": "yes",
    "motorcar": "yes",
    "name": "EPS-00001",
    "network": "Mobi.E",
    "opening_hours": "24/7",
    "operator": "EDP Comercial",
    "parking:fee": "no",
    "planned:amenity": "charging_station",
    "ref": "EPS-00001",
    "socket:type2": "2",
    "socket:type2:current": "32",
    "socket:type2:output": "22kW",
    "socket:type2:voltage": "400",
    "website": "https://www.mobie.pt/",
    "id": "node/8313052209"
  },
  "geometry": {
    "type": "Point",
    "coordinates": [
      -8.7805572,
      41.5309637
    ]
  }
},
{
  "type": "Feature",
  "id": "node/8322376684",
  "properties": {
    "access": "yes",
    "addr:country": "PT",
    "authentication:membership_card": "yes",
    "authentication:none": "no",
    "capacity": "4",
    "fee": "yes",
    "motorcar": "yes",
    "name": "SXL-XXXXX",
    "network": "Mobi.E",
    "opening_hours": "24/7",
    "operator": "EDP Comercial",
    "parking:fee": "no",
    "planned:amenity": "charging_station",
    "ref": "SXL-XXXXX",
    "socket:chademo": "2",
    "socket:chademo:current": "120",
    "socket:chademo:output": "50kW",
    "socket:chademo:voltage": "500",
    "socket:type2_cable": "2",
    "socket:type2_cable:current": "63",
    "socket:type2_cable:output": "43kW",
    "socket:type2_cable:voltage": "400",
    "socket:type2_combo": "2",
    "socket:type2_combo:current": "125",
    "socket:type2_combo:output": "50kW",
    "socket:type2_combo:voltage": "500",
    "website": "https://www.mobie.pt/",
    "id": "node/8322376684"
  },
  "geometry": {
    "type": "Point",
    "coordinates": [
      -9.1339007,
      38.6225129
    ]
  }
},
{
  "type": "Feature",
  "id": "node/8322419430",
  "properties": {
    "access": "customers",
    "addr:country": "PT",
    "authentication:membership_card": "yes",
    "authentication:none": "no",
    "capacity": "4",
    "fee": "yes",
    "motorcar": "yes",
    "name": "IPCA-XXXXX",
    "network": "Mobi.E",
    "opening_hours": "24/7",
    "operator": "unknown",
    "parking:fee": "no",
    "planned:amenity": "charging_station",
    "ref": "IPCA-XXXXX",
    "socket:type2": "4",
    "socket:type2:current": "32",
    "socket:type2:output": "22kW",
    "socket:type2:voltage": "400",
    "website": "https://www.mobie.pt/",
    "id": "node/8322419430"
  },
  "geometry": {
    "type": "Point",
    "coordinates": [
      -8.6280549,
      41.5368962
    ]
  }
},
{
  "type": "Feature",
  "id": "node/8362638399",
  "properties": {
    "access": "yes",
    "addr:country": "PT",
    "authentication:membership_card": "yes",
    "authentication:none": "no",
    "capacity": "3",
    "fee": "yes",
    "motorcar": "yes",
    "name": "LRA-00025/26/27 - Parque Estacionamento Maringá",
    "network": "Mobi.E",
    "opening_hours": "24/7",
    "operator": "Maksu Services",
    "parking:fee": "yes",
    "planned:amenity": "charging_station",
    "ref": "LRA-00025;LRA-00026;LRA-00027",
    "socket:type2": "3",
    "socket:type2:current": "32",
    "socket:type2:output": "22kW",
    "socket:type2:voltage": "400",
    "website": "https://www.mobie.pt/",
    "id": "node/8362638399"
  },
  "geometry": {
    "type": "Point",
    "coordinates": [
      -8.8052275,
      39.7489263
    ]
  }
},
{
  "type": "Feature",
  "id": "node/8362651066",
  "properties": {
    "access": "yes",
    "addr:country": "PT",
    "authentication:membership_card": "yes",
    "authentication:none": "no",
    "capacity": "2",
    "fee": "yes",
    "motorcar": "yes",
    "name": "LLE-00050",
    "network": "Mobi.E",
    "opening_hours": "24/7",
    "operator": "EV Power",
    "parking:fee": "no",
    "planned:amenity": "charging_station",
    "ref": "LLE-00050",
    "socket:type2": "2",
    "socket:type2:current": "32",
    "socket:type2:output": "22kW",
    "socket:type2:voltage": "400",
    "website": "https://www.mobie.pt/",
    "id": "node/8362651066"
  },
  "geometry": {
    "type": "Point",
    "coordinates": [
      -8.1204917,
      37.082414
    ]
  }
},
{
  "type": "Feature",
  "id": "node/8385321313",
  "properties": {
    "access": "yes",
    "addr:country": "PT",
    "authentication:membership_card": "yes",
    "authentication:none": "no",
    "capacity": "2",
    "fee": "yes",
    "motorcar": "yes",
    "name": "PNF-00002",
    "network": "Mobi.E",
    "opening_hours": "24/7",
    "operator": "EDP Comercial",
    "parking:fee": "no",
    "planned:amenity": "charging_station",
    "ref": "PNF-00002",
    "socket:chademo": "1",
    "socket:chademo:current": "120",
    "socket:chademo:output": "50kW",
    "socket:chademo:voltage": "500",
    "socket:type2_cable": "1",
    "socket:type2_cable:current": "63",
    "socket:type2_cable:output": "43kW",
    "socket:type2_cable:voltage": "400",
    "socket:type2_combo": "1",
    "socket:type2_combo:current": "125",
    "socket:type2_combo:output": "50kW",
    "socket:type2_combo:voltage": "500",
    "website": "https://www.mobie.pt/",
    "id": "node/8385321313"
  },
  "geometry": {
    "type": "Point",
    "coordinates": [
      -8.1792006,
      41.2329894
    ]
  }
},
{
  "type": "Feature",
  "id": "node/8385321314",
  "properties": {
    "access": "yes",
    "addr:country": "PT",
    "authentication:membership_card": "yes",
    "authentication:none": "no",
    "capacity": "2",
    "fee": "yes",
    "motorcar": "yes",
    "name": "PNF-00003",
    "network": "Mobi.E",
    "opening_hours": "24/7",
    "operator": "EDP Comercial",
    "parking:fee": "no",
    "planned:amenity": "charging_station",
    "ref": "PNF-00003",
    "socket:chademo": "1",
    "socket:chademo:current": "120",
    "socket:chademo:output": "50kW",
    "socket:chademo:voltage": "500",
    "socket:type2_cable": "1",
    "socket:type2_cable:current": "63",
    "socket:type2_cable:output": "43kW",
    "socket:type2_cable:voltage": "400",
    "socket:type2_combo": "1",
    "socket:type2_combo:current": "125",
    "socket:type2_combo:output": "50kW",
    "socket:type2_combo:voltage": "500",
    "website": "https://www.mobie.pt/",
    "id": "node/8385321314"
  },
  "geometry": {
    "type": "Point",
    "coordinates": [
      -8.1787688,
      41.2331205
    ]
  }
},
{
  "type": "Feature",
  "id": "node/8385342223",
  "properties": {
    "access": "yes",
    "addr:city": "Porto",
    "addr:country": "PT",
    "addr:street": "Estrada da Circunvalação",
    "authentication:membership_card": "yes",
    "authentication:none": "no",
    "capacity": "2",
    "fee": "yes",
    "motorcar": "yes",
    "name": "PRT-XXXXX",
    "network": "Mobi.E",
    "opening_hours": "24/7",
    "operator": "Galp Geste",
    "parking:fee": "no",
    "planned:amenity": "charging_station",
    "ref": "PRT-XXXXX",
    "socket:chademo": "1",
    "socket:chademo:current": "120",
    "socket:chademo:output": "50kW",
    "socket:chademo:voltage": "500",
    "socket:type2_cable": "1",
    "socket:type2_cable:current": "63",
    "socket:type2_cable:output": "43kW",
    "socket:type2_cable:voltage": "400",
    "socket:type2_combo": "1",
    "socket:type2_combo:current": "125",
    "socket:type2_combo:output": "50kW",
    "socket:type2_combo:voltage": "500",
    "website": "https://www.mobie.pt/",
    "id": "node/8385342223"
  },
  "geometry": {
    "type": "Point",
    "coordinates": [
      -8.5781778,
      41.1458363
    ]
  }
},
{
  "type": "Feature",
  "id": "node/8385348937",
  "properties": {
    "access": "yes",
    "addr:city": "Vila Nova de Gaia",
    "addr:country": "PT",
    "addr:street": "Via 8",
    "authentication:membership_card": "yes",
    "authentication:none": "no",
    "capacity": "2",
    "fee": "yes",
    "motorcar": "yes",
    "name": "VNG-XXXXX",
    "network": "Mobi.E",
    "opening_hours": "24/7",
    "operator": "Galp Geste",
    "parking:fee": "no",
    "planned:amenity": "charging_station",
    "ref": "VNG-XXXXX",
    "socket:chademo": "1",
    "socket:chademo:current": "120",
    "socket:chademo:output": "50kW",
    "socket:chademo:voltage": "500",
    "socket:type2_cable": "1",
    "socket:type2_cable:current": "63",
    "socket:type2_cable:output": "43kW",
    "socket:type2_cable:voltage": "400",
    "socket:type2_combo": "1",
    "socket:type2_combo:current": "125",
    "socket:type2_combo:output": "50kW",
    "socket:type2_combo:voltage": "500",
    "website": "https://www.mobie.pt/",
    "id": "node/8385348937"
  },
  "geometry": {
    "type": "Point",
    "coordinates": [
      -8.6341676,
      41.1402564
    ]
  }
},
{
  "type": "Feature",
  "id": "node/8385449288",
  "properties": {
    "access": "private",
    "addr:city": "Lisboa",
    "addr:country": "PT",
    "addr:street": "Praça do Município",
    "authentication:membership_card": "yes",
    "authentication:none": "no",
    "capacity": "2",
    "fee": "yes",
    "motorcar": "yes",
    "name": "CML-00047",
    "network": "Mobi.E",
    "opening_hours": "24/7",
    "operator": "EV Power",
    "parking:fee": "no",
    "planned:amenity": "charging_station",
    "ref": "CML-00047",
    "socket:chademo": "1",
    "socket:chademo:current": "120",
    "socket:chademo:output": "50kW",
    "socket:chademo:voltage": "500",
    "socket:type2_cable": "1",
    "socket:type2_cable:current": "63",
    "socket:type2_cable:output": "43kW",
    "socket:type2_cable:voltage": "400",
    "socket:type2_combo": "1",
    "socket:type2_combo:current": "125",
    "socket:type2_combo:output": "50kW",
    "socket:type2_combo:voltage": "500",
    "website": "https://www.mobie.pt/",
    "id": "node/8385449288"
  },
  "geometry": {
    "type": "Point",
    "coordinates": [
      -9.139532,
      38.7080146
    ]
  }
},
{
  "type": "Feature",
  "id": "node/8385464352",
  "properties": {
    "access": "yes",
    "addr:city": "Oeiras",
    "addr:country": "PT",
    "authentication:membership_card": "yes",
    "authentication:none": "no",
    "capacity": "1",
    "fee": "yes",
    "motorcar": "yes",
    "name": "OER-XXXXX - Quinta do Marquês",
    "network": "Mobi.E",
    "opening_hours": "24/7",
    "operator": "Mobiletric",
    "parking:fee": "no",
    "planned:amenity": "charging_station",
    "ref": "OER-XXXXX",
    "socket:chademo": "1",
    "socket:chademo:current": "120",
    "socket:chademo:output": "50kW",
    "socket:chademo:voltage": "500",
    "socket:type2_combo": "1",
    "socket:type2_combo:current": "350",
    "socket:type2_combo:output": "160kW",
    "socket:type2_combo:voltage": "920",
    "website": "https://www.mobie.pt/",
    "id": "node/8385464352"
  },
  "geometry": {
    "type": "Point",
    "coordinates": [
      -9.3294793,
      38.6959231
    ]
  }
},
{
  "type": "Feature",
  "id": "node/8385467612",
  "properties": {
    "access": "yes",
    "addr:city": "Cascais",
    "addr:country": "PT",
    "addr:street": "Rua Doutor Manuel de Arriaga",
    "authentication:membership_card": "yes",
    "authentication:none": "no",
    "capacity": "2",
    "fee": "yes",
    "motorcar": "yes",
    "name": "CSC-XXXXX",
    "network": "Mobi.E",
    "opening_hours": "24/7",
    "operator": "unknown",
    "parking:fee": "no",
    "planned:amenity": "charging_station",
    "ref": "CSC-XXXXX",
    "socket:chademo": "1",
    "socket:chademo:current": "120",
    "socket:chademo:output": "50kW",
    "socket:chademo:voltage": "500",
    "socket:type2_cable": "1",
    "socket:type2_cable:current": "63",
    "socket:type2_cable:output": "43kW",
    "socket:type2_cable:voltage": "400",
    "socket:type2_combo": "1",
    "socket:type2_combo:current": "125",
    "socket:type2_combo:output": "50kW",
    "socket:type2_combo:voltage": "500",
    "website": "https://www.mobie.pt/",
    "id": "node/8385467612"
  },
  "geometry": {
    "type": "Point",
    "coordinates": [
      -9.337707,
      38.6879353
    ]
  }
},
{
  "type": "Feature",
  "id": "node/8385485018",
  "properties": {
    "access": "yes",
    "addr:city": "Oeiras",
    "addr:country": "PT",
    "authentication:membership_card": "yes",
    "authentication:none": "no",
    "capacity": "1",
    "fee": "yes",
    "motorcar": "yes",
    "name": "OER-00083 - Jardim de Oeiras",
    "network": "Mobi.E",
    "opening_hours": "24/7",
    "operator": "Galp Power",
    "parking:fee": "no",
    "planned:amenity": "charging_station",
    "ref": "OER-00083",
    "socket:chademo": "1",
    "socket:chademo:current": "120",
    "socket:chademo:output": "50kW",
    "socket:chademo:voltage": "500",
    "socket:type2_combo": "1",
    "socket:type2_combo:current": "350",
    "socket:type2_combo:output": "160kW",
    "socket:type2_combo:voltage": "920",
    "website": "https://www.mobie.pt/",
    "id": "node/8385485018"
  },
  "geometry": {
    "type": "Point",
    "coordinates": [
      -9.3136972,
      38.6851685
    ]
  }
},
{
  "type": "Feature",
  "id": "node/8387626477",
  "properties": {
    "access": "yes",
    "addr:country": "PT",
    "authentication:membership_card": "yes",
    "authentication:none": "no",
    "capacity": "2",
    "fee": "yes",
    "motorcar": "yes",
    "name": "VND-00002",
    "network": "Mobi.E",
    "opening_hours": "24/7",
    "operator": "EDP Comercial",
    "parking:fee": "no",
    "planned:amenity": "charging_station",
    "ref": "VND-00002",
    "socket:chademo": "1",
    "socket:chademo:current": "120",
    "socket:chademo:output": "50kW",
    "socket:chademo:voltage": "500",
    "socket:type2_cable": "1",
    "socket:type2_cable:current": "63",
    "socket:type2_cable:output": "43kW",
    "socket:type2_cable:voltage": "400",
    "socket:type2_combo": "1",
    "socket:type2_combo:current": "125",
    "socket:type2_combo:output": "50kW",
    "socket:type2_combo:voltage": "500",
    "website": "https://www.mobie.pt/",
    "id": "node/8387626477"
  },
  "geometry": {
    "type": "Point",
    "coordinates": [
      -8.5804993,
      38.6202633
    ]
  }
},
{
  "type": "Feature",
  "id": "node/8387626478",
  "properties": {
    "access": "yes",
    "addr:country": "PT",
    "authentication:membership_card": "yes",
    "authentication:none": "no",
    "capacity": "2",
    "fee": "yes",
    "motorcar": "yes",
    "name": "VND-XXXXX",
    "network": "Mobi.E",
    "opening_hours": "24/7",
    "operator": "EDP Comercial",
    "parking:fee": "no",
    "planned:amenity": "charging_station",
    "ref": "VND-XXXXX",
    "socket:chademo": "1",
    "socket:chademo:current": "120",
    "socket:chademo:output": "50kW",
    "socket:chademo:voltage": "500",
    "socket:type2_cable": "1",
    "socket:type2_cable:current": "63",
    "socket:type2_cable:output": "43kW",
    "socket:type2_cable:voltage": "400",
    "socket:type2_combo": "1",
    "socket:type2_combo:current": "125",
    "socket:type2_combo:output": "50kW",
    "socket:type2_combo:voltage": "500",
    "website": "https://www.mobie.pt/",
    "id": "node/8387626478"
  },
  "geometry": {
    "type": "Point",
    "coordinates": [
      -8.57797,
      38.6228304
    ]
  }
},
{
  "type": "Feature",
  "id": "node/8395290184",
  "properties": {
    "access": "customers",
    "addr:country": "PT",
    "authentication:membership_card": "yes",
    "authentication:none": "no",
    "capacity": "2",
    "fee": "yes",
    "motorcar": "yes",
    "name": "EVR-00016",
    "network": "Mobi.E",
    "opening_hours": "24/7",
    "operator": "Veimonte",
    "parking:fee": "no",
    "planned:amenity": "charging_station",
    "ref": "EVR-00016",
    "socket:type2": "2",
    "socket:type2:current": "32",
    "socket:type2:output": "22kW",
    "socket:type2:voltage": "400",
    "website": "https://www.mobie.pt/",
    "id": "node/8395290184"
  },
  "geometry": {
    "type": "Point",
    "coordinates": [
      -7.9701573,
      38.5532863
    ]
  }
},
{
  "type": "Feature",
  "id": "node/8400118013",
  "properties": {
    "access": "yes",
    "addr:country": "PT",
    "authentication:membership_card": "yes",
    "authentication:none": "no",
    "capacity": "2",
    "fee": "yes",
    "motorcar": "yes",
    "name": "BRR-XXXXX",
    "network": "Mobi.E",
    "opening_hours": "24/7",
    "operator": "EDP Comercial",
    "parking:fee": "no",
    "planned:amenity": "charging_station",
    "ref": "BRR-XXXXX",
    "socket:type2": "2",
    "socket:type2:current": "32",
    "socket:type2:output": "22kW",
    "socket:type2:voltage": "400",
    "website": "https://www.mobie.pt/",
    "id": "node/8400118013"
  },
  "geometry": {
    "type": "Point",
    "coordinates": [
      -9.0784688,
      38.6608281
    ]
  }
},
{
  "type": "Feature",
  "id": "node/8400148852",
  "properties": {
    "access": "yes",
    "addr:country": "PT",
    "authentication:membership_card": "yes",
    "authentication:none": "no",
    "capacity": "2",
    "fee": "yes",
    "motorcar": "yes",
    "name": "VLC-00001",
    "network": "Mobi.E",
    "opening_hours": "24/7",
    "operator": "EDP Comercial",
    "parking:fee": "no",
    "planned:amenity": "charging_station",
    "ref": "VLC-00001",
    "socket:type2": "2",
    "socket:type2:current": "32",
    "socket:type2:output": "22kW",
    "socket:type2:voltage": "400",
    "website": "https://www.mobie.pt/",
    "id": "node/8400148852"
  },
  "geometry": {
    "type": "Point",
    "coordinates": [
      -8.3958426,
      40.8428273
    ]
  }
},
{
  "type": "Feature",
  "id": "node/8402879606",
  "properties": {
    "access": "yes",
    "addr:country": "PT",
    "authentication:membership_card": "yes",
    "authentication:none": "no",
    "capacity": "2",
    "fee": "yes",
    "motorcar": "yes",
    "name": "CNT-00001",
    "network": "Mobi.E",
    "opening_hours": "24/7",
    "operator": "Mobiletric",
    "parking:fee": "no",
    "planned:amenity": "charging_station",
    "ref": "CNT-00001",
    "socket:chademo": "1",
    "socket:chademo:current": "120",
    "socket:chademo:output": "50kW",
    "socket:chademo:voltage": "500",
    "socket:type2_cable": "1",
    "socket:type2_cable:current": "63",
    "socket:type2_cable:output": "43kW",
    "socket:type2_cable:voltage": "400",
    "socket:type2_combo": "1",
    "socket:type2_combo:current": "125",
    "socket:type2_combo:output": "50kW",
    "socket:type2_combo:voltage": "500",
    "website": "https://www.mobie.pt/",
    "id": "node/8402879606"
  },
  "geometry": {
    "type": "Point",
    "coordinates": [
      -8.4943172,
      40.3329425
    ]
  }
},
{
  "type": "Feature",
  "id": "node/8406136876",
  "properties": {
    "access": "yes",
    "addr:country": "PT",
    "authentication:membership_card": "yes",
    "authentication:none": "no",
    "capacity": "2",
    "fee": "yes",
    "motorcar": "yes",
    "name": "CLB-00008 - Intermarché",
    "network": "Mobi.E",
    "opening_hours": "24/7",
    "operator": "EDP Comercial",
    "parking:fee": "no",
    "planned:amenity": "charging_station",
    "ref": "CLB-00008",
    "socket:type2": "2",
    "socket:type2:current": "32",
    "socket:type2:output": "22kW",
    "socket:type2:voltage": "400",
    "website": "https://www.mobie.pt/",
    "id": "node/8406136876"
  },
  "geometry": {
    "type": "Point",
    "coordinates": [
      -7.3870584,
      40.6438683
    ]
  }
},
{
  "type": "Feature",
  "id": "node/8419322091",
  "properties": {
    "access": "yes",
    "addr:country": "PT",
    "authentication:membership_card": "yes",
    "authentication:none": "no",
    "capacity": "2",
    "fee": "yes",
    "motorcar": "yes",
    "name": "VIS-00007",
    "network": "Mobi.E",
    "opening_hours": "Mo-Sa 09:00-20:00",
    "operator": "Powerdot",
    "parking:fee": "no",
    "planned:amenity": "charging_station",
    "ref": "VIS-00007",
    "socket:type2": "2",
    "socket:type2:current": "32",
    "socket:type2:output": "22kW",
    "socket:type2:voltage": "400",
    "website": "https://www.mobie.pt/",
    "id": "node/8419322091"
  },
  "geometry": {
    "type": "Point",
    "coordinates": [
      -7.9323703,
      40.6694457
    ]
  }
},
{
  "type": "Feature",
  "id": "node/8421433078",
  "properties": {
    "access": "yes",
    "addr:country": "PT",
    "authentication:membership_card": "yes",
    "authentication:none": "no",
    "capacity": "2",
    "fee": "yes",
    "motorcar": "yes",
    "name": "SXL-00009 - E.Leclerc",
    "network": "Mobi.E",
    "opening_hours": "24/7",
    "operator": "Powerdot",
    "parking:fee": "no",
    "planned:amenity": "charging_station",
    "ref": "SXL-00009",
    "socket:type2": "2",
    "socket:type2:current": "32",
    "socket:type2:output": "22kW",
    "socket:type2:voltage": "400",
    "website": "https://www.mobie.pt/",
    "id": "node/8421433078"
  },
  "geometry": {
    "type": "Point",
    "coordinates": [
      -9.1113366,
      38.625696
    ]
  }
},
{
  "type": "Feature",
  "id": "node/8436137429",
  "properties": {
    "access": "yes",
    "addr:country": "PT",
    "authentication:membership_card": "yes",
    "authentication:none": "no",
    "capacity": "6",
    "fee": "yes",
    "motorcar": "yes",
    "name": "AMD-00037/38/39",
    "network": "Mobi.E",
    "opening_hours": "24/7",
    "operator": "E-Plug",
    "parking:fee": "no",
    "planned:amenity": "charging_station",
    "ref": "AMD-00037;AMD-00038;AMD-00039",
    "socket:type2": "6",
    "socket:type2:current": "32",
    "socket:type2:output": "7.4kW",
    "socket:type2:voltage": "230",
    "website": "https://www.mobie.pt/",
    "id": "node/8436137429"
  },
  "geometry": {
    "type": "Point",
    "coordinates": [
      -9.219954,
      38.7769387
    ]
  }
},
{
  "type": "Feature",
  "id": "node/8440779645",
  "properties": {
    "access": "yes",
    "addr:city": "Braga",
    "addr:country": "PT",
    "addr:street": "Rua Infante Dom Henrique",
    "authentication:membership_card": "yes",
    "authentication:none": "no",
    "capacity": "2",
    "fee": "yes",
    "motorcar": "yes",
    "name": "BRG-00028",
    "network": "Mobi.E",
    "opening_hours": "24/7",
    "operator": "Powerdot",
    "parking:fee": "no",
    "planned:amenity": "charging_station",
    "ref": "BRG-00028",
    "socket:chademo": "1",
    "socket:chademo:current": "120",
    "socket:chademo:output": "50kW",
    "socket:chademo:voltage": "500",
    "socket:type2_cable": "1",
    "socket:type2_cable:current": "63",
    "socket:type2_cable:output": "43kW",
    "socket:type2_cable:voltage": "400",
    "socket:type2_combo": "1",
    "socket:type2_combo:current": "125",
    "socket:type2_combo:output": "50kW",
    "socket:type2_combo:voltage": "500",
    "website": "https://www.mobie.pt/",
    "id": "node/8440779645"
  },
  "geometry": {
    "type": "Point",
    "coordinates": [
      -8.381562,
      41.5680899
    ]
  }
},
{
  "type": "Feature",
  "id": "node/8440984274",
  "properties": {
    "access": "yes",
    "addr:city": "Vila Franca de Xira",
    "addr:country": "PT",
    "authentication:membership_card": "yes",
    "authentication:none": "no",
    "capacity": "2",
    "fee": "yes",
    "motorcar": "yes",
    "name": "VFX-00017 - Intermarché",
    "network": "Mobi.E",
    "opening_hours": "24/7",
    "operator": "Mobiletric",
    "parking:fee": "no",
    "planned:amenity": "charging_station",
    "ref": "VFX-00017",
    "socket:chademo": "1",
    "socket:chademo:current": "120",
    "socket:chademo:output": "50kW",
    "socket:chademo:voltage": "500",
    "socket:type2_cable": "1",
    "socket:type2_cable:current": "63",
    "socket:type2_cable:output": "43kW",
    "socket:type2_cable:voltage": "400",
    "socket:type2_combo": "1",
    "socket:type2_combo:current": "125",
    "socket:type2_combo:output": "50kW",
    "socket:type2_combo:voltage": "500",
    "website": "https://www.mobie.pt/",
    "id": "node/8440984274"
  },
  "geometry": {
    "type": "Point",
    "coordinates": [
      -9.016879,
      38.9313698
    ]
  }
},
{
  "type": "Feature",
  "id": "node/8445321004",
  "properties": {
    "access": "yes",
    "addr:city": "Odivelas",
    "addr:country": "PT",
    "authentication:membership_card": "yes",
    "authentication:none": "no",
    "capacity": "2",
    "fee": "yes",
    "motorcar": "yes",
    "name": "ODV-00008",
    "network": "Mobi.E",
    "opening_hours": "24/7",
    "operator": "Powerdot",
    "parking:fee": "no",
    "planned:amenity": "charging_station",
    "ref": "ODV-00008",
    "socket:chademo": "1",
    "socket:chademo:current": "120",
    "socket:chademo:output": "50kW",
    "socket:chademo:voltage": "500",
    "socket:type2_cable": "1",
    "socket:type2_cable:current": "63",
    "socket:type2_cable:output": "43kW",
    "socket:type2_cable:voltage": "400",
    "socket:type2_combo": "1",
    "socket:type2_combo:current": "125",
    "socket:type2_combo:output": "50kW",
    "socket:type2_combo:voltage": "500",
    "website": "https://www.mobie.pt/",
    "id": "node/8445321004"
  },
  "geometry": {
    "type": "Point",
    "coordinates": [
      -9.1932707,
      38.7823546
    ]
  }
},
{
  "type": "Feature",
  "id": "node/8461100789",
  "properties": {
    "access": "private",
    "addr:city": "Bragança",
    "addr:country": "PT",
    "addr:street": "Largo Forte São João de Deus",
    "authentication:membership_card": "yes",
    "authentication:none": "no",
    "capacity": "2",
    "fee": "yes",
    "motorcar": "yes",
    "name": "BGC-00004",
    "network": "Mobi.E",
    "opening_hours": "24/7",
    "operator": "Mobiletric",
    "parking:fee": "no",
    "planned:amenity": "charging_station",
    "ref": "BGC-00004",
    "socket:chademo": "1",
    "socket:chademo:current": "120",
    "socket:chademo:output": "50kW",
    "socket:chademo:voltage": "500",
    "socket:type2_cable": "1",
    "socket:type2_cable:current": "63",
    "socket:type2_cable:output": "43kW",
    "socket:type2_cable:voltage": "400",
    "socket:type2_combo": "1",
    "socket:type2_combo:current": "125",
    "socket:type2_combo:output": "50kW",
    "socket:type2_combo:voltage": "500",
    "website": "https://www.mobie.pt/",
    "id": "node/8461100789"
  },
  "geometry": {
    "type": "Point",
    "coordinates": [
      -6.7647723,
      41.805098
    ]
  }
},
{
  "type": "Feature",
  "id": "node/8461369930",
  "properties": {
    "access": "private",
    "addr:country": "PT",
    "authentication:membership_card": "yes",
    "authentication:none": "no",
    "capacity": "4",
    "fee": "yes",
    "motorcar": "yes",
    "name": "CSC-00024/25",
    "network": "Mobi.E",
    "opening_hours": "24/7",
    "operator": "Cascais Proxima",
    "parking:fee": "no",
    "planned:amenity": "charging_station",
    "ref": "CSC-00024;CSC-00025",
    "socket:type2": "4",
    "socket:type2:current": "32",
    "socket:type2:output": "22kW",
    "socket:type2:voltage": "400",
    "website": "https://www.mobie.pt/",
    "id": "node/8461369930"
  },
  "geometry": {
    "type": "Point",
    "coordinates": [
      -9.4206263,
      38.6968958
    ]
  }
},
{
  "type": "Feature",
  "id": "node/8461807809",
  "properties": {
    "access": "yes",
    "addr:city": "Rio Tinto",
    "addr:country": "PT",
    "addr:street": "Avenida Infante Dom Henrique",
    "authentication:membership_card": "yes",
    "authentication:none": "no",
    "capacity": "2",
    "fee": "yes",
    "motorcar": "yes",
    "name": "GDM-00002",
    "network": "Mobi.E",
    "opening_hours": "24/7",
    "operator": "KLC",
    "parking:fee": "no",
    "planned:amenity": "charging_station",
    "ref": "GDM-00002",
    "socket:chademo": "1",
    "socket:chademo:current": "120",
    "socket:chademo:output": "50kW",
    "socket:chademo:voltage": "500",
    "socket:type2_cable": "1",
    "socket:type2_cable:current": "63",
    "socket:type2_cable:output": "43kW",
    "socket:type2_cable:voltage": "400",
    "socket:type2_combo": "1",
    "socket:type2_combo:current": "125",
    "socket:type2_combo:output": "50kW",
    "socket:type2_combo:voltage": "500",
    "website": "https://www.mobie.pt/",
    "id": "node/8461807809"
  },
  "geometry": {
    "type": "Point",
    "coordinates": [
      -8.5474786,
      41.1710851
    ]
  }
},
{
  "type": "Feature",
  "id": "node/8461905041",
  "properties": {
    "access": "yes",
    "addr:country": "PT",
    "authentication:membership_card": "yes",
    "authentication:none": "no",
    "capacity": "2",
    "fee": "yes",
    "motorcar": "yes",
    "name": "LRA-00018",
    "network": "Mobi.E",
    "opening_hours": "24/7",
    "operator": "Iberdrola",
    "parking:fee": "no",
    "planned:amenity": "charging_station",
    "ref": "LRA-00018",
    "socket:chademo": "1",
    "socket:chademo:current": "120",
    "socket:chademo:output": "50kW",
    "socket:chademo:voltage": "500",
    "socket:type2_cable": "1",
    "socket:type2_cable:current": "63",
    "socket:type2_cable:output": "43kW",
    "socket:type2_cable:voltage": "400",
    "socket:type2_combo": "1",
    "socket:type2_combo:current": "125",
    "socket:type2_combo:output": "50kW",
    "socket:type2_combo:voltage": "500",
    "website": "https://www.mobie.pt/",
    "id": "node/8461905041"
  },
  "geometry": {
    "type": "Point",
    "coordinates": [
      -8.833534,
      39.731164
    ]
  }
},
{
  "type": "Feature",
  "id": "node/8462115911",
  "properties": {
    "access": "private",
    "addr:city": "Lisboa",
    "addr:country": "PT",
    "addr:street": "Rua Dom Luís I",
    "authentication:membership_card": "yes",
    "authentication:none": "no",
    "capacity": "2",
    "fee": "yes",
    "motorcar": "yes",
    "name": "LSB-01533",
    "network": "Mobi.E",
    "opening_hours": "24/7",
    "operator": "EV Power",
    "parking:fee": "no",
    "planned:amenity": "charging_station",
    "ref": "LSB-01533",
    "socket:chademo": "1",
    "socket:chademo:current": "120",
    "socket:chademo:output": "50kW",
    "socket:chademo:voltage": "500",
    "socket:type2_cable": "1",
    "socket:type2_cable:current": "63",
    "socket:type2_cable:output": "43kW",
    "socket:type2_cable:voltage": "400",
    "socket:type2_combo": "1",
    "socket:type2_combo:current": "125",
    "socket:type2_combo:output": "50kW",
    "socket:type2_combo:voltage": "500",
    "website": "https://www.mobie.pt/",
    "id": "node/8462115911"
  },
  "geometry": {
    "type": "Point",
    "coordinates": [
      -9.1500246,
      38.7076841
    ]
  }
},
{
  "type": "Feature",
  "id": "node/8477405036",
  "properties": {
    "access": "yes",
    "addr:city": "Lousada",
    "addr:country": "PT",
    "authentication:membership_card": "yes",
    "authentication:none": "no",
    "capacity": "2",
    "fee": "yes",
    "motorcar": "yes",
    "name": "LOU-XXXXX - Pingo Doce",
    "network": "Mobi.E",
    "opening_hours": "24/7",
    "operator": "KLC",
    "parking:fee": "no",
    "planned:amenity": "charging_station",
    "ref": "LOU-XXXXX",
    "socket:chademo": "1",
    "socket:chademo:current": "120",
    "socket:chademo:output": "50kW",
    "socket:chademo:voltage": "500",
    "socket:type2_cable": "1",
    "socket:type2_cable:current": "63",
    "socket:type2_cable:output": "43kW",
    "socket:type2_cable:voltage": "400",
    "socket:type2_combo": "1",
    "socket:type2_combo:current": "125",
    "socket:type2_combo:output": "50kW",
    "socket:type2_combo:voltage": "500",
    "website": "https://www.mobie.pt/",
    "id": "node/8477405036"
  },
  "geometry": {
    "type": "Point",
    "coordinates": [
      -8.2877111,
      41.2701728
    ]
  }
},
{
  "type": "Feature",
  "id": "node/8477416496",
  "properties": {
    "access": "yes",
    "addr:city": "Santo Tirso",
    "addr:country": "PT",
    "authentication:membership_card": "yes",
    "authentication:none": "no",
    "capacity": "2",
    "fee": "yes",
    "motorcar": "yes",
    "name": "STS-00009 - Pingo Doce",
    "network": "Mobi.E",
    "opening_hours": "24/7",
    "operator": "KLC",
    "parking:fee": "no",
    "planned:amenity": "charging_station",
    "ref": "STS-00009",
    "socket:chademo": "1",
    "socket:chademo:current": "120",
    "socket:chademo:output": "50kW",
    "socket:chademo:voltage": "500",
    "socket:type2_cable": "1",
    "socket:type2_cable:current": "63",
    "socket:type2_cable:output": "43kW",
    "socket:type2_cable:voltage": "400",
    "socket:type2_combo": "1",
    "socket:type2_combo:current": "125",
    "socket:type2_combo:output": "50kW",
    "socket:type2_combo:voltage": "500",
    "website": "https://www.mobie.pt/",
    "id": "node/8477416496"
  },
  "geometry": {
    "type": "Point",
    "coordinates": [
      -8.4949187,
      41.3392064
    ]
  }
},
{
  "type": "Feature",
  "id": "node/8477418163",
  "properties": {
    "access": "yes",
    "addr:city": "Penafiel",
    "addr:country": "PT",
    "authentication:membership_card": "yes",
    "authentication:none": "no",
    "capacity": "2",
    "fee": "yes",
    "motorcar": "yes",
    "name": "PNF-00010 - Pingo Doce",
    "network": "Mobi.E",
    "opening_hours": "24/7",
    "operator": "KLC",
    "parking:fee": "no",
    "planned:amenity": "charging_station",
    "ref": "PNF-00010",
    "socket:chademo": "1",
    "socket:chademo:current": "120",
    "socket:chademo:output": "50kW",
    "socket:chademo:voltage": "500",
    "socket:type2_cable": "1",
    "socket:type2_cable:current": "63",
    "socket:type2_cable:output": "43kW",
    "socket:type2_cable:voltage": "400",
    "socket:type2_combo": "1",
    "socket:type2_combo:current": "125",
    "socket:type2_combo:output": "50kW",
    "socket:type2_combo:voltage": "500",
    "website": "https://www.mobie.pt/",
    "id": "node/8477418163"
  },
  "geometry": {
    "type": "Point",
    "coordinates": [
      -8.306424,
      41.193342
    ]
  }
},
{
  "type": "Feature",
  "id": "node/8480193992",
  "properties": {
    "access": "yes",
    "addr:country": "PT",
    "authentication:membership_card": "yes",
    "authentication:none": "no",
    "capacity": "2",
    "fee": "yes",
    "motorcar": "yes",
    "name": "VNF-00011/12",
    "network": "Mobi.E",
    "opening_hours": "24/7",
    "operator": "High Green Power",
    "parking:fee": "no",
    "planned:amenity": "charging_station",
    "ref": "VNF-00011;VNF-00012",
    "socket:type2": "2",
    "socket:type2:current": "32",
    "socket:type2:output": "22kW",
    "socket:type2:voltage": "400",
    "website": "https://www.mobie.pt/",
    "id": "node/8480193992"
  },
  "geometry": {
    "type": "Point",
    "coordinates": [
      -8.514811,
      41.40671
    ]
  }
},
{
  "type": "Feature",
  "id": "node/8480196147",
  "properties": {
    "access": "yes",
    "addr:country": "PT",
    "authentication:membership_card": "yes",
    "authentication:none": "no",
    "capacity": "4",
    "fee": "yes",
    "motorcar": "yes",
    "name": "VNF-00005/6",
    "network": "Mobi.E",
    "opening_hours": "24/7",
    "operator": "EV Power",
    "parking:fee": "no",
    "planned:amenity": "charging_station",
    "ref": "VNF-00005;VNF-00006",
    "socket:type2": "4",
    "socket:type2:current": "32",
    "socket:type2:output": "22kW",
    "socket:type2:voltage": "400",
    "website": "https://www.mobie.pt/",
    "id": "node/8480196147"
  },
  "geometry": {
    "type": "Point",
    "coordinates": [
      -8.519373,
      41.41044
    ]
  }
},
{
  "type": "Feature",
  "id": "node/8480201347",
  "properties": {
    "access": "private",
    "addr:country": "PT",
    "authentication:membership_card": "yes",
    "authentication:none": "no",
    "capacity": "2",
    "fee": "yes",
    "motorcar": "yes",
    "name": "VLC-00004",
    "network": "Mobi.E",
    "opening_hours": "24/7",
    "operator": "KLC",
    "parking:fee": "no",
    "planned:amenity": "charging_station",
    "ref": "VLC-00004",
    "socket:type2": "2",
    "socket:type2:current": "32",
    "socket:type2:output": "22kW",
    "socket:type2:voltage": "400",
    "website": "https://www.mobie.pt/",
    "id": "node/8480201347"
  },
  "geometry": {
    "type": "Point",
    "coordinates": [
      -8.3951112,
      40.846145
    ]
  }
},
{
  "type": "Feature",
  "id": "node/8553077960",
  "properties": {
    "access": "yes",
    "addr:country": "PT",
    "authentication:membership_card": "yes",
    "authentication:none": "no",
    "capacity": "2",
    "fee": "yes",
    "motorcar": "yes",
    "name": "VLN-00004 - Intermarché",
    "network": "Mobi.E",
    "opening_hours": "24/7",
    "operator": "EDP Comercial",
    "parking:fee": "no",
    "planned:amenity": "charging_station",
    "ref": "VLN-00004",
    "socket:type2": "2",
    "socket:type2:current": "32",
    "socket:type2:output": "22kW",
    "socket:type2:voltage": "400",
    "website": "https://www.mobie.pt/",
    "id": "node/8553077960"
  },
  "geometry": {
    "type": "Point",
    "coordinates": [
      -8.6480286,
      42.0232766
    ]
  }
},
{
  "type": "Feature",
  "id": "node/8693944208",
  "properties": {
    "access": "yes",
    "addr:city": "Póvoa de Varzim",
    "addr:country": "PT",
    "addr:street": "Avenida do Mar",
    "authentication:membership_card": "yes",
    "authentication:none": "no",
    "capacity": "2",
    "fee": "yes",
    "motorcar": "yes",
    "name": "PVZ-XXXXX",
    "network": "Mobi.E",
    "opening_hours": "24/7",
    "operator": "Galp Power",
    "parking:fee": "no",
    "planned:amenity": "charging_station",
    "ref": "PVZ-XXXXX",
    "socket:chademo": "1",
    "socket:chademo:current": "120",
    "socket:chademo:output": "50kW",
    "socket:chademo:voltage": "500",
    "socket:type2_cable": "1",
    "socket:type2_cable:current": "63",
    "socket:type2_cable:output": "43kW",
    "socket:type2_cable:voltage": "400",
    "socket:type2_combo": "1",
    "socket:type2_combo:current": "125",
    "socket:type2_combo:output": "50kW",
    "socket:type2_combo:voltage": "500",
    "website": "https://www.mobie.pt/",
    "id": "node/8693944208"
  },
  "geometry": {
    "type": "Point",
    "coordinates": [
      -8.763498,
      41.389052
    ]
  }
},
{
  "type": "Feature",
  "id": "node/8712623798",
  "properties": {
    "access": "yes",
    "addr:city": "Póvoa de Santa Iria",
    "addr:country": "PT",
    "authentication:membership_card": "yes",
    "authentication:none": "no",
    "capacity": "2",
    "fee": "yes",
    "motorcar": "yes",
    "name": "VFX-XXXXX - McDonald's",
    "network": "Mobi.E",
    "opening_hours": "24/7",
    "operator": "EDP Comercial",
    "parking:fee": "no",
    "planned:amenity": "charging_station",
    "ref": "VFX-XXXXX",
    "socket:chademo": "1",
    "socket:chademo:current": "120",
    "socket:chademo:output": "50kW",
    "socket:chademo:voltage": "500",
    "socket:type2_cable": "1",
    "socket:type2_cable:current": "63",
    "socket:type2_cable:output": "43kW",
    "socket:type2_cable:voltage": "400",
    "socket:type2_combo": "1",
    "socket:type2_combo:current": "125",
    "socket:type2_combo:output": "50kW",
    "socket:type2_combo:voltage": "500",
    "website": "https://www.mobie.pt/",
    "id": "node/8712623798"
  },
  "geometry": {
    "type": "Point",
    "coordinates": [
      -9.070348,
      38.855947
    ]
  }
},
{
  "type": "Feature",
  "id": "node/8757554771",
  "properties": {
    "access": "yes",
    "addr:country": "PT",
    "authentication:membership_card": "yes",
    "authentication:none": "no",
    "capacity": "2",
    "fee": "yes",
    "motorcar": "yes",
    "name": "BRG-00029",
    "network": "Mobi.E",
    "opening_hours": "24/7",
    "operator": "MEO",
    "parking:fee": "no",
    "planned:amenity": "charging_station",
    "ref": "BRG-00029",
    "socket:type2": "2",
    "socket:type2:current": "32",
    "socket:type2:output": "22kW",
    "socket:type2:voltage": "400",
    "website": "https://www.mobie.pt/",
    "id": "node/8757554771"
  },
  "geometry": {
    "type": "Point",
    "coordinates": [
      -8.448794,
      41.564986
    ]
  }
},
{
  "type": "Feature",
  "id": "node/8757685136",
  "properties": {
    "access": "yes",
    "addr:city": "Porto",
    "addr:country": "PT",
    "authentication:membership_card": "yes",
    "authentication:none": "no",
    "capacity": "2",
    "fee": "yes",
    "motorcar": "yes",
    "name": "PRT-00091 - Lidl",
    "network": "Mobi.E",
    "opening_hours": "24/7",
    "operator": "KLC",
    "parking:fee": "no",
    "planned:amenity": "charging_station",
    "ref": "PRT-00091",
    "socket:chademo": "1",
    "socket:chademo:current": "120",
    "socket:chademo:output": "50kW",
    "socket:chademo:voltage": "500",
    "socket:type2_cable": "1",
    "socket:type2_cable:current": "63",
    "socket:type2_cable:output": "43kW",
    "socket:type2_cable:voltage": "400",
    "socket:type2_combo": "1",
    "socket:type2_combo:current": "125",
    "socket:type2_combo:output": "50kW",
    "socket:type2_combo:voltage": "500",
    "website": "https://www.mobie.pt/",
    "id": "node/8757685136"
  },
  "geometry": {
    "type": "Point",
    "coordinates": [
      -8.5815229,
      41.1801335
    ]
  }
},
{
  "type": "Feature",
  "id": "node/8757714042",
  "properties": {
    "access": "yes",
    "addr:city": "Vila Nova de Gaia",
    "addr:country": "PT",
    "authentication:membership_card": "yes",
    "authentication:none": "no",
    "capacity": "2",
    "fee": "yes",
    "motorcar": "yes",
    "name": "VNG-00061 - Lidl",
    "network": "Mobi.E",
    "opening_hours": "24/7",
    "operator": "KLC",
    "parking:fee": "no",
    "planned:amenity": "charging_station",
    "ref": "VNG-00061",
    "socket:chademo": "1",
    "socket:chademo:current": "120",
    "socket:chademo:output": "50kW",
    "socket:chademo:voltage": "500",
    "socket:type2_cable": "1",
    "socket:type2_cable:current": "63",
    "socket:type2_cable:output": "43kW",
    "socket:type2_cable:voltage": "400",
    "socket:type2_combo": "1",
    "socket:type2_combo:current": "125",
    "socket:type2_combo:output": "50kW",
    "socket:type2_combo:voltage": "500",
    "website": "https://www.mobie.pt/",
    "id": "node/8757714042"
  },
  "geometry": {
    "type": "Point",
    "coordinates": [
      -8.6009157,
      41.1266315
    ]
  }
},
{
  "type": "Feature",
  "id": "node/8757714043",
  "properties": {
    "access": "yes",
    "addr:city": "Figueira da Foz",
    "addr:country": "PT",
    "authentication:membership_card": "yes",
    "authentication:none": "no",
    "capacity": "2",
    "fee": "yes",
    "motorcar": "yes",
    "name": "FIG-00006 - Lidl",
    "network": "Mobi.E",
    "opening_hours": "24/7",
    "operator": "KLC",
    "parking:fee": "no",
    "planned:amenity": "charging_station",
    "ref": "FIG-00006",
    "socket:chademo": "1",
    "socket:chademo:current": "120",
    "socket:chademo:output": "50kW",
    "socket:chademo:voltage": "500",
    "socket:type2_cable": "1",
    "socket:type2_cable:current": "63",
    "socket:type2_cable:output": "43kW",
    "socket:type2_cable:voltage": "400",
    "socket:type2_combo": "1",
    "socket:type2_combo:current": "125",
    "socket:type2_combo:output": "50kW",
    "socket:type2_combo:voltage": "500",
    "website": "https://www.mobie.pt/",
    "id": "node/8757714043"
  },
  "geometry": {
    "type": "Point",
    "coordinates": [
      -8.8501583,
      40.1570762
    ]
  }
},
{
  "type": "Feature",
  "id": "node/8757747706",
  "properties": {
    "access": "yes",
    "addr:country": "PT",
    "authentication:membership_card": "yes",
    "authentication:none": "no",
    "capacity": "2",
    "fee": "yes",
    "motorcar": "yes",
    "name": "PVC-00002",
    "network": "Mobi.E",
    "opening_hours": "24/7",
    "operator": "SEGMA",
    "parking:fee": "no",
    "planned:amenity": "charging_station",
    "ref": "PVC-00002",
    "socket:type2": "2",
    "socket:type2:current": "32",
    "socket:type2:output": "22kW",
    "socket:type2:voltage": "400",
    "website": "https://www.mobie.pt/",
    "id": "node/8757747706"
  },
  "geometry": {
    "type": "Point",
    "coordinates": [
      -25.3144647,
      37.7732298
    ]
  }
},
{
  "type": "Feature",
  "id": "node/8757747707",
  "properties": {
    "access": "yes",
    "addr:city": "Monção",
    "addr:country": "PT",
    "authentication:membership_card": "yes",
    "authentication:none": "no",
    "capacity": "2",
    "fee": "yes",
    "motorcar": "yes",
    "name": "MNC-00002 - Lidl",
    "network": "Mobi.E",
    "opening_hours": "24/7",
    "operator": "KLC",
    "parking:fee": "no",
    "planned:amenity": "charging_station",
    "ref": "MNC-00002",
    "socket:chademo": "1",
    "socket:chademo:current": "120",
    "socket:chademo:output": "50kW",
    "socket:chademo:voltage": "500",
    "socket:type2_cable": "1",
    "socket:type2_cable:current": "63",
    "socket:type2_cable:output": "43kW",
    "socket:type2_cable:voltage": "400",
    "socket:type2_combo": "1",
    "socket:type2_combo:current": "125",
    "socket:type2_combo:output": "50kW",
    "socket:type2_combo:voltage": "500",
    "website": "https://www.mobie.pt/",
    "id": "node/8757747707"
  },
  "geometry": {
    "type": "Point",
    "coordinates": [
      -8.4953068,
      42.0672859
    ]
  }
},
{
  "type": "Feature",
  "id": "node/8781101648",
  "properties": {
    "access": "yes",
    "addr:city": "Guarda",
    "addr:country": "PT",
    "authentication:membership_card": "yes",
    "authentication:none": "no",
    "capacity": "2",
    "fee": "yes",
    "motorcar": "yes",
    "name": "GRD-00012 - Repsol",
    "network": "Mobi.E",
    "opening_hours": "24/7",
    "operator": "Repsol",
    "parking:fee": "no",
    "planned:amenity": "charging_station",
    "ref": "GRD-00012",
    "socket:chademo": "1",
    "socket:chademo:current": "120",
    "socket:chademo:output": "50kW",
    "socket:chademo:voltage": "500",
    "socket:type2_cable": "1",
    "socket:type2_cable:current": "63",
    "socket:type2_cable:output": "43kW",
    "socket:type2_cable:voltage": "400",
    "socket:type2_combo": "1",
    "socket:type2_combo:current": "125",
    "socket:type2_combo:output": "50kW",
    "socket:type2_combo:voltage": "500",
    "website": "https://www.mobie.pt/",
    "id": "node/8781101648"
  },
  "geometry": {
    "type": "Point",
    "coordinates": [
      -7.243668,
      40.534393
    ]
  }
},
{
  "type": "Feature",
  "id": "node/8781140429",
  "properties": {
    "access": "yes",
    "addr:city": "Sines",
    "addr:country": "PT",
    "authentication:membership_card": "yes",
    "authentication:none": "no",
    "capacity": "2",
    "fee": "yes",
    "motorcar": "yes",
    "name": "SNS-00007 - Lidl",
    "network": "Mobi.E",
    "opening_hours": "24/7",
    "operator": "KLC",
    "parking:fee": "no",
    "planned:amenity": "charging_station",
    "ref": "SNS-00007",
    "socket:chademo": "1",
    "socket:chademo:current": "120",
    "socket:chademo:output": "50kW",
    "socket:chademo:voltage": "500",
    "socket:type2_cable": "1",
    "socket:type2_cable:current": "63",
    "socket:type2_cable:output": "43kW",
    "socket:type2_cable:voltage": "400",
    "socket:type2_combo": "1",
    "socket:type2_combo:current": "125",
    "socket:type2_combo:output": "50kW",
    "socket:type2_combo:voltage": "500",
    "website": "https://www.mobie.pt/",
    "id": "node/8781140429"
  },
  "geometry": {
    "type": "Point",
    "coordinates": [
      -8.8551499,
      37.9589671
    ]
  }
},
{
  "type": "Feature",
  "id": "node/8781157465",
  "properties": {
    "access": "yes",
    "addr:city": "Cacém",
    "addr:country": "PT",
    "authentication:membership_card": "yes",
    "authentication:none": "no",
    "capacity": "2",
    "fee": "yes",
    "motorcar": "yes",
    "name": "SNT-00047 - Lidl",
    "network": "Mobi.E",
    "opening_hours": "24/7",
    "operator": "KLC",
    "parking:fee": "no",
    "planned:amenity": "charging_station",
    "ref": "SNT-00047",
    "socket:chademo": "1",
    "socket:chademo:current": "120",
    "socket:chademo:output": "50kW",
    "socket:chademo:voltage": "500",
    "socket:type2_cable": "1",
    "socket:type2_cable:current": "63",
    "socket:type2_cable:output": "43kW",
    "socket:type2_cable:voltage": "400",
    "socket:type2_combo": "1",
    "socket:type2_combo:current": "125",
    "socket:type2_combo:output": "50kW",
    "socket:type2_combo:voltage": "500",
    "website": "https://www.mobie.pt/",
    "id": "node/8781157465"
  },
  "geometry": {
    "type": "Point",
    "coordinates": [
      -9.3048142,
      38.7629263
    ]
  }
},
{
  "type": "Feature",
  "id": "node/8781165395",
  "properties": {
    "access": "yes",
    "addr:city": "Casal de Cambra",
    "addr:country": "PT",
    "authentication:membership_card": "yes",
    "authentication:none": "no",
    "capacity": "2",
    "fee": "yes",
    "motorcar": "yes",
    "name": "SNT-00049 - Lidl",
    "network": "Mobi.E",
    "opening_hours": "24/7",
    "operator": "KLC",
    "parking:fee": "no",
    "planned:amenity": "charging_station",
    "ref": "SNT-00049",
    "socket:chademo": "1",
    "socket:chademo:current": "120",
    "socket:chademo:output": "50kW",
    "socket:chademo:voltage": "500",
    "socket:type2_cable": "1",
    "socket:type2_cable:current": "63",
    "socket:type2_cable:output": "43kW",
    "socket:type2_cable:voltage": "400",
    "socket:type2_combo": "1",
    "socket:type2_combo:current": "125",
    "socket:type2_combo:output": "50kW",
    "socket:type2_combo:voltage": "500",
    "website": "https://www.mobie.pt/",
    "id": "node/8781165395"
  },
  "geometry": {
    "type": "Point",
    "coordinates": [
      -9.2292521,
      38.7970946
    ]
  }
},
{
  "type": "Feature",
  "id": "node/8781193942",
  "properties": {
    "access": "yes",
    "addr:city": "Barcelos",
    "addr:country": "PT",
    "authentication:membership_card": "yes",
    "authentication:none": "no",
    "capacity": "2",
    "fee": "yes",
    "motorcar": "yes",
    "name": "BCL-00012 - Lidl",
    "network": "Mobi.E",
    "opening_hours": "24/7",
    "operator": "KLC",
    "parking:fee": "no",
    "planned:amenity": "charging_station",
    "ref": "BCL-00012",
    "socket:chademo": "1",
    "socket:chademo:current": "120",
    "socket:chademo:output": "50kW",
    "socket:chademo:voltage": "500",
    "socket:type2_cable": "1",
    "socket:type2_cable:current": "63",
    "socket:type2_cable:output": "43kW",
    "socket:type2_cable:voltage": "400",
    "socket:type2_combo": "1",
    "socket:type2_combo:current": "125",
    "socket:type2_combo:output": "50kW",
    "socket:type2_combo:voltage": "500",
    "website": "https://www.mobie.pt/",
    "id": "node/8781193942"
  },
  "geometry": {
    "type": "Point",
    "coordinates": [
      -8.6266842,
      41.5322509
    ]
  }
},
{
  "type": "Feature",
  "id": "node/8792974362",
  "properties": {
    "access": "yes",
    "addr:country": "PT",
    "authentication:membership_card": "yes",
    "authentication:none": "no",
    "capacity": "2",
    "fee": "yes",
    "motorcar": "yes",
    "name": "VPA-00002",
    "network": "Mobi.E",
    "opening_hours": "24/7",
    "operator": "Powerdot",
    "parking:fee": "no",
    "planned:amenity": "charging_station",
    "ref": "VPA-00002",
    "socket:type2": "2",
    "socket:type2:current": "32",
    "socket:type2:output": "22kW",
    "socket:type2:voltage": "400",
    "website": "https://www.mobie.pt/",
    "id": "node/8792974362"
  },
  "geometry": {
    "type": "Point",
    "coordinates": [
      -7.645527,
      41.4929043
    ]
  }
},
{
  "type": "Feature",
  "id": "node/8818748676",
  "properties": {
    "access": "yes",
    "addr:city": "Santa Comba Dão",
    "addr:country": "PT",
    "authentication:membership_card": "yes",
    "authentication:none": "no",
    "capacity": "2",
    "fee": "yes",
    "motorcar": "yes",
    "name": "SCD-XXXXX - Repsol",
    "network": "Mobi.E",
    "opening_hours": "24/7",
    "operator": "Repsol",
    "parking:fee": "no",
    "planned:amenity": "charging_station",
    "ref": "SCD-XXXXX",
    "socket:chademo": "1",
    "socket:chademo:current": "120",
    "socket:chademo:output": "50kW",
    "socket:chademo:voltage": "500",
    "socket:type2_cable": "1",
    "socket:type2_cable:current": "63",
    "socket:type2_cable:output": "43kW",
    "socket:type2_cable:voltage": "400",
    "socket:type2_combo": "1",
    "socket:type2_combo:current": "125",
    "socket:type2_combo:output": "50kW",
    "socket:type2_combo:voltage": "500",
    "website": "https://www.mobie.pt/",
    "id": "node/8818748676"
  },
  "geometry": {
    "type": "Point",
    "coordinates": [
      -8.1285206,
      40.3977298
    ]
  }
},
{
  "type": "Feature",
  "id": "node/8830322330",
  "properties": {
    "access": "yes",
    "addr:city": "Ermesinde",
    "addr:country": "PT",
    "authentication:membership_card": "yes",
    "authentication:none": "no",
    "capacity": "1",
    "fee": "yes",
    "motorcar": "yes",
    "name": "VLG-00011 - Prio",
    "network": "Mobi.E",
    "opening_hours": "24/7",
    "operator": "Prio.E",
    "parking:fee": "no",
    "planned:amenity": "charging_station",
    "ref": "VLG-00011",
    "socket:chademo": "1",
    "socket:chademo:current": "120",
    "socket:chademo:output": "50kW",
    "socket:chademo:voltage": "500",
    "socket:type2_combo": "1",
    "socket:type2_combo:current": "125",
    "socket:type2_combo:output": "50kW",
    "socket:type2_combo:voltage": "500",
    "website": "https://www.mobie.pt/",
    "id": "node/8830322330"
  },
  "geometry": {
    "type": "Point",
    "coordinates": [
      -8.541579,
      41.208528
    ]
  }
},
{
  "type": "Feature",
  "id": "node/8830368190",
  "properties": {
    "access": "yes",
    "addr:country": "PT",
    "authentication:membership_card": "yes",
    "authentication:none": "no",
    "capacity": "2",
    "fee": "yes",
    "motorcar": "yes",
    "name": "GDM-00009 - Santa Justa",
    "network": "Mobi.E",
    "opening_hours": "24/7",
    "operator": "Evio",
    "parking:fee": "no",
    "planned:amenity": "charging_station",
    "ref": "GDM-00009",
    "socket:type2": "2",
    "socket:type2:current": "32",
    "socket:type2:output": "22kW",
    "socket:type2:voltage": "400",
    "website": "https://www.mobie.pt/",
    "id": "node/8830368190"
  },
  "geometry": {
    "type": "Point",
    "coordinates": [
      -8.527577,
      41.1628998
    ]
  }
},
{
  "type": "Feature",
  "id": "node/8830368191",
  "properties": {
    "access": "yes",
    "addr:country": "PT",
    "authentication:membership_card": "yes",
    "authentication:none": "no",
    "capacity": "2",
    "fee": "yes",
    "motorcar": "yes",
    "name": "VFR-00009 - Pingo Doce",
    "network": "Mobi.E",
    "opening_hours": "24/7",
    "operator": "KLC",
    "parking:fee": "no",
    "planned:amenity": "charging_station",
    "ref": "VFR-00009",
    "socket:type2": "2",
    "socket:type2:current": "32",
    "socket:type2:output": "22kW",
    "socket:type2:voltage": "400",
    "website": "https://www.mobie.pt/",
    "id": "node/8830368191"
  },
  "geometry": {
    "type": "Point",
    "coordinates": [
      -8.5669135,
      40.92147
    ]
  }
},
{
  "type": "Feature",
  "id": "node/8830368192",
  "properties": {
    "access": "yes",
    "addr:country": "PT",
    "authentication:membership_card": "yes",
    "authentication:none": "no",
    "capacity": "2",
    "fee": "yes",
    "motorcar": "yes",
    "name": "GDM-00010 - Santa Justa",
    "network": "Mobi.E",
    "opening_hours": "24/7",
    "operator": "Evio",
    "parking:fee": "no",
    "planned:amenity": "charging_station",
    "ref": "GDM-00010",
    "socket:type2": "2",
    "socket:type2:current": "32",
    "socket:type2:output": "22kW",
    "socket:type2:voltage": "400",
    "website": "https://www.mobie.pt/",
    "id": "node/8830368192"
  },
  "geometry": {
    "type": "Point",
    "coordinates": [
      -8.5112913,
      41.1192369
    ]
  }
},
{
  "type": "Feature",
  "id": "node/8830380307",
  "properties": {
    "access": "yes",
    "addr:country": "PT",
    "authentication:membership_card": "yes",
    "authentication:none": "no",
    "capacity": "2",
    "fee": "yes",
    "motorcar": "yes",
    "name": "FIG-00008 - E.Leclerc",
    "network": "Mobi.E",
    "opening_hours": "24/7",
    "operator": "Powerdot",
    "parking:fee": "no",
    "planned:amenity": "charging_station",
    "ref": "FIG-00008",
    "socket:type2": "2",
    "socket:type2:current": "32",
    "socket:type2:output": "22kW",
    "socket:type2:voltage": "400",
    "website": "https://www.mobie.pt/",
    "id": "node/8830380307"
  },
  "geometry": {
    "type": "Point",
    "coordinates": [
      -8.852176,
      40.165358
    ]
  }
},
{
  "type": "Feature",
  "id": "node/8830380308",
  "properties": {
    "access": "yes",
    "addr:country": "PT",
    "authentication:membership_card": "yes",
    "authentication:none": "no",
    "capacity": "1",
    "fee": "yes",
    "motorcar": "yes",
    "name": "GMR-00023",
    "network": "Mobi.E",
    "opening_hours": "24/7",
    "operator": "Evio",
    "parking:fee": "no",
    "planned:amenity": "charging_station",
    "ref": "GMR-00023",
    "socket:chademo": "1",
    "socket:chademo:current": "120",
    "socket:chademo:output": "50kW",
    "socket:chademo:voltage": "500",
    "socket:type2_combo": "1",
    "socket:type2_combo:current": "125",
    "socket:type2_combo:output": "50kW",
    "socket:type2_combo:voltage": "500",
    "website": "https://www.mobie.pt/",
    "id": "node/8830380308"
  },
  "geometry": {
    "type": "Point",
    "coordinates": [
      -8.331597,
      41.464699
    ]
  }
},
{
  "type": "Feature",
  "id": "node/8833233512",
  "properties": {
    "access": "yes",
    "addr:city": "Fundão",
    "addr:country": "PT",
    "authentication:membership_card": "yes",
    "authentication:none": "no",
    "capacity": "2",
    "fee": "yes",
    "motorcar": "yes",
    "name": "FND-00007 - Intermarché",
    "network": "Mobi.E",
    "opening_hours": "24/7",
    "operator": "Powerdot",
    "parking:fee": "no",
    "planned:amenity": "charging_station",
    "ref": "FND-00007",
    "socket:chademo": "1",
    "socket:chademo:current": "120",
    "socket:chademo:output": "50kW",
    "socket:chademo:voltage": "500",
    "socket:type2_cable": "1",
    "socket:type2_cable:current": "63",
    "socket:type2_cable:output": "43kW",
    "socket:type2_cable:voltage": "400",
    "socket:type2_combo": "1",
    "socket:type2_combo:current": "125",
    "socket:type2_combo:output": "50kW",
    "socket:type2_combo:voltage": "500",
    "website": "https://www.mobie.pt/",
    "id": "node/8833233512"
  },
  "geometry": {
    "type": "Point",
    "coordinates": [
      -7.497462,
      40.152704
    ]
  }
},
{
  "type": "Feature",
  "id": "node/8833233513",
  "properties": {
    "access": "yes",
    "addr:city": "Azambuja",
    "addr:country": "PT",
    "addr:street": "Rua da EPAC",
    "authentication:membership_card": "yes",
    "authentication:none": "no",
    "capacity": "2",
    "fee": "yes",
    "motorcar": "yes",
    "name": "AZB-00005 - Intermarché",
    "network": "Mobi.E",
    "opening_hours": "24/7",
    "operator": "Powerdot",
    "parking:fee": "no",
    "planned:amenity": "charging_station",
    "ref": "AZB-00005",
    "socket:chademo": "1",
    "socket:chademo:current": "120",
    "socket:chademo:output": "50kW",
    "socket:chademo:voltage": "500",
    "socket:type2_cable": "1",
    "socket:type2_cable:current": "63",
    "socket:type2_cable:output": "43kW",
    "socket:type2_cable:voltage": "400",
    "socket:type2_combo": "1",
    "socket:type2_combo:current": "125",
    "socket:type2_combo:output": "50kW",
    "socket:type2_combo:voltage": "500",
    "website": "https://www.mobie.pt/",
    "id": "node/8833233513"
  },
  "geometry": {
    "type": "Point",
    "coordinates": [
      -8.8634487,
      39.0734407
    ]
  }
},
{
  "type": "Feature",
  "id": "node/8833237246",
  "properties": {
    "access": "yes",
    "addr:city": "Figueira da Foz",
    "addr:country": "PT",
    "authentication:membership_card": "yes",
    "authentication:none": "no",
    "capacity": "2",
    "fee": "yes",
    "motorcar": "yes",
    "name": "FIG-00007 - E.Leclerc",
    "network": "Mobi.E",
    "opening_hours": "24/7",
    "operator": "Powerdot",
    "parking:fee": "no",
    "planned:amenity": "charging_station",
    "ref": "FIG-00007",
    "socket:chademo": "1",
    "socket:chademo:current": "120",
    "socket:chademo:output": "50kW",
    "socket:chademo:voltage": "500",
    "socket:type2_cable": "1",
    "socket:type2_cable:current": "63",
    "socket:type2_cable:output": "43kW",
    "socket:type2_cable:voltage": "400",
    "socket:type2_combo": "1",
    "socket:type2_combo:current": "125",
    "socket:type2_combo:output": "50kW",
    "socket:type2_combo:voltage": "500",
    "website": "https://www.mobie.pt/",
    "id": "node/8833237246"
  },
  "geometry": {
    "type": "Point",
    "coordinates": [
      -8.8521705,
      40.1653334
    ]
  }
},
{
  "type": "Feature",
  "id": "node/8833237247",
  "properties": {
    "access": "yes",
    "addr:city": "Vila Franca de Xira",
    "addr:country": "PT",
    "authentication:membership_card": "yes",
    "authentication:none": "no",
    "capacity": "2",
    "fee": "yes",
    "motorcar": "yes",
    "name": "VFX-00018 - Intermarché",
    "network": "Mobi.E",
    "opening_hours": "24/7",
    "operator": "Powerdot",
    "parking:fee": "no",
    "planned:amenity": "charging_station",
    "ref": "VFX-00018",
    "socket:chademo": "1",
    "socket:chademo:current": "120",
    "socket:chademo:output": "50kW",
    "socket:chademo:voltage": "500",
    "socket:type2_cable": "1",
    "socket:type2_cable:current": "63",
    "socket:type2_cable:output": "43kW",
    "socket:type2_cable:voltage": "400",
    "socket:type2_combo": "1",
    "socket:type2_combo:current": "125",
    "socket:type2_combo:output": "50kW",
    "socket:type2_combo:voltage": "500",
    "website": "https://www.mobie.pt/",
    "id": "node/8833237247"
  },
  "geometry": {
    "type": "Point",
    "coordinates": [
      -8.9824686,
      38.9669931
    ]
  }
},
{
  "type": "Feature",
  "id": "node/8833237248",
  "properties": {
    "access": "yes",
    "addr:city": "Malveira",
    "addr:country": "PT",
    "authentication:membership_card": "yes",
    "authentication:none": "no",
    "capacity": "2",
    "fee": "yes",
    "motorcar": "yes",
    "name": "MFR-00018 - Intermarché",
    "network": "Mobi.E",
    "opening_hours": "24/7",
    "operator": "Powerdot",
    "parking:fee": "no",
    "planned:amenity": "charging_station",
    "ref": "MFR-00018",
    "socket:chademo": "1",
    "socket:chademo:current": "120",
    "socket:chademo:output": "50kW",
    "socket:chademo:voltage": "500",
    "socket:type2_cable": "1",
    "socket:type2_cable:current": "63",
    "socket:type2_cable:output": "43kW",
    "socket:type2_cable:voltage": "400",
    "socket:type2_combo": "1",
    "socket:type2_combo:current": "125",
    "socket:type2_combo:output": "50kW",
    "socket:type2_combo:voltage": "500",
    "website": "https://www.mobie.pt/",
    "id": "node/8833237248"
  },
  "geometry": {
    "type": "Point",
    "coordinates": [
      -9.2518781,
      38.9408363
    ]
  }
},
{
  "type": "Feature",
  "id": "node/8833293780",
  "properties": {
    "access": "yes",
    "addr:city": "Águeda",
    "addr:country": "PT",
    "authentication:membership_card": "yes",
    "authentication:none": "no",
    "capacity": "2",
    "fee": "yes",
    "motorcar": "yes",
    "name": "AGD-00006 - Pingo Doce",
    "network": "Mobi.E",
    "opening_hours": "24/7",
    "operator": "KLC",
    "parking:fee": "no",
    "planned:amenity": "charging_station",
    "ref": "AGD-00006",
    "socket:chademo": "1",
    "socket:chademo:current": "120",
    "socket:chademo:output": "50kW",
    "socket:chademo:voltage": "500",
    "socket:type2_cable": "1",
    "socket:type2_cable:current": "63",
    "socket:type2_cable:output": "43kW",
    "socket:type2_cable:voltage": "400",
    "socket:type2_combo": "1",
    "socket:type2_combo:current": "125",
    "socket:type2_combo:output": "50kW",
    "socket:type2_combo:voltage": "500",
    "website": "https://www.mobie.pt/",
    "id": "node/8833293780"
  },
  "geometry": {
    "type": "Point",
    "coordinates": [
      -8.454532,
      40.590635
    ]
  }
},
{
  "type": "Feature",
  "id": "node/8833293781",
  "properties": {
    "access": "yes",
    "addr:city": "Vila Verde",
    "addr:country": "PT",
    "authentication:membership_card": "yes",
    "authentication:none": "no",
    "capacity": "2",
    "fee": "yes",
    "motorcar": "yes",
    "name": "VVD-00007 - Q8",
    "network": "Mobi.E",
    "opening_hours": "24/7",
    "operator": "Powerdot",
    "parking:fee": "no",
    "planned:amenity": "charging_station",
    "ref": "VVD-00007",
    "socket:chademo": "1",
    "socket:chademo:current": "120",
    "socket:chademo:output": "50kW",
    "socket:chademo:voltage": "500",
    "socket:type2_cable": "1",
    "socket:type2_cable:current": "63",
    "socket:type2_cable:output": "43kW",
    "socket:type2_cable:voltage": "400",
    "socket:type2_combo": "1",
    "socket:type2_combo:current": "125",
    "socket:type2_combo:output": "50kW",
    "socket:type2_combo:voltage": "500",
    "website": "https://www.mobie.pt/",
    "id": "node/8833293781"
  },
  "geometry": {
    "type": "Point",
    "coordinates": [
      -8.431813,
      41.655722
    ]
  }
},
{
  "type": "Feature",
  "id": "node/8833293782",
  "properties": {
    "access": "yes",
    "addr:city": "prado",
    "addr:country": "PT",
    "authentication:membership_card": "yes",
    "authentication:none": "no",
    "capacity": "2",
    "fee": "yes",
    "motorcar": "yes",
    "name": "VVD-00008 - Q8",
    "network": "Mobi.E",
    "opening_hours": "24/7",
    "operator": "Powerdot",
    "parking:fee": "no",
    "planned:amenity": "charging_station",
    "ref": "VVD-00008",
    "socket:chademo": "1",
    "socket:chademo:current": "120",
    "socket:chademo:output": "50kW",
    "socket:chademo:voltage": "500",
    "socket:type2_cable": "1",
    "socket:type2_cable:current": "63",
    "socket:type2_cable:output": "43kW",
    "socket:type2_cable:voltage": "400",
    "socket:type2_combo": "1",
    "socket:type2_combo:current": "125",
    "socket:type2_combo:output": "50kW",
    "socket:type2_combo:voltage": "500",
    "website": "https://www.mobie.pt/",
    "id": "node/8833293782"
  },
  "geometry": {
    "type": "Point",
    "coordinates": [
      -8.472132,
      41.61297
    ]
  }
},
{
  "type": "Feature",
  "id": "node/8833322152",
  "properties": {
    "access": "yes",
    "addr:city": "Guarda",
    "addr:country": "PT",
    "authentication:membership_card": "yes",
    "authentication:none": "no",
    "capacity": "2",
    "fee": "yes",
    "motorcar": "yes",
    "name": "GRD-00013 - Pingo Doce",
    "network": "Mobi.E",
    "opening_hours": "24/7",
    "operator": "KLC",
    "parking:fee": "no",
    "planned:amenity": "charging_station",
    "ref": "GRD-00013",
    "socket:chademo": "1",
    "socket:chademo:current": "120",
    "socket:chademo:output": "50kW",
    "socket:chademo:voltage": "500",
    "socket:type2_cable": "1",
    "socket:type2_cable:current": "32",
    "socket:type2_cable:output": "22kW",
    "socket:type2_cable:voltage": "400",
    "socket:type2_combo": "1",
    "socket:type2_combo:current": "125",
    "socket:type2_combo:output": "50kW",
    "socket:type2_combo:voltage": "500",
    "website": "https://www.mobie.pt/",
    "id": "node/8833322152"
  },
  "geometry": {
    "type": "Point",
    "coordinates": [
      -7.250619,
      40.5592666
    ]
  }
},
{
  "type": "Feature",
  "id": "node/8833322153",
  "properties": {
    "access": "yes",
    "addr:city": "Lourinhã",
    "addr:country": "PT",
    "authentication:membership_card": "yes",
    "authentication:none": "no",
    "capacity": "2",
    "fee": "yes",
    "motorcar": "yes",
    "name": "LNH-00002 - Pingo Doce",
    "network": "Mobi.E",
    "opening_hours": "24/7",
    "operator": "KLC",
    "parking:fee": "no",
    "planned:amenity": "charging_station",
    "ref": "LNH-00002",
    "socket:chademo": "1",
    "socket:chademo:current": "120",
    "socket:chademo:output": "50kW",
    "socket:chademo:voltage": "500",
    "socket:type2_cable": "1",
    "socket:type2_cable:current": "32",
    "socket:type2_cable:output": "22kW",
    "socket:type2_cable:voltage": "400",
    "socket:type2_combo": "1",
    "socket:type2_combo:current": "125",
    "socket:type2_combo:output": "50kW",
    "socket:type2_combo:voltage": "500",
    "website": "https://www.mobie.pt/",
    "id": "node/8833322153"
  },
  "geometry": {
    "type": "Point",
    "coordinates": [
      -9.3126578,
      39.2504835
    ]
  }
},
{
  "type": "Feature",
  "id": "node/8833322154",
  "properties": {
    "access": "yes",
    "addr:city": "Mirandela",
    "addr:country": "PT",
    "authentication:membership_card": "yes",
    "authentication:none": "no",
    "capacity": "2",
    "fee": "yes",
    "motorcar": "yes",
    "name": "MDL-00003 - Pingo Doce",
    "network": "Mobi.E",
    "opening_hours": "24/7",
    "operator": "KLC",
    "parking:fee": "no",
    "planned:amenity": "charging_station",
    "ref": "MDL-00003",
    "socket:chademo": "1",
    "socket:chademo:current": "120",
    "socket:chademo:output": "50kW",
    "socket:chademo:voltage": "500",
    "socket:type2_cable": "1",
    "socket:type2_cable:current": "63",
    "socket:type2_cable:output": "43kW",
    "socket:type2_cable:voltage": "400",
    "socket:type2_combo": "1",
    "socket:type2_combo:current": "125",
    "socket:type2_combo:output": "50kW",
    "socket:type2_combo:voltage": "500",
    "website": "https://www.mobie.pt/",
    "id": "node/8833322154"
  },
  "geometry": {
    "type": "Point",
    "coordinates": [
      -7.1792841,
      41.4962763
    ]
  }
},
{
  "type": "Feature",
  "id": "node/8833322155",
  "properties": {
    "access": "yes",
    "addr:city": "Vizela",
    "addr:country": "PT",
    "authentication:membership_card": "yes",
    "authentication:none": "no",
    "capacity": "2",
    "fee": "yes",
    "motorcar": "yes",
    "name": "VIZ-00003 - Pingo Doce",
    "network": "Mobi.E",
    "opening_hours": "24/7",
    "operator": "KLC",
    "parking:fee": "no",
    "planned:amenity": "charging_station",
    "ref": "VIZ-00003",
    "socket:chademo": "1",
    "socket:chademo:current": "120",
    "socket:chademo:output": "50kW",
    "socket:chademo:voltage": "500",
    "socket:type2_cable": "1",
    "socket:type2_cable:current": "63",
    "socket:type2_cable:output": "43kW",
    "socket:type2_cable:voltage": "400",
    "socket:type2_combo": "1",
    "socket:type2_combo:current": "125",
    "socket:type2_combo:output": "50kW",
    "socket:type2_combo:voltage": "500",
    "website": "https://www.mobie.pt/",
    "id": "node/8833322155"
  },
  "geometry": {
    "type": "Point",
    "coordinates": [
      -8.3046588,
      41.3688027
    ]
  }
},
{
  "type": "Feature",
  "id": "node/8833382346",
  "properties": {
    "access": "yes",
    "addr:city": "Bragança",
    "addr:country": "PT",
    "authentication:membership_card": "yes",
    "authentication:none": "no",
    "capacity": "2",
    "fee": "yes",
    "motorcar": "yes",
    "name": "BGC-00006 - Pingo Doce",
    "network": "Mobi.E",
    "opening_hours": "24/7",
    "operator": "KLC",
    "parking:fee": "no",
    "planned:amenity": "charging_station",
    "ref": "BGC-00006",
    "socket:chademo": "1",
    "socket:chademo:current": "120",
    "socket:chademo:output": "50kW",
    "socket:chademo:voltage": "500",
    "socket:type2_cable": "1",
    "socket:type2_cable:current": "63",
    "socket:type2_cable:output": "43kW",
    "socket:type2_cable:voltage": "400",
    "socket:type2_combo": "1",
    "socket:type2_combo:current": "125",
    "socket:type2_combo:output": "50kW",
    "socket:type2_combo:voltage": "500",
    "website": "https://www.mobie.pt/",
    "id": "node/8833382346"
  },
  "geometry": {
    "type": "Point",
    "coordinates": [
      -6.7791972,
      41.787988
    ]
  }
},
{
  "type": "Feature",
  "id": "node/8833382347",
  "properties": {
    "access": "yes",
    "addr:city": "Abrantes",
    "addr:country": "PT",
    "authentication:membership_card": "yes",
    "authentication:none": "no",
    "capacity": "2",
    "fee": "yes",
    "motorcar": "yes",
    "name": "ABT-00005 - Pingo Doce",
    "network": "Mobi.E",
    "opening_hours": "24/7",
    "operator": "KLC",
    "parking:fee": "no",
    "planned:amenity": "charging_station",
    "ref": "ABT-00005",
    "socket:chademo": "1",
    "socket:chademo:current": "120",
    "socket:chademo:output": "50kW",
    "socket:chademo:voltage": "500",
    "socket:type2_cable": "1",
    "socket:type2_cable:current": "63",
    "socket:type2_cable:output": "43kW",
    "socket:type2_cable:voltage": "400",
    "socket:type2_combo": "1",
    "socket:type2_combo:current": "125",
    "socket:type2_combo:output": "50kW",
    "socket:type2_combo:voltage": "500",
    "website": "https://www.mobie.pt/",
    "id": "node/8833382347"
  },
  "geometry": {
    "type": "Point",
    "coordinates": [
      -8.2049626,
      39.4662574
    ]
  }
},
{
  "type": "Feature",
  "id": "node/8833382348",
  "properties": {
    "access": "yes",
    "addr:city": "Vila Nova de Cerveira",
    "addr:country": "PT",
    "authentication:membership_card": "yes",
    "authentication:none": "no",
    "capacity": "2",
    "fee": "yes",
    "motorcar": "yes",
    "name": "VNC-00003 - Pingo Doce",
    "network": "Mobi.E",
    "opening_hours": "24/7",
    "operator": "KLC",
    "parking:fee": "no",
    "planned:amenity": "charging_station",
    "ref": "VNC-00003",
    "socket:chademo": "1",
    "socket:chademo:current": "120",
    "socket:chademo:output": "50kW",
    "socket:chademo:voltage": "500",
    "socket:type2_cable": "1",
    "socket:type2_cable:current": "63",
    "socket:type2_cable:output": "43kW",
    "socket:type2_cable:voltage": "400",
    "socket:type2_combo": "1",
    "socket:type2_combo:current": "125",
    "socket:type2_combo:output": "50kW",
    "socket:type2_combo:voltage": "500",
    "website": "https://www.mobie.pt/",
    "id": "node/8833382348"
  },
  "geometry": {
    "type": "Point",
    "coordinates": [
      -8.754199,
      41.923598
    ]
  }
},
{
  "type": "Feature",
  "id": "node/8833382349",
  "properties": {
    "access": "yes",
    "addr:city": "Évora",
    "addr:country": "PT",
    "authentication:membership_card": "yes",
    "authentication:none": "no",
    "capacity": "2",
    "fee": "yes",
    "motorcar": "yes",
    "name": "EVR-00020 - Pingo Doce",
    "network": "Mobi.E",
    "opening_hours": "24/7",
    "operator": "KLC",
    "parking:fee": "no",
    "planned:amenity": "charging_station",
    "ref": "EVR-00020",
    "socket:chademo": "1",
    "socket:chademo:current": "120",
    "socket:chademo:output": "50kW",
    "socket:chademo:voltage": "500",
    "socket:type2_cable": "1",
    "socket:type2_cable:current": "32",
    "socket:type2_cable:output": "22kW",
    "socket:type2_cable:voltage": "400",
    "socket:type2_combo": "1",
    "socket:type2_combo:current": "125",
    "socket:type2_combo:output": "50kW",
    "socket:type2_combo:voltage": "500",
    "website": "https://www.mobie.pt/",
    "id": "node/8833382349"
  },
  "geometry": {
    "type": "Point",
    "coordinates": [
      -7.941877,
      38.566363
    ]
  }
},
{
  "type": "Feature",
  "id": "node/8833398839",
  "properties": {
    "access": "yes",
    "addr:city": "Gandra",
    "addr:country": "PT",
    "authentication:membership_card": "yes",
    "authentication:none": "no",
    "capacity": "2",
    "fee": "yes",
    "motorcar": "yes",
    "name": "MNC-00003 - Pingo Doce",
    "network": "Mobi.E",
    "opening_hours": "24/7",
    "operator": "KLC",
    "parking:fee": "no",
    "planned:amenity": "charging_station",
    "ref": "MNC-00003",
    "socket:chademo": "1",
    "socket:chademo:current": "120",
    "socket:chademo:output": "50kW",
    "socket:chademo:voltage": "500",
    "socket:type2_cable": "1",
    "socket:type2_cable:current": "63",
    "socket:type2_cable:output": "43kW",
    "socket:type2_cable:voltage": "400",
    "socket:type2_combo": "1",
    "socket:type2_combo:current": "125",
    "socket:type2_combo:output": "50kW",
    "socket:type2_combo:voltage": "500",
    "website": "https://www.mobie.pt/",
    "id": "node/8833398839"
  },
  "geometry": {
    "type": "Point",
    "coordinates": [
      -8.5070813,
      42.0633858
    ]
  }
},
{
  "type": "Feature",
  "id": "node/8833398840",
  "properties": {
    "access": "yes",
    "addr:city": "Porto de Mós",
    "addr:country": "PT",
    "authentication:membership_card": "yes",
    "authentication:none": "no",
    "capacity": "2",
    "fee": "yes",
    "motorcar": "yes",
    "name": "PMS-00002 - Pingo Doce",
    "network": "Mobi.E",
    "opening_hours": "24/7",
    "operator": "KLC",
    "parking:fee": "no",
    "planned:amenity": "charging_station",
    "ref": "PMS-00002",
    "socket:chademo": "1",
    "socket:chademo:current": "120",
    "socket:chademo:output": "50kW",
    "socket:chademo:voltage": "500",
    "socket:type2_cable": "1",
    "socket:type2_cable:current": "32",
    "socket:type2_cable:output": "22kW",
    "socket:type2_cable:voltage": "400",
    "socket:type2_combo": "1",
    "socket:type2_combo:current": "125",
    "socket:type2_combo:output": "50kW",
    "socket:type2_combo:voltage": "500",
    "website": "https://www.mobie.pt/",
    "id": "node/8833398840"
  },
  "geometry": {
    "type": "Point",
    "coordinates": [
      -8.856618,
      39.622959
    ]
  }
},
{
  "type": "Feature",
  "id": "node/8833398841",
  "properties": {
    "access": "yes",
    "addr:city": "Almeirim",
    "addr:country": "PT",
    "authentication:membership_card": "yes",
    "authentication:none": "no",
    "capacity": "2",
    "fee": "yes",
    "motorcar": "yes",
    "name": "ALR-00002 - Pingo Doce",
    "network": "Mobi.E",
    "opening_hours": "24/7",
    "operator": "KLC",
    "parking:fee": "no",
    "planned:amenity": "charging_station",
    "ref": "ALR-00002",
    "socket:chademo": "1",
    "socket:chademo:current": "120",
    "socket:chademo:output": "50kW",
    "socket:chademo:voltage": "500",
    "socket:type2_cable": "1",
    "socket:type2_cable:current": "32",
    "socket:type2_cable:output": "22kW",
    "socket:type2_cable:voltage": "400",
    "socket:type2_combo": "1",
    "socket:type2_combo:current": "125",
    "socket:type2_combo:output": "50kW",
    "socket:type2_combo:voltage": "500",
    "website": "https://www.mobie.pt/",
    "id": "node/8833398841"
  },
  "geometry": {
    "type": "Point",
    "coordinates": [
      -8.6241502,
      39.1904343
    ]
  }
},
{
  "type": "Feature",
  "id": "node/8833398842",
  "properties": {
    "access": "yes",
    "addr:city": "Torres Novas",
    "addr:country": "PT",
    "authentication:membership_card": "yes",
    "authentication:none": "no",
    "capacity": "2",
    "fee": "yes",
    "motorcar": "yes",
    "name": "TNV-00005 - Pingo Doce",
    "network": "Mobi.E",
    "opening_hours": "24/7",
    "operator": "KLC",
    "parking:fee": "no",
    "planned:amenity": "charging_station",
    "ref": "TNV-00005",
    "socket:chademo": "1",
    "socket:chademo:current": "120",
    "socket:chademo:output": "50kW",
    "socket:chademo:voltage": "500",
    "socket:type2_cable": "1",
    "socket:type2_cable:current": "32",
    "socket:type2_cable:output": "22kW",
    "socket:type2_cable:voltage": "400",
    "socket:type2_combo": "1",
    "socket:type2_combo:current": "125",
    "socket:type2_combo:output": "50kW",
    "socket:type2_combo:voltage": "500",
    "website": "https://www.mobie.pt/",
    "id": "node/8833398842"
  },
  "geometry": {
    "type": "Point",
    "coordinates": [
      -8.5212973,
      39.463053
    ]
  }
},
{
  "type": "Feature",
  "id": "node/8833416437",
  "properties": {
    "access": "yes",
    "addr:city": "Santarém",
    "addr:country": "PT",
    "authentication:membership_card": "yes",
    "authentication:none": "no",
    "capacity": "2",
    "fee": "yes",
    "motorcar": "yes",
    "name": "STR-00020 - Pingo Doce",
    "network": "Mobi.E",
    "opening_hours": "24/7",
    "operator": "KLC",
    "parking:fee": "no",
    "planned:amenity": "charging_station",
    "ref": "STR-00020",
    "socket:chademo": "1",
    "socket:chademo:current": "120",
    "socket:chademo:output": "50kW",
    "socket:chademo:voltage": "500",
    "socket:type2_cable": "1",
    "socket:type2_cable:current": "63",
    "socket:type2_cable:output": "43kW",
    "socket:type2_cable:voltage": "400",
    "socket:type2_combo": "1",
    "socket:type2_combo:current": "125",
    "socket:type2_combo:output": "50kW",
    "socket:type2_combo:voltage": "500",
    "website": "https://www.mobie.pt/",
    "id": "node/8833416437"
  },
  "geometry": {
    "type": "Point",
    "coordinates": [
      -8.7028004,
      39.2390315
    ]
  }
},
{
  "type": "Feature",
  "id": "node/8833416438",
  "properties": {
    "access": "yes",
    "addr:city": "Valongo",
    "addr:country": "PT",
    "authentication:membership_card": "yes",
    "authentication:none": "no",
    "capacity": "2",
    "fee": "yes",
    "motorcar": "yes",
    "name": "VLG-00010 - Pingo Doce",
    "network": "Mobi.E",
    "opening_hours": "24/7",
    "operator": "KLC",
    "parking:fee": "no",
    "planned:amenity": "charging_station",
    "ref": "VLG-00010",
    "socket:chademo": "1",
    "socket:chademo:current": "120",
    "socket:chademo:output": "50kW",
    "socket:chademo:voltage": "500",
    "socket:type2_cable": "1",
    "socket:type2_cable:current": "63",
    "socket:type2_cable:output": "43kW",
    "socket:type2_cable:voltage": "400",
    "socket:type2_combo": "1",
    "socket:type2_combo:current": "125",
    "socket:type2_combo:output": "50kW",
    "socket:type2_combo:voltage": "500",
    "website": "https://www.mobie.pt/",
    "id": "node/8833416438"
  },
  "geometry": {
    "type": "Point",
    "coordinates": [
      -8.4983926,
      41.1879449
    ]
  }
},
{
  "type": "Feature",
  "id": "node/8833416439",
  "properties": {
    "access": "yes",
    "addr:city": "Malveira",
    "addr:country": "PT",
    "authentication:membership_card": "yes",
    "authentication:none": "no",
    "capacity": "2",
    "fee": "yes",
    "motorcar": "yes",
    "name": "MFR-00017 - Pingo Doce",
    "network": "Mobi.E",
    "opening_hours": "24/7",
    "operator": "KLC",
    "parking:fee": "no",
    "planned:amenity": "charging_station",
    "ref": "MFR-00017",
    "socket:chademo": "1",
    "socket:chademo:current": "120",
    "socket:chademo:output": "50kW",
    "socket:chademo:voltage": "500",
    "socket:type2_cable": "1",
    "socket:type2_cable:current": "32",
    "socket:type2_cable:output": "22kW",
    "socket:type2_cable:voltage": "400",
    "socket:type2_combo": "1",
    "socket:type2_combo:current": "125",
    "socket:type2_combo:output": "50kW",
    "socket:type2_combo:voltage": "500",
    "website": "https://www.mobie.pt/",
    "id": "node/8833416439"
  },
  "geometry": {
    "type": "Point",
    "coordinates": [
      -9.2454414,
      38.9297345
    ]
  }
},
{
  "type": "Feature",
  "id": "node/8833416440",
  "properties": {
    "access": "yes",
    "addr:city": "Ponte de Sor",
    "addr:country": "PT",
    "authentication:membership_card": "yes",
    "authentication:none": "no",
    "capacity": "2",
    "fee": "yes",
    "motorcar": "yes",
    "name": "PSR-00002 - Pingo Doce",
    "network": "Mobi.E",
    "opening_hours": "24/7",
    "operator": "KLC",
    "parking:fee": "no",
    "planned:amenity": "charging_station",
    "ref": "PSR-00002",
    "socket:chademo": "1",
    "socket:chademo:current": "120",
    "socket:chademo:output": "50kW",
    "socket:chademo:voltage": "500",
    "socket:type2_cable": "1",
    "socket:type2_cable:current": "63",
    "socket:type2_cable:output": "43kW",
    "socket:type2_cable:voltage": "400",
    "socket:type2_combo": "1",
    "socket:type2_combo:current": "125",
    "socket:type2_combo:output": "50kW",
    "socket:type2_combo:voltage": "500",
    "website": "https://www.mobie.pt/",
    "id": "node/8833416440"
  },
  "geometry": {
    "type": "Point",
    "coordinates": [
      -8.0129129,
      39.2681083
    ]
  }
},
{
  "type": "Feature",
  "id": "node/8833480188",
  "properties": {
    "access": "yes",
    "addr:city": "Aveiro",
    "addr:country": "PT",
    "authentication:membership_card": "yes",
    "authentication:none": "no",
    "capacity": "2",
    "fee": "yes",
    "motorcar": "yes",
    "name": "AVR-00028 - Pingo Doce",
    "network": "Mobi.E",
    "opening_hours": "24/7",
    "operator": "KLC",
    "parking:fee": "no",
    "planned:amenity": "charging_station",
    "ref": "AVR-00028",
    "socket:chademo": "1",
    "socket:chademo:current": "120",
    "socket:chademo:output": "50kW",
    "socket:chademo:voltage": "500",
    "socket:type2_cable": "1",
    "socket:type2_cable:current": "63",
    "socket:type2_cable:output": "43kW",
    "socket:type2_cable:voltage": "400",
    "socket:type2_combo": "1",
    "socket:type2_combo:current": "125",
    "socket:type2_combo:output": "50kW",
    "socket:type2_combo:voltage": "500",
    "website": "https://www.mobie.pt/",
    "id": "node/8833480188"
  },
  "geometry": {
    "type": "Point",
    "coordinates": [
      -8.6214536,
      40.6500296
    ]
  }
},
{
  "type": "Feature",
  "id": "node/8833480189",
  "properties": {
    "access": "yes",
    "addr:city": "Tondela",
    "addr:country": "PT",
    "authentication:membership_card": "yes",
    "authentication:none": "no",
    "capacity": "2",
    "fee": "yes",
    "motorcar": "yes",
    "name": "TND-00006 - Pingo Doce",
    "network": "Mobi.E",
    "opening_hours": "24/7",
    "operator": "KLC",
    "parking:fee": "no",
    "planned:amenity": "charging_station",
    "ref": "TND-00006",
    "socket:chademo": "1",
    "socket:chademo:current": "120",
    "socket:chademo:output": "50kW",
    "socket:chademo:voltage": "500",
    "socket:type2_cable": "1",
    "socket:type2_cable:current": "63",
    "socket:type2_cable:output": "43kW",
    "socket:type2_cable:voltage": "400",
    "socket:type2_combo": "1",
    "socket:type2_combo:current": "125",
    "socket:type2_combo:output": "50kW",
    "socket:type2_combo:voltage": "500",
    "website": "https://www.mobie.pt/",
    "id": "node/8833480189"
  },
  "geometry": {
    "type": "Point",
    "coordinates": [
      -8.0888361,
      40.5288405
    ]
  }
},
{
  "type": "Feature",
  "id": "node/8850643295",
  "properties": {
    "access": "yes",
    "addr:country": "PT",
    "authentication:membership_card": "yes",
    "authentication:none": "no",
    "capacity": "2",
    "fee": "yes",
    "motorcar": "yes",
    "name": "VND-00004",
    "network": "Mobi.E",
    "opening_hours": "24/7",
    "operator": "Galp Power",
    "parking:fee": "no",
    "planned:amenity": "charging_station",
    "ref": "VND-90004",
    "socket:type2": "2",
    "socket:type2:current": "32",
    "socket:type2:output": "22kW",
    "socket:type2:voltage": "400",
    "website": "https://www.mobie.pt/",
    "id": "node/8850643295"
  },
  "geometry": {
    "type": "Point",
    "coordinates": [
      -8.45513,
      38.67768
    ]
  }
},
{
  "type": "Feature",
  "id": "node/8850662958",
  "properties": {
    "access": "yes",
    "addr:country": "PT",
    "authentication:membership_card": "yes",
    "authentication:none": "no",
    "capacity": "2",
    "fee": "yes",
    "motorcar": "yes",
    "name": "LGA-XXXXX",
    "network": "Mobi.E",
    "opening_hours": "24/7",
    "operator": "unknown",
    "parking:fee": "no",
    "planned:amenity": "charging_station",
    "ref": "LGA-XXXXX",
    "socket:type2": "2",
    "socket:type2:current": "32",
    "socket:type2:output": "22kW",
    "socket:type2:voltage": "400",
    "website": "https://www.mobie.pt/",
    "id": "node/8850662958"
  },
  "geometry": {
    "type": "Point",
    "coordinates": [
      -8.4694225,
      37.0997642
    ]
  }
},
{
  "type": "Feature",
  "id": "node/8851157010",
  "properties": {
    "access": "yes",
    "addr:country": "PT",
    "authentication:membership_card": "yes",
    "authentication:none": "no",
    "capacity": "2",
    "fee": "yes",
    "motorcar": "yes",
    "name": "LSB-00331/332",
    "network": "Mobi.E",
    "opening_hours": "24/7",
    "operator": "Mobiletric",
    "parking:fee": "no",
    "planned:amenity": "charging_station",
    "ref": "LSB-00331;LSB-00332",
    "socket:chademo": "2",
    "socket:chademo:current": "120",
    "socket:chademo:output": "50kW",
    "socket:chademo:voltage": "500",
    "socket:type2_combo": "2",
    "socket:type2_combo:current": "125",
    "socket:type2_combo:output": "50kW",
    "socket:type2_combo:voltage": "500",
    "website": "https://www.mobie.pt/",
    "id": "node/8851157010"
  },
  "geometry": {
    "type": "Point",
    "coordinates": [
      -9.1536148,
      38.7597174
    ]
  }
},
{
  "type": "Feature",
  "id": "node/8851226360",
  "properties": {
    "access": "yes",
    "addr:country": "PT",
    "authentication:membership_card": "yes",
    "authentication:none": "no",
    "capacity": "2",
    "fee": "yes",
    "motorcar": "yes",
    "name": "ABF-00021",
    "network": "Mobi.E",
    "opening_hours": "24/7",
    "operator": "CME",
    "parking:fee": "no",
    "planned:amenity": "charging_station",
    "ref": "ABF-00021",
    "socket:type2": "2",
    "socket:type2:current": "32",
    "socket:type2:output": "22kW",
    "socket:type2:voltage": "400",
    "website": "https://www.mobie.pt/",
    "id": "node/8851226360"
  },
  "geometry": {
    "type": "Point",
    "coordinates": [
      -8.205581,
      37.175409
    ]
  }
},
{
  "type": "Feature",
  "id": "node/8851234253",
  "properties": {
    "access": "yes",
    "addr:country": "PT",
    "authentication:membership_card": "yes",
    "authentication:none": "no",
    "capacity": "2",
    "fee": "yes",
    "motorcar": "yes",
    "name": "SBA-00004 - Intermarché",
    "network": "Mobi.E",
    "opening_hours": "24/7",
    "operator": "Powerdot",
    "parking:fee": "no",
    "planned:amenity": "charging_station",
    "ref": "SBA-00004",
    "socket:chademo": "1",
    "socket:chademo:current": "120",
    "socket:chademo:output": "50kW",
    "socket:chademo:voltage": "500",
    "socket:type2_cable": "1",
    "socket:type2_cable:current": "63",
    "socket:type2_cable:output": "43kW",
    "socket:type2_cable:voltage": "400",
    "socket:type2_combo": "1",
    "socket:type2_combo:current": "125",
    "socket:type2_combo:output": "50kW",
    "socket:type2_combo:voltage": "500",
    "website": "https://www.mobie.pt/",
    "id": "node/8851234253"
  },
  "geometry": {
    "type": "Point",
    "coordinates": [
      -7.8772235,
      37.1527096
    ]
  }
},
{
  "type": "Feature",
  "id": "node/8851234254",
  "properties": {
    "access": "yes",
    "addr:country": "PT",
    "authentication:membership_card": "yes",
    "authentication:none": "no",
    "capacity": "2",
    "fee": "yes",
    "motorcar": "yes",
    "name": "OER-00067 - Pingo Doce",
    "network": "Mobi.E",
    "opening_hours": "24/7",
    "operator": "KLC",
    "parking:fee": "no",
    "planned:amenity": "charging_station",
    "ref": "OER-00067",
    "socket:chademo": "1",
    "socket:chademo:current": "120",
    "socket:chademo:output": "50kW",
    "socket:chademo:voltage": "500",
    "socket:type2_cable": "1",
    "socket:type2_cable:current": "63",
    "socket:type2_cable:output": "43kW",
    "socket:type2_cable:voltage": "400",
    "socket:type2_combo": "1",
    "socket:type2_combo:current": "125",
    "socket:type2_combo:output": "50kW",
    "socket:type2_combo:voltage": "500",
    "website": "https://www.mobie.pt/",
    "id": "node/8851234254"
  },
  "geometry": {
    "type": "Point",
    "coordinates": [
      -9.2929526,
      38.6958693
    ]
  }
},
{
  "type": "Feature",
  "id": "node/8851234255",
  "properties": {
    "access": "yes",
    "addr:country": "PT",
    "authentication:membership_card": "yes",
    "authentication:none": "no",
    "capacity": "2",
    "fee": "yes",
    "motorcar": "yes",
    "name": "LSB-00330 - Pingo Doce",
    "network": "Mobi.E",
    "opening_hours": "24/7",
    "operator": "KLC",
    "parking:fee": "no",
    "planned:amenity": "charging_station",
    "ref": "LSB-00330",
    "socket:chademo": "1",
    "socket:chademo:current": "120",
    "socket:chademo:output": "50kW",
    "socket:chademo:voltage": "500",
    "socket:type2_cable": "1",
    "socket:type2_cable:current": "63",
    "socket:type2_cable:output": "43kW",
    "socket:type2_cable:voltage": "400",
    "socket:type2_combo": "1",
    "socket:type2_combo:current": "125",
    "socket:type2_combo:output": "50kW",
    "socket:type2_combo:voltage": "500",
    "website": "https://www.mobie.pt/",
    "id": "node/8851234255"
  },
  "geometry": {
    "type": "Point",
    "coordinates": [
      -9.215176,
      38.6955015
    ]
  }
},
{
  "type": "Feature",
  "id": "node/8851234256",
  "properties": {
    "access": "yes",
    "addr:country": "PT",
    "authentication:membership_card": "yes",
    "authentication:none": "no",
    "capacity": "2",
    "fee": "yes",
    "motorcar": "yes",
    "name": "FIG-00005 - Foz Plaza",
    "network": "Mobi.E",
    "opening_hours": "08:30-22:00",
    "operator": "GRCAPP",
    "parking:fee": "no",
    "planned:amenity": "charging_station",
    "ref": "FIG-00005",
    "socket:type2": "2",
    "socket:type2:current": "32",
    "socket:type2:output": "22kW",
    "socket:type2:voltage": "400",
    "website": "https://www.mobie.pt/",
    "id": "node/8851234256"
  },
  "geometry": {
    "type": "Point",
    "coordinates": [
      -8.860599,
      40.166767
    ]
  }
},
{
  "type": "Feature",
  "id": "node/8851368550",
  "properties": {
    "access": "yes",
    "addr:country": "PT",
    "authentication:membership_card": "yes",
    "authentication:none": "no",
    "capacity": "2",
    "fee": "yes",
    "motorcar": "yes",
    "name": "CSC-00071 - Quinta da Marinha",
    "network": "Mobi.E",
    "opening_hours": "24/7",
    "operator": "Powerdot",
    "parking:fee": "no",
    "planned:amenity": "charging_station",
    "ref": "CSC-00071",
    "socket:chademo": "1",
    "socket:chademo:current": "120",
    "socket:chademo:output": "50kW",
    "socket:chademo:voltage": "500",
    "socket:type2_cable": "1",
    "socket:type2_cable:current": "63",
    "socket:type2_cable:output": "43kW",
    "socket:type2_cable:voltage": "400",
    "socket:type2_combo": "1",
    "socket:type2_combo:current": "125",
    "socket:type2_combo:output": "50kW",
    "socket:type2_combo:voltage": "500",
    "website": "https://www.mobie.pt/",
    "id": "node/8851368550"
  },
  "geometry": {
    "type": "Point",
    "coordinates": [
      -9.455919,
      38.711142
    ]
  }
},
{
  "type": "Feature",
  "id": "node/8888875830",
  "properties": {
    "access": "yes",
    "addr:country": "PT",
    "authentication:membership_card": "yes",
    "authentication:none": "no",
    "capacity": "8",
    "fee": "yes",
    "motorcar": "yes",
    "name": "LSB-XXXXX - Parque Estacionamento Lumiar",
    "network": "Mobi.E",
    "opening_hours": "24/7",
    "operator": "EMEL",
    "parking:fee": "yes",
    "planned:amenity": "charging_station",
    "ref": "LSB-XXXXX",
    "socket:type2": "8",
    "socket:type2:current": "32",
    "socket:type2:output": "7.4kW",
    "socket:type2:voltage": "230",
    "website": "https://www.mobie.pt/",
    "id": "node/8888875830"
  },
  "geometry": {
    "type": "Point",
    "coordinates": [
      -9.1596815,
      38.7734649
    ]
  }
},
{
  "type": "Feature",
  "id": "node/8888875831",
  "properties": {
    "access": "yes",
    "addr:country": "PT",
    "authentication:membership_card": "yes",
    "authentication:none": "no",
    "capacity": "8",
    "fee": "yes",
    "motorcar": "yes",
    "name": "LSB-XXXXX - Parque Estacionamento Lumiar",
    "network": "Mobi.E",
    "opening_hours": "24/7",
    "operator": "EMEL",
    "parking:fee": "yes",
    "planned:amenity": "charging_station",
    "ref": "LSB-XXXXX",
    "socket:type2": "8",
    "socket:type2:current": "32",
    "socket:type2:output": "22kW",
    "socket:type2:voltage": "400",
    "website": "https://www.mobie.pt/",
    "id": "node/8888875831"
  },
  "geometry": {
    "type": "Point",
    "coordinates": [
      -9.1596631,
      38.7734372
    ]
  }
},
{
  "type": "Feature",
  "id": "node/8930776929",
  "properties": {
    "access": "yes",
    "addr:country": "PT",
    "authentication:membership_card": "yes",
    "authentication:none": "no",
    "capacity": "2",
    "fee": "yes",
    "motorcar": "yes",
    "name": "SBG-00002 - Intermarché",
    "network": "Mobi.E",
    "opening_hours": "24/7",
    "operator": "unknown",
    "parking:fee": "no",
    "planned:amenity": "charging_station",
    "ref": "SBG-00002",
    "socket:chademo": "1",
    "socket:chademo:current": "120",
    "socket:chademo:output": "50kW",
    "socket:chademo:voltage": "500",
    "socket:type2_cable": "1",
    "socket:type2_cable:current": "63",
    "socket:type2_cable:output": "43kW",
    "socket:type2_cable:voltage": "400",
    "socket:type2_combo": "1",
    "socket:type2_combo:current": "125",
    "socket:type2_combo:output": "50kW",
    "socket:type2_combo:voltage": "500",
    "website": "https://www.mobie.pt/",
    "id": "node/8930776929"
  },
  "geometry": {
    "type": "Point",
    "coordinates": [
      -7.075679,
      40.356051
    ]
  }
},
{
  "type": "Feature",
  "id": "node/8930776930",
  "properties": {
    "access": "yes",
    "addr:country": "PT",
    "authentication:membership_card": "yes",
    "authentication:none": "no",
    "capacity": "24",
    "fee": "yes",
    "level": "-3",
    "location": "underground",
    "motorcar": "yes",
    "name": "LSB-00364...LSB-00375 - Colombo Shopping Piso -3",
    "network": "Mobi.E",
    "opening_hours": "Mo-Su 09:00-22:00",
    "operator": "CapWatt",
    "parking:fee": "yes",
    "planned:amenity": "charging_station",
    "ref": "LSB-00364;LSB-00365;LSB-00366;LSB-00367;LSB-00368;LSB-00369;LSB-00370;LSB-00371;LSB-00372;LSB-00373;LSB-00374;LSB-00375",
    "socket:type2": "24",
    "socket:type2:current": "32",
    "socket:type2:output": "22kW",
    "socket:type2:voltage": "400",
    "website": "https://www.mobie.pt/",
    "id": "node/8930776930"
  },
  "geometry": {
    "type": "Point",
    "coordinates": [
      -9.189442,
      38.755031
    ]
  }
},
{
  "type": "Feature",
  "id": "node/8930776931",
  "properties": {
    "access": "yes",
    "addr:country": "PT",
    "authentication:membership_card": "yes",
    "authentication:none": "no",
    "capacity": "1",
    "fee": "yes",
    "motorcar": "yes",
    "name": "LSB-00376",
    "network": "Mobi.E",
    "opening_hours": "24/7",
    "operator": "Ucharge",
    "parking:fee": "yes",
    "planned:amenity": "charging_station",
    "ref": "LSB-00376",
    "socket:chademo": "1",
    "socket:chademo:current": "120",
    "socket:chademo:output": "50kW",
    "socket:chademo:voltage": "500",
    "socket:type2_combo": "1",
    "socket:type2_combo:current": "125",
    "socket:type2_combo:output": "50kW",
    "socket:type2_combo:voltage": "500",
    "website": "https://www.mobie.pt/",
    "id": "node/8930776931"
  },
  "geometry": {
    "type": "Point",
    "coordinates": [
      -9.096353,
      38.7747311
    ]
  }
},
{
  "type": "Feature",
  "id": "node/8930776932",
  "properties": {
    "access": "customers",
    "addr:country": "PT",
    "authentication:membership_card": "yes",
    "authentication:none": "no",
    "capacity": "1",
    "fee": "yes",
    "motorcar": "yes",
    "name": "FIG-00009 - Hotel Atlântida Sol",
    "network": "Mobi.E",
    "opening_hours": "24/7",
    "operator": "Ucharge",
    "parking:fee": "no",
    "planned:amenity": "charging_station",
    "ref": "FIG-00009",
    "socket:chademo": "1",
    "socket:chademo:current": "120",
    "socket:chademo:output": "50kW",
    "socket:chademo:voltage": "500",
    "socket:type2_combo": "1",
    "socket:type2_combo:current": "125",
    "socket:type2_combo:output": "50kW",
    "socket:type2_combo:voltage": "500",
    "website": "https://www.mobie.pt/",
    "id": "node/8930776932"
  },
  "geometry": {
    "type": "Point",
    "coordinates": [
      -8.89445,
      40.175841
    ]
  }
},
{
  "type": "Feature",
  "id": "node/8930776933",
  "properties": {
    "access": "yes",
    "addr:country": "PT",
    "authentication:membership_card": "yes",
    "authentication:none": "no",
    "capacity": "2",
    "fee": "yes",
    "motorcar": "yes",
    "name": "VNF-00020 - Mercadona",
    "network": "Mobi.E",
    "opening_hours": "24/7",
    "operator": "Iberdrola",
    "parking:fee": "no",
    "planned:amenity": "charging_station",
    "ref": "VNF-00020",
    "socket:type2": "2",
    "socket:type2:current": "32",
    "socket:type2:output": "22kW",
    "socket:type2:voltage": "400",
    "website": "https://www.mobie.pt/",
    "id": "node/8930776933"
  },
  "geometry": {
    "type": "Point",
    "coordinates": [
      -8.524164,
      41.401297
    ]
  }
},
{
  "type": "Feature",
  "id": "node/8930794565",
  "properties": {
    "access": "yes",
    "addr:country": "PT",
    "authentication:membership_card": "yes",
    "authentication:none": "no",
    "capacity": "2",
    "fee": "yes",
    "motorcar": "yes",
    "name": "TRF-00008 - Intermarché",
    "network": "Mobi.E",
    "opening_hours": "24/7",
    "operator": "Powerdot",
    "parking:fee": "no",
    "planned:amenity": "charging_station",
    "ref": "TRF-00008",
    "socket:chademo": "1",
    "socket:chademo:current": "120",
    "socket:chademo:output": "50kW",
    "socket:chademo:voltage": "500",
    "socket:type2_cable": "1",
    "socket:type2_cable:current": "63",
    "socket:type2_cable:output": "43kW",
    "socket:type2_cable:voltage": "400",
    "socket:type2_combo": "1",
    "socket:type2_combo:current": "125",
    "socket:type2_combo:output": "50kW",
    "socket:type2_combo:voltage": "500",
    "website": "https://www.mobie.pt/",
    "id": "node/8930794565"
  },
  "geometry": {
    "type": "Point",
    "coordinates": [
      -8.563338,
      41.3298682
    ]
  }
},
{
  "type": "Feature",
  "id": "node/8930794566",
  "properties": {
    "access": "yes",
    "addr:country": "PT",
    "authentication:membership_card": "yes",
    "authentication:none": "no",
    "capacity": "2",
    "fee": "yes",
    "motorcar": "yes",
    "name": "LRA-00032 - Intermarché",
    "network": "Mobi.E",
    "opening_hours": "24/7",
    "operator": "Powerdot",
    "parking:fee": "no",
    "planned:amenity": "charging_station",
    "ref": "LRA-00032",
    "socket:chademo": "1",
    "socket:chademo:current": "120",
    "socket:chademo:output": "50kW",
    "socket:chademo:voltage": "500",
    "socket:type2_cable": "1",
    "socket:type2_cable:current": "63",
    "socket:type2_cable:output": "43kW",
    "socket:type2_cable:voltage": "400",
    "socket:type2_combo": "1",
    "socket:type2_combo:current": "125",
    "socket:type2_combo:output": "50kW",
    "socket:type2_combo:voltage": "500",
    "website": "https://www.mobie.pt/",
    "id": "node/8930794566"
  },
  "geometry": {
    "type": "Point",
    "coordinates": [
      -8.797181,
      39.741272
    ]
  }
},
{
  "type": "Feature",
  "id": "node/8934113941",
  "properties": {
    "access": "yes",
    "addr:country": "PT",
    "authentication:membership_card": "yes",
    "authentication:none": "no",
    "capacity": "2",
    "fee": "yes",
    "motorcar": "yes",
    "name": "TRF-00009 - Intermarché",
    "network": "Mobi.E",
    "opening_hours": "24/7",
    "operator": "Powerdot",
    "parking:fee": "no",
    "planned:amenity": "charging_station",
    "ref": "TRF-00004",
    "socket:type2": "2",
    "socket:type2:current": "32",
    "socket:type2:output": "7.4kW",
    "socket:type2:voltage": "230",
    "website": "https://www.mobie.pt/",
    "id": "node/8934113941"
  },
  "geometry": {
    "type": "Point",
    "coordinates": [
      -8.5633251,
      41.3299024
    ]
  }
},
{
  "type": "Feature",
  "id": "node/8958085916",
  "properties": {
    "access": "yes",
    "addr:country": "PT",
    "authentication:membership_card": "yes",
    "authentication:none": "no",
    "capacity": "2",
    "fee": "yes",
    "motorcar": "yes",
    "name": "BCL-00004",
    "network": "Mobi.E",
    "opening_hours": "24/7",
    "operator": "Powerdot",
    "parking:fee": "no",
    "planned:amenity": "charging_station",
    "ref": "BCL-90004",
    "socket:type2": "2",
    "socket:type2:current": "32",
    "socket:type2:output": "22kW",
    "socket:type2:voltage": "400",
    "website": "https://www.mobie.pt/",
    "id": "node/8958085916"
  },
  "geometry": {
    "type": "Point",
    "coordinates": [
      -8.617808,
      41.531923
    ]
  }
},
{
  "type": "Feature",
  "id": "node/8958089017",
  "properties": {
    "access": "yes",
    "addr:country": "PT",
    "authentication:membership_card": "yes",
    "authentication:none": "no",
    "capacity": "2",
    "fee": "yes",
    "motorcar": "yes",
    "name": "ABF-00018",
    "network": "Mobi.E",
    "opening_hours": "24/7",
    "operator": "CME",
    "parking:fee": "no",
    "planned:amenity": "charging_station",
    "ref": "ABF-00018",
    "socket:type2": "2",
    "socket:type2:current": "32",
    "socket:type2:output": "22kW",
    "socket:type2:voltage": "400",
    "website": "https://www.mobie.pt/",
    "id": "node/8958089017"
  },
  "geometry": {
    "type": "Point",
    "coordinates": [
      -8.241889,
      37.086372
    ]
  }
},
{
  "type": "Feature",
  "id": "node/8958089021",
  "properties": {
    "access": "yes",
    "addr:country": "PT",
    "authentication:membership_card": "yes",
    "authentication:none": "no",
    "capacity": "1",
    "fee": "yes",
    "motorcar": "yes",
    "name": "STC-00006",
    "network": "Mobi.E",
    "opening_hours": "24/7",
    "operator": "E-Plug",
    "parking:fee": "no",
    "planned:amenity": "charging_station",
    "ref": "STC-00006",
    "socket:chademo": "1",
    "socket:chademo:current": "120",
    "socket:chademo:output": "50kW",
    "socket:chademo:voltage": "500",
    "socket:type2_combo": "1",
    "socket:type2_combo:current": "125",
    "socket:type2_combo:output": "50kW",
    "socket:type2_combo:voltage": "500",
    "website": "https://www.mobie.pt/",
    "id": "node/8958089021"
  },
  "geometry": {
    "type": "Point",
    "coordinates": [
      -8.7314635,
      38.0397937
    ]
  }
}
]
}
