{
  "version": 0.6,
  "generator": "Overpass API 0.7.57 93a4d346",
  "osm3s": {
    "copyright": "The data included in this document is from www.openstreetmap.org. The data is made available under ODbL."
  },
  "elements": [

{
  "type": "node",
  "id": 6973507743,
  "lat": 37.0855011,
  "lon": -8.2659855,
  "tags": {
    "access": "yes",
    "addr:city": "Albufeira",
    "addr:country": "PT",
    "addr:postcode": "8201-918",
    "amenity": "charging_station",
    "capacity": "2",
    "fee": "no",
    "location": "underground",
    "motorcar": "yes",
    "name": "Marina de Albufeira Tesla Destination Charger",
    "network": "Tesla",
    "operator": "Tesla",
    "parking:fee": "yes",
    "phone": "+351 289 588 179",
    "ref": "dc37427",
    "socket:tesla_destination": "1",
    "socket:tesla_destination:output": "22kW",
    "socket:type2_cable": "1",
    "socket:type2_cable:output": "22kW",
    "website": "https://www.tesla.com/pt_PT/findus/list/chargers/Portugal"
  }
},
{
  "type": "node",
  "id": 7028293058,
  "lat": 37.3170799,
  "lon": -8.7983108,
  "tags": {
    "access": "yes",
    "addr:country": "PT",
    "addr:postcode": "8670-161 Aljezur",
    "amenity": "charging_station",
    "capacity": "2",
    "fee": "no",
    "motorcar": "yes",
    "name": "Intermarché Aljezur Tesla Destination Charger",
    "network": "Tesla",
    "opening_hours": "08:00-22:00",
    "operator": "Tesla",
    "phone": "+351 282 990 060",
    "ref": "dc90385",
    "socket:tesla_destination": "1",
    "socket:tesla_destination:output": "22kW",
    "socket:type2_cable": "1",
    "socket:type2_cable:output": "22kW",
    "website": "https://www.tesla.com/pt_PT/findus/list/chargers/Portugal"
  }
},
{
  "type": "node",
  "id": 7031126811,
  "lat": 37.1076720,
  "lon": -8.6737704,
  "tags": {
    "access": "yes",
    "addr:country": "PT",
    "addr:postcode": "8600-315 Lagos",
    "amenity": "charging_station",
    "capacity": "2",
    "fee": "no",
    "motorcar": "yes",
    "name": "Marina de Lagos Tesla Destination Charger",
    "network": "Tesla",
    "operator": "Tesla",
    "phone": "+351 282 770 210",
    "ref": "dc47851",
    "socket:tesla_destination": "1",
    "socket:tesla_destination:output": "17kW",
    "socket:type2_cable": "1",
    "socket:type2_cable:output": "17kW",
    "website": "https://www.tesla.com/pt_PT/findus/list/chargers/Portugal"
  }
},
{
  "type": "node",
  "id": 7070406263,
  "lat": 37.1177068,
  "lon": -8.2452580,
  "tags": {
    "access": "yes",
    "addr:city": "Vale Paraíso",
    "addr:country": "PT",
    "addr:street": "Zona Industrial de Vale Paraíso",
    "amenity": "charging_station",
    "authentication:membership_card": "yes",
    "authentication:none": "no",
    "capacity": "2",
    "email": "apoio.cliente@kmlowcost.com",
    "fee": "yes",
    "motorcar": "yes",
    "name": "ABF-00025",
    "network": "Mobi.E",
    "opening_hours": "24/7",
    "operator": "KLC",
    "parking:fee": "no",
    "phone": "+351 800 296 929",
    "ref": "ABF-00025",
    "socket:chademo": "1",
    "socket:chademo:current": "120",
    "socket:chademo:output": "50kW",
    "socket:chademo:voltage": "500",
    "socket:type2_cable": "1",
    "socket:type2_cable:current": "32",
    "socket:type2_cable:output": "22kW",
    "socket:type2_cable:voltage": "400",
    "socket:type2_combo": "1",
    "socket:type2_combo:current": "125",
    "socket:type2_combo:output": "50kW",
    "socket:type2_combo:voltage": "500",
    "website": "https://www.mobie.pt"
  }
},
{
  "type": "node",
  "id": 7773747775,
  "lat": 38.7277199,
  "lon": -8.9871383,
  "tags": {
    "access": "yes",
    "addr:country": "PT",
    "amenity": "charging_station",
    "authentication:membership_card": "yes",
    "authentication:none": "no",
    "capacity": "2",
    "email": "mobilidade.electricacrc@galp.com",
    "fee": "yes",
    "motorcar": "yes",
    "name": "ACH-00003",
    "network": "Mobi.E",
    "opening_hours": "24/7",
    "operator": "Galp Geste",
    "parking:fee": "no",
    "phone": "+351 800 249 249",
    "ref": "ACH-00003",
    "socket:chademo": "1",
    "socket:chademo:current": "120",
    "socket:chademo:output": "20kW",
    "socket:chademo:voltage": "500",
    "socket:type2_cable": "1",
    "socket:type2_cable:current": "30",
    "socket:type2_cable:output": "20kW",
    "socket:type2_cable:voltage": "400",
    "socket:type2_combo": "1",
    "socket:type2_combo:current": "125",
    "socket:type2_combo:output": "20kW",
    "socket:type2_combo:voltage": "500",
    "website": "https://www.mobie.pt"
  }
},
{
  "type": "node",
  "id": 8007776350,
  "lat": 38.7824211,
  "lon": -9.3757904,
  "tags": {
    "access": "yes",
    "addr:city": "Sintra",
    "addr:country": "PT",
    "amenity": "charging_station",
    "authentication:membership_card": "yes",
    "authentication:none": "no",
    "capacity": "2",
    "email": "ajuda@powerdot.pt",
    "fee": "yes",
    "motorcar": "yes",
    "name": "SNT-00045",
    "network": "Mobi.E",
    "opening_hours": "24/7",
    "operator": "Powerdot",
    "parking:fee": "no",
    "phone": "+351 800 180 292",
    "ref": "SNT-00045",
    "socket:chademo": "1",
    "socket:chademo:current": "120",
    "socket:chademo:output": "50kW",
    "socket:chademo:voltage": "500",
    "socket:type2_cable": "1",
    "socket:type2_cable:current": "32",
    "socket:type2_cable:output": "22kW",
    "socket:type2_cable:voltage": "400",
    "socket:type2_combo": "1",
    "socket:type2_combo:current": "125",
    "socket:type2_combo:output": "50kW",
    "socket:type2_combo:voltage": "500",
    "website": "https://www.mobie.pt"
  }
},
{
  "type": "node",
  "id": 8066793641,
  "lat": 40.1478520,
  "lon": -8.8540174,
  "tags": {
    "access": "yes",
    "addr:city": "Figueira da Foz",
    "addr:country": "PT",
    "addr:street": "Avenida Saraiva de Carvalho",
    "amenity": "charging_station",
    "authentication:membership_card": "yes",
    "authentication:none": "no",
    "capacity": "2",
    "email": "suporte@evpower.pt",
    "fee": "yes",
    "motorcar": "yes",
    "name": "FIG-00002",
    "network": "Mobi.E",
    "opening_hours": "24/7",
    "operator": "EV Power",
    "parking:fee": "no",
    "phone": "+351 800 254 565",
    "ref": "FIG-00002",
    "socket:chademo": "1",
    "socket:chademo:current": "120",
    "socket:chademo:output": "50kW",
    "socket:chademo:voltage": "500",
    "socket:type2_cable": "1",
    "socket:type2_cable:current": "32",
    "socket:type2_cable:output": "22kW",
    "socket:type2_cable:voltage": "400",
    "socket:type2_combo": "1",
    "socket:type2_combo:current": "125",
    "socket:type2_combo:output": "50kW",
    "socket:type2_combo:voltage": "500",
    "website": "https://www.mobie.pt"
  }
},
{
  "type": "node",
  "id": 8079171269,
  "lat": 41.4053993,
  "lon": -8.5206807,
  "tags": {
    "access": "yes",
    "addr:city": "Vila Nova de Famalicão",
    "addr:country": "PT",
    "addr:street": "Rua Luís Barroso",
    "amenity": "charging_station",
    "authentication:membership_card": "yes",
    "authentication:none": "no",
    "capacity": "2",
    "email": "suporte@mobiletric.com",
    "fee": "yes",
    "motorcar": "yes",
    "name": "VNF-00009",
    "network": "Mobi.E",
    "opening_hours": "24/7",
    "operator": "Mobiletric",
    "parking:fee": "no",
    "phone": "+351 800 210 204",
    "ref": "VNF-00009",
    "socket:chademo": "1",
    "socket:chademo:current": "120",
    "socket:chademo:output": "50kW",
    "socket:chademo:voltage": "500",
    "socket:type2_cable": "1",
    "socket:type2_cable:current": "32",
    "socket:type2_cable:output": "22kW",
    "socket:type2_cable:voltage": "400",
    "socket:type2_combo": "1",
    "socket:type2_combo:current": "125",
    "socket:type2_combo:output": "50kW",
    "socket:type2_combo:voltage": "500",
    "website": "https://www.mobie.pt"
  }
},
{
  "type": "node",
  "id": 8162552065,
  "lat": 37.9651563,
  "lon": -8.8584392,
  "tags": {
    "access": "yes",
    "addr:country": "PT",
    "amenity": "charging_station",
    "capacity": "4",
    "fee": "no",
    "motorcar": "yes",
    "name": "Intermarché de Sines Tesla Destination Charger",
    "network": "Tesla",
    "operator": "Tesla",
    "ref": "dc72791",
    "socket:tesla_destination": "2",
    "socket:tesla_destination:output": "22kW",
    "socket:type2_cable": "2",
    "socket:type2_cable:output": "22kW",
    "website": "https://www.tesla.com/pt_PT/findus/list/chargers/Portugal"
  }
},
{
  "type": "node",
  "id": 8199361953,
  "lat": 41.1255503,
  "lon": -8.6048269,
  "tags": {
    "access": "yes",
    "addr:country": "PT",
    "amenity": "charging_station",
    "capacity": "6",
    "fee": "no",
    "motorcar": "yes",
    "name": "El Corte Ingles de Gaia Tesla Destination Charger",
    "network": "Tesla",
    "operator": "Tesla",
    "parking:fee": "yes",
    "ref": "dc63384",
    "socket:tesla_destination": "3",
    "socket:tesla_destination:output": "22kW",
    "socket:type2_cable": "3",
    "socket:type2_cable:output": "22kW",
    "website": "https://www.tesla.com/pt_PT/findus/list/chargers/Portugal"
  }
},
{
  "type": "node",
  "id": 8420525170,
  "lat": 41.2118648,
  "lon": -8.2711226,
  "tags": {
    "access": "yes",
    "addr:country": "PT",
    "amenity": "charging_station",
    "authentication:membership_card": "yes",
    "authentication:none": "no",
    "capacity": "2",
    "email": "ajuda@powerdot.pt",
    "fee": "yes",
    "motorcar": "yes",
    "name": "PNF-00006",
    "network": "Mobi.E",
    "opening_hours": "24/7",
    "operator": "Powerdot",
    "parking:fee": "no",
    "phone": "+351 800 180 292",
    "ref": "PNF-00006",
    "socket:type2_cable": "2",
    "socket:type2_cable:current": "32",
    "socket:type2_cable:output": "22kW",
    "socket:type2_cable:voltage": "400",
    "start_date": "2021-03-21",
    "website": "https://www.mobie.pt"
  }
},
{
  "type": "node",
  "id": 8449046026,
  "lat": 38.7010339,
  "lon": -9.1757941,
  "tags": {
    "access": "yes",
    "addr:city": "Lisboa",
    "addr:country": "PT",
    "amenity": "charging_station",
    "authentication:membership_card": "yes",
    "authentication:none": "no",
    "capacity": "2",
    "email": "ajuda@powerdot.pt",
    "fee": "yes",
    "motorcar": "yes",
    "name": "LSB-00218",
    "network": "Mobi.E",
    "opening_hours": "24/7",
    "operator": "Powerdot",
    "parking:fee": "yes",
    "phone": "+351 800 180 292",
    "ref": "LSB-00218",
    "socket:type2_cable": "2",
    "socket:type2_cable:current": "32",
    "socket:type2_cable:output": "22kW",
    "socket:type2_cable:voltage": "400",
    "website": "https://www.mobie.pt"
  }
},
{
  "type": "node",
  "id": 8486698216,
  "lat": 38.7512219,
  "lon": -9.1885142,
  "tags": {
    "access": "yes",
    "addr:city": "Lisboa",
    "addr:country": "PT",
    "addr:street": "Avenida Eusébio da Silva Ferreira",
    "amenity": "charging_station",
    "authentication:membership_card": "yes",
    "authentication:none": "no",
    "capacity": "2",
    "email": "manutencaors@repsol.com",
    "fee": "yes",
    "motorcar": "yes",
    "name": "LSB-00318",
    "network": "Mobi.E",
    "opening_hours": "24/7",
    "operator": "Repsol",
    "parking:fee": "no",
    "phone": "+351 800 226 624",
    "ref": "LSB-00318",
    "socket:chademo": "1",
    "socket:chademo:current": "120",
    "socket:chademo:output": "50kW",
    "socket:chademo:voltage": "500",
    "socket:type2_cable": "1",
    "socket:type2_cable:current": "32",
    "socket:type2_cable:output": "22kW",
    "socket:type2_cable:voltage": "400",
    "socket:type2_combo": "1",
    "socket:type2_combo:current": "125",
    "socket:type2_combo:output": "50kW",
    "socket:type2_combo:voltage": "500",
    "website": "https://www.mobie.pt"
  }
},
{
  "type": "node",
  "id": 8644953935,
  "lat": 38.5342030,
  "lon": -8.8678030,
  "tags": {
    "access": "yes",
    "addr:city": "Setúbal",
    "addr:country": "PT",
    "amenity": "charging_station",
    "authentication:membership_card": "yes",
    "authentication:none": "no",
    "capacity": "1",
    "email": "manutencaors@repsol.com",
    "fee": "yes",
    "motorcar": "yes",
    "name": "STB-00017",
    "network": "Mobi.E",
    "opening_hours": "24/7",
    "operator": "Repsol",
    "parking:fee": "no",
    "phone": "+351 800 226 624",
    "ref": "STB-00017",
    "socket:chademo": "1",
    "socket:chademo:current": "120",
    "socket:chademo:output": "50kW",
    "socket:chademo:voltage": "500",
    "socket:type2_cable": "1",
    "socket:type2_cable:current": "32",
    "socket:type2_cable:output": "22kW",
    "socket:type2_cable:voltage": "400",
    "socket:type2_combo": "1",
    "socket:type2_combo:current": "125",
    "socket:type2_combo:output": "50kW",
    "socket:type2_combo:voltage": "500",
    "website": "https://www.mobie.pt"
  }
},
{
  "type": "node",
  "id": 8681353285,
  "lat": 37.1752287,
  "lon": -7.4819397,
  "tags": {
    "access": "yes",
    "addr:country": "PT",
    "amenity": "charging_station",
    "authentication:membership_card": "yes",
    "authentication:none": "no",
    "capacity": "2",
    "fee": "yes",
    "motorcar": "yes",
    "name": "CTM-00003",
    "network": "Mobi.E",
    "opening_hours": "24/7",
    "operator": "High Green Power",
    "parking:fee": "no",
    "ref": "CTM-00003",
    "socket:type2_cable": "2",
    "socket:type2_cable:current": "32",
    "socket:type2_cable:output": "22kW",
    "socket:type2_cable:voltage": "400",
    "website": "https://www.mobie.pt"
  }
},
{
  "type": "node",
  "id": 8757641255,
  "lat": 39.0821910,
  "lon": -9.2605570,
  "tags": {
    "access": "yes",
    "addr:city": "Torres Vedras",
    "addr:country": "PT",
    "amenity": "charging_station",
    "authentication:membership_card": "yes",
    "authentication:none": "no",
    "capacity": "2",
    "email": "manutencaors@repsol.com",
    "fee": "yes",
    "motorcar": "yes",
    "name": "TVD-00019 - Repsol",
    "network": "Mobi.E",
    "opening_hours": "24/7",
    "operator": "Repsol",
    "parking:fee": "no",
    "phone": "+351 800 226 624",
    "ref": "TVD-00019",
    "socket:chademo": "1",
    "socket:chademo:current": "120",
    "socket:chademo:output": "50kW",
    "socket:chademo:voltage": "500",
    "socket:type2_cable": "1",
    "socket:type2_cable:current": "32",
    "socket:type2_cable:output": "22kW",
    "socket:type2_cable:voltage": "400",
    "socket:type2_combo": "1",
    "socket:type2_combo:current": "125",
    "socket:type2_combo:output": "50kW",
    "socket:type2_combo:voltage": "500",
    "website": "https://www.mobie.pt"
  }
},
{
  "type": "node",
  "id": 8781101650,
  "lat": 37.0199921,
  "lon": -7.9235710,
  "tags": {
    "access": "yes",
    "addr:city": "Faro",
    "addr:country": "PT",
    "addr:street": "Avenida Doutor Júlio Filipe de Almeida Carrapato",
    "amenity": "charging_station",
    "authentication:membership_card": "yes",
    "authentication:none": "no",
    "capacity": "1",
    "email": "manutencaors@repsol.com",
    "fee": "yes",
    "motorcar": "yes",
    "name": "FAR-00011 - Repsol",
    "network": "Mobi.E",
    "opening_hours": "24/7",
    "operator": "Repsol",
    "parking:fee": "no",
    "phone": "+351 800 226 624",
    "ref": "FAR-00011",
    "socket:chademo": "1",
    "socket:chademo:current": "120",
    "socket:chademo:output": "50kW",
    "socket:chademo:voltage": "500",
    "socket:type2_cable": "1",
    "socket:type2_cable:current": "32",
    "socket:type2_cable:output": "22kW",
    "socket:type2_cable:voltage": "400",
    "socket:type2_combo": "1",
    "socket:type2_combo:current": "125",
    "socket:type2_combo:output": "50kW",
    "socket:type2_combo:voltage": "500",
    "website": "https://www.mobie.pt"
  }
},
{
  "type": "node",
  "id": 8833398840,
  "lat": 39.6229590,
  "lon": -8.8566180,
  "tags": {
    "access": "yes",
    "addr:city": "Porto de Mós",
    "addr:country": "PT",
    "amenity": "charging_station",
    "authentication:membership_card": "yes",
    "authentication:none": "no",
    "capacity": "2",
    "email": "apoio.cliente@kmlowcost.com",
    "fee": "yes",
    "motorcar": "yes",
    "name": "PMS-00002 - Pingo Doce",
    "network": "Mobi.E",
    "opening_hours": "24/7",
    "operator": "KLC",
    "parking:fee": "no",
    "phone": "+351 800 296 929",
    "ref": "PMS-00002",
    "socket:chademo": "1",
    "socket:chademo:current": "120",
    "socket:chademo:output": "50kW",
    "socket:chademo:voltage": "500",
    "socket:type2_cable": "1",
    "socket:type2_cable:current": "32",
    "socket:type2_cable:output": "22kW",
    "socket:type2_cable:voltage": "400",
    "socket:type2_combo": "1",
    "socket:type2_combo:current": "125",
    "socket:type2_combo:output": "50kW",
    "socket:type2_combo:voltage": "500",
    "website": "https://www.mobie.pt"
  }
},
{
  "type": "node",
  "id": 8833398841,
  "lat": 39.1904343,
  "lon": -8.6241502,
  "tags": {
    "access": "yes",
    "addr:city": "Almeirim",
    "addr:country": "PT",
    "amenity": "charging_station",
    "authentication:membership_card": "yes",
    "authentication:none": "no",
    "capacity": "2",
    "email": "apoio.cliente@kmlowcost.com",
    "fee": "yes",
    "motorcar": "yes",
    "name": "ALR-00002 - Pingo Doce",
    "network": "Mobi.E",
    "opening_hours": "24/7",
    "operator": "KLC",
    "parking:fee": "no",
    "phone": "+351 800 296 929",
    "ref": "ALR-00002",
    "socket:chademo": "1",
    "socket:chademo:current": "120",
    "socket:chademo:output": "50kW",
    "socket:chademo:voltage": "500",
    "socket:type2_cable": "1",
    "socket:type2_cable:current": "32",
    "socket:type2_cable:output": "22kW",
    "socket:type2_cable:voltage": "400",
    "socket:type2_combo": "1",
    "socket:type2_combo:current": "125",
    "socket:type2_combo:output": "50kW",
    "socket:type2_combo:voltage": "500",
    "website": "https://www.mobie.pt"
  }
},
{
  "type": "node",
  "id": 8989497399,
  "lat": 37.0864699,
  "lon": -8.8282116,
  "tags": {
    "access": "yes",
    "addr:country": "PT",
    "amenity": "charging_station",
    "authentication:membership_card": "yes",
    "authentication:none": "no",
    "capacity": "2",
    "email": "apoio.cliente@kmlowcost.com",
    "fee": "yes",
    "motorcar": "yes",
    "name": "VBP-00007",
    "network": "Mobi.E",
    "opening_hours": "24/7",
    "operator": "KLC",
    "parking:fee": "no",
    "phone": "+351 800 296 929",
    "ref": "VBP-00007",
    "socket:type2_cable": "2",
    "socket:type2_cable:current": "32",
    "socket:type2_cable:output": "22 kW",
    "socket:type2_cable:voltage": "400",
    "website": "https://www.mobie.pt"
  }
},
{
  "type": "node",
  "id": 9238885741,
  "lat": 37.1406960,
  "lon": -8.5065724,
  "tags": {
    "access": "yes",
    "addr:country": "PT",
    "amenity": "charging_station",
    "authentication:membership_card": "yes",
    "authentication:none": "no",
    "capacity": "1",
    "fee": "yes",
    "motorcar": "yes",
    "name": "LGA-00015 - Repsol",
    "network": "Mobi.E",
    "opening_hours": "24/7",
    "operator": "Repsol",
    "parking:fee": "no",
    "ref": "LGA-00015",
    "socket:chademo": "1",
    "socket:chademo:current": "75",
    "socket:chademo:output": "30kW",
    "socket:chademo:voltage": "500",
    "socket:type2_cable": "1",
    "socket:type2_cable:current": "32",
    "socket:type2_cable:output": "22kW",
    "socket:type2_cable:voltage": "400",
    "socket:type2_combo": "1",
    "socket:type2_combo:current": "75",
    "socket:type2_combo:output": "30kW",
    "socket:type2_combo:voltage": "920",
    "website": "https://www.mobie.pt/"
  }
}

  ]
}
