{
"type": "FeatureCollection",
"features": [
{
  "type": "Feature",
  "id": "node/6973507743",
  "properties": {
    "access": "yes",
    "addr:city": "Albufeira",
    "addr:country": "PT",
    "addr:postcode": "8201-918",
    "amenity": "charging_station",
    "capacity": "2",
    "fee": "no",
    "location": "underground",
    "motorcar": "yes",
    "name": "Marina de Albufeira Tesla Destination Charger",
    "network": "Tesla",
    "operator": "Tesla",
    "parking:fee": "yes",
    "phone": "+351 289 588 179",
    "ref": "dc37427",
    "socket:tesla_destination": "1",
    "socket:tesla_destination:output": "22kW",
    "socket:type2_cable": "1",
    "socket:type2_cable:output": "22kW",
    "website": "https://www.tesla.com/pt_PT/findus/list/chargers/Portugal",
    "id": "node/6973507743"
  },
  "geometry": {
    "type": "Point",
    "coordinates": [
      -8.2659855,
      37.0855011
    ]
  }
},
{
  "type": "Feature",
  "id": "node/7028293058",
  "properties": {
    "access": "yes",
    "addr:country": "PT",
    "addr:postcode": "8670-161 Aljezur",
    "amenity": "charging_station",
    "capacity": "2",
    "fee": "no",
    "motorcar": "yes",
    "name": "Intermarché Aljezur Tesla Destination Charger",
    "network": "Tesla",
    "opening_hours": "08:00-22:00",
    "operator": "Tesla",
    "phone": "+351 282 990 060",
    "ref": "dc90385",
    "socket:tesla_destination": "1",
    "socket:tesla_destination:output": "22kW",
    "socket:type2_cable": "1",
    "socket:type2_cable:output": "22kW",
    "website": "https://www.tesla.com/pt_PT/findus/list/chargers/Portugal",
    "id": "node/7028293058"
  },
  "geometry": {
    "type": "Point",
    "coordinates": [
      -8.7983108,
      37.3170799
    ]
  }
},
{
  "type": "Feature",
  "id": "node/7031126811",
  "properties": {
    "access": "yes",
    "addr:country": "PT",
    "addr:postcode": "8600-315 Lagos",
    "amenity": "charging_station",
    "capacity": "2",
    "fee": "no",
    "motorcar": "yes",
    "name": "Marina de Lagos Tesla Destination Charger",
    "network": "Tesla",
    "operator": "Tesla",
    "phone": "+351 282 770 210",
    "ref": "dc47851",
    "socket:tesla_destination": "1",
    "socket:tesla_destination:output": "17kW",
    "socket:type2_cable": "1",
    "socket:type2_cable:output": "17kW",
    "website": "https://www.tesla.com/pt_PT/findus/list/chargers/Portugal",
    "id": "node/7031126811"
  },
  "geometry": {
    "type": "Point",
    "coordinates": [
      -8.6737704,
      37.107672
    ]
  }
},
{
  "type": "Feature",
  "id": "node/7070406263",
  "properties": {
    "access": "yes",
    "addr:city": "Vale Paraíso",
    "addr:country": "PT",
    "addr:street": "Zona Industrial de Vale Paraíso",
    "amenity": "charging_station",
    "authentication:membership_card": "yes",
    "authentication:none": "no",
    "capacity": "2",
    "email": "apoio.cliente@kmlowcost.com",
    "fee": "yes",
    "motorcar": "yes",
    "name": "ABF-00025",
    "network": "Mobi.E",
    "opening_hours": "24/7",
    "operator": "KLC",
    "parking:fee": "no",
    "phone": "+351 800 296 929",
    "ref": "ABF-00025",
    "socket:chademo": "1",
    "socket:chademo:current": "120",
    "socket:chademo:output": "50kW",
    "socket:chademo:voltage": "500",
    "socket:type2_cable": "1",
    "socket:type2_cable:current": "32",
    "socket:type2_cable:output": "22kW",
    "socket:type2_cable:voltage": "400",
    "socket:type2_combo": "1",
    "socket:type2_combo:current": "125",
    "socket:type2_combo:output": "50kW",
    "socket:type2_combo:voltage": "500",
    "website": "https://www.mobie.pt/",
    "id": "node/7070406263"
  },
  "geometry": {
    "type": "Point",
    "coordinates": [
      -8.245258,
      37.1177068
    ]
  }
},
{
  "type": "Feature",
  "id": "node/7773747775",
  "properties": {
    "access": "yes",
    "addr:country": "PT",
    "amenity": "charging_station",
    "authentication:membership_card": "yes",
    "authentication:none": "no",
    "capacity": "2",
    "email": "mobilidade.electricacrc@galp.com",
    "fee": "yes",
    "motorcar": "yes",
    "name": "ACH-00003",
    "network": "Mobi.E",
    "opening_hours": "24/7",
    "operator": "Galp Geste",
    "parking:fee": "no",
    "phone": "+351 800 249 249",
    "ref": "ACH-00003",
    "socket:chademo": "1",
    "socket:chademo:current": "120",
    "socket:chademo:output": "20kW",
    "socket:chademo:voltage": "500",
    "socket:type2_cable": "1",
    "socket:type2_cable:current": "30",
    "socket:type2_cable:output": "20kW",
    "socket:type2_cable:voltage": "400",
    "socket:type2_combo": "1",
    "socket:type2_combo:current": "125",
    "socket:type2_combo:output": "20kW",
    "socket:type2_combo:voltage": "500",
    "website": "https://www.mobie.pt/",
    "id": "node/7773747775"
  },
  "geometry": {
    "type": "Point",
    "coordinates": [
      -8.9871383,
      38.7277199
    ]
  }
},
{
  "type": "Feature",
  "id": "node/8007776350",
  "properties": {
    "access": "yes",
    "addr:city": "Sintra",
    "addr:country": "PT",
    "amenity": "charging_station",
    "authentication:membership_card": "yes",
    "authentication:none": "no",
    "capacity": "2",
    "email": "ajuda@powerdot.pt",
    "fee": "yes",
    "motorcar": "yes",
    "name": "SNT-00045",
    "network": "Mobi.E",
    "opening_hours": "24/7",
    "operator": "Powerdot",
    "parking:fee": "no",
    "phone": "+351 800 180 292",
    "ref": "SNT-00045",
    "socket:chademo": "1",
    "socket:chademo:current": "120",
    "socket:chademo:output": "50kW",
    "socket:chademo:voltage": "500",
    "socket:type2_cable": "1",
    "socket:type2_cable:current": "32",
    "socket:type2_cable:output": "22kW",
    "socket:type2_cable:voltage": "400",
    "socket:type2_combo": "1",
    "socket:type2_combo:current": "125",
    "socket:type2_combo:output": "50kW",
    "socket:type2_combo:voltage": "500",
    "website": "https://www.mobie.pt/",
    "id": "node/8007776350"
  },
  "geometry": {
    "type": "Point",
    "coordinates": [
      -9.3757904,
      38.7824211
    ]
  }
},
{
  "type": "Feature",
  "id": "node/8066793641",
  "properties": {
    "access": "yes",
    "addr:city": "Figueira da Foz",
    "addr:country": "PT",
    "addr:street": "Avenida Saraiva de Carvalho",
    "amenity": "charging_station",
    "authentication:membership_card": "yes",
    "authentication:none": "no",
    "capacity": "2",
    "email": "suporte@evpower.pt",
    "fee": "yes",
    "motorcar": "yes",
    "name": "FIG-00002",
    "network": "Mobi.E",
    "opening_hours": "24/7",
    "operator": "EV Power",
    "parking:fee": "no",
    "phone": "+351 210 152 562",
    "ref": "FIG-00002",
    "socket:chademo": "1",
    "socket:chademo:current": "120",
    "socket:chademo:output": "50kW",
    "socket:chademo:voltage": "500",
    "socket:type2_cable": "1",
    "socket:type2_cable:current": "32",
    "socket:type2_cable:output": "22kW",
    "socket:type2_cable:voltage": "400",
    "socket:type2_combo": "1",
    "socket:type2_combo:current": "125",
    "socket:type2_combo:output": "50kW",
    "socket:type2_combo:voltage": "500",
    "website": "https://www.mobie.pt/",
    "id": "node/8066793641"
  },
  "geometry": {
    "type": "Point",
    "coordinates": [
      -8.8540174,
      40.147852
    ]
  }
},
{
  "type": "Feature",
  "id": "node/8079171269",
  "properties": {
    "access": "yes",
    "addr:city": "Vila Nova de Famalicão",
    "addr:country": "PT",
    "addr:street": "Rua Luís Barroso",
    "amenity": "charging_station",
    "authentication:membership_card": "yes",
    "authentication:none": "no",
    "capacity": "2",
    "email": "suporte@mobiletric.com",
    "fee": "yes",
    "motorcar": "yes",
    "name": "VNF-00009",
    "network": "Mobi.E",
    "opening_hours": "24/7",
    "operator": "Mobiletric",
    "parking:fee": "no",
    "phone": "+351 800 210 204",
    "ref": "VNF-00009",
    "socket:chademo": "1",
    "socket:chademo:current": "120",
    "socket:chademo:output": "50kW",
    "socket:chademo:voltage": "500",
    "socket:type2_cable": "1",
    "socket:type2_cable:current": "32",
    "socket:type2_cable:output": "22kW",
    "socket:type2_cable:voltage": "400",
    "socket:type2_combo": "1",
    "socket:type2_combo:current": "125",
    "socket:type2_combo:output": "50kW",
    "socket:type2_combo:voltage": "500",
    "website": "https://www.mobie.pt/",
    "id": "node/8079171269"
  },
  "geometry": {
    "type": "Point",
    "coordinates": [
      -8.5206807,
      41.4053993
    ]
  }
},
{
  "type": "Feature",
  "id": "node/8162552065",
  "properties": {
    "access": "yes",
    "addr:country": "PT",
    "amenity": "charging_station",
    "capacity": "4",
    "fee": "no",
    "motorcar": "yes",
    "name": "Intermarché de Sines Tesla Destination Charger",
    "network": "Tesla",
    "operator": "Tesla",
    "ref": "dc72791",
    "socket:tesla_destination": "2",
    "socket:tesla_destination:output": "22kW",
    "socket:type2_cable": "2",
    "socket:type2_cable:output": "22kW",
    "website": "https://www.tesla.com/pt_PT/findus/list/chargers/Portugal",
    "id": "node/8162552065"
  },
  "geometry": {
    "type": "Point",
    "coordinates": [
      -8.8584392,
      37.9651563
    ]
  }
},
{
  "type": "Feature",
  "id": "node/8199361953",
  "properties": {
    "access": "yes",
    "addr:country": "PT",
    "amenity": "charging_station",
    "capacity": "6",
    "fee": "no",
    "motorcar": "yes",
    "name": "El Corte Ingles de Gaia Tesla Destination Charger",
    "network": "Tesla",
    "operator": "Tesla",
    "parking:fee": "yes",
    "ref": "dc63384",
    "socket:tesla_destination": "3",
    "socket:tesla_destination:output": "22kW",
    "socket:type2_cable": "3",
    "socket:type2_cable:output": "22kW",
    "website": "https://www.tesla.com/pt_PT/findus/list/chargers/Portugal",
    "id": "node/8199361953"
  },
  "geometry": {
    "type": "Point",
    "coordinates": [
      -8.6048269,
      41.1255503
    ]
  }
},
{
  "type": "Feature",
  "id": "node/8420525170",
  "properties": {
    "access": "yes",
    "addr:country": "PT",
    "amenity": "charging_station",
    "authentication:membership_card": "yes",
    "authentication:none": "no",
    "capacity": "2",
    "email": "ajuda@powerdot.pt",
    "fee": "yes",
    "motorcar": "yes",
    "name": "PNF-00006",
    "network": "Mobi.E",
    "opening_hours": "24/7",
    "operator": "Powerdot",
    "parking:fee": "no",
    "phone": "+351 800 180 292",
    "ref": "PNF-00006",
    "socket:type2_cable": "2",
    "socket:type2_cable:current": "32",
    "socket:type2_cable:output": "22kW",
    "socket:type2_cable:voltage": "400",
    "start_date": "2021-03-21",
    "website": "https://www.mobie.pt/",
    "id": "node/8420525170"
  },
  "geometry": {
    "type": "Point",
    "coordinates": [
      -8.2711226,
      41.2118648
    ]
  }
},
{
  "type": "Feature",
  "id": "node/8449046026",
  "properties": {
    "access": "yes",
    "addr:city": "Lisboa",
    "addr:country": "PT",
    "amenity": "charging_station",
    "authentication:membership_card": "yes",
    "authentication:none": "no",
    "capacity": "2",
    "email": "ajuda@powerdot.pt",
    "fee": "yes",
    "motorcar": "yes",
    "name": "LSB-00218",
    "network": "Mobi.E",
    "opening_hours": "24/7",
    "operator": "Powerdot",
    "parking:fee": "yes",
    "phone": "+351 800 180 292",
    "ref": "LSB-00218",
    "socket:type2_cable": "2",
    "socket:type2_cable:current": "32",
    "socket:type2_cable:output": "22kW",
    "socket:type2_cable:voltage": "400",
    "website": "https://www.mobie.pt/",
    "id": "node/8449046026"
  },
  "geometry": {
    "type": "Point",
    "coordinates": [
      -9.1757941,
      38.7010339
    ]
  }
},
{
  "type": "Feature",
  "id": "node/8486698216",
  "properties": {
    "access": "yes",
    "addr:city": "Lisboa",
    "addr:country": "PT",
    "addr:street": "Avenida Eusébio da Silva Ferreira",
    "amenity": "charging_station",
    "authentication:membership_card": "yes",
    "authentication:none": "no",
    "capacity": "2",
    "fee": "yes",
    "motorcar": "yes",
    "name": "LSB-00318",
    "network": "Mobi.E",
    "opening_hours": "24/7",
    "operator": "Repsol",
    "parking:fee": "no",
    "phone": "+351 800 226 624",
    "ref": "LSB-00318",
    "socket:chademo": "1",
    "socket:chademo:current": "120",
    "socket:chademo:output": "50kW",
    "socket:chademo:voltage": "500",
    "socket:type2_cable": "1",
    "socket:type2_cable:current": "32",
    "socket:type2_cable:output": "22kW",
    "socket:type2_cable:voltage": "400",
    "socket:type2_combo": "1",
    "socket:type2_combo:current": "125",
    "socket:type2_combo:output": "50kW",
    "socket:type2_combo:voltage": "500",
    "website": "https://www.mobie.pt/",
    "id": "node/8486698216"
  },
  "geometry": {
    "type": "Point",
    "coordinates": [
      -9.1885142,
      38.7512219
    ]
  }
},
{
  "type": "Feature",
  "id": "node/8644953935",
  "properties": {
    "access": "yes",
    "addr:city": "Setúbal",
    "addr:country": "PT",
    "amenity": "charging_station",
    "authentication:membership_card": "yes",
    "authentication:none": "no",
    "capacity": "1",
    "fee": "yes",
    "motorcar": "yes",
    "name": "STB-00017",
    "network": "Mobi.E",
    "opening_hours": "24/7",
    "operator": "Repsol",
    "parking:fee": "no",
    "phone": "+351 800 226 624",
    "ref": "STB-00017",
    "socket:chademo": "1",
    "socket:chademo:current": "120",
    "socket:chademo:output": "50kW",
    "socket:chademo:voltage": "500",
    "socket:type2_cable": "1",
    "socket:type2_cable:current": "32",
    "socket:type2_cable:output": "22kW",
    "socket:type2_cable:voltage": "400",
    "socket:type2_combo": "1",
    "socket:type2_combo:current": "125",
    "socket:type2_combo:output": "50kW",
    "socket:type2_combo:voltage": "500",
    "website": "https://www.mobie.pt/",
    "id": "node/8644953935"
  },
  "geometry": {
    "type": "Point",
    "coordinates": [
      -8.867803,
      38.534203
    ]
  }
},
{
  "type": "Feature",
  "id": "node/8681353285",
  "properties": {
    "access": "yes",
    "addr:country": "PT",
    "amenity": "charging_station",
    "authentication:membership_card": "yes",
    "authentication:none": "no",
    "capacity": "2",
    "fee": "yes",
    "motorcar": "yes",
    "name": "CTM-00003",
    "network": "Mobi.E",
    "opening_hours": "24/7",
    "operator": "High Green Power",
    "parking:fee": "no",
    "ref": "CTM-00003",
    "socket:type2_cable": "2",
    "socket:type2_cable:current": "32",
    "socket:type2_cable:output": "22kW",
    "socket:type2_cable:voltage": "400",
    "website": "https://www.mobie.pt/",
    "id": "node/8681353285"
  },
  "geometry": {
    "type": "Point",
    "coordinates": [
      -7.4819397,
      37.1752287
    ]
  }
},
{
  "type": "Feature",
  "id": "node/8757641255",
  "properties": {
    "access": "yes",
    "addr:city": "Torres Vedras",
    "addr:country": "PT",
    "amenity": "charging_station",
    "authentication:membership_card": "yes",
    "authentication:none": "no",
    "capacity": "2",
    "fee": "yes",
    "motorcar": "yes",
    "name": "TVD-00019 - Repsol",
    "network": "Mobi.E",
    "opening_hours": "24/7",
    "operator": "Repsol",
    "parking:fee": "no",
    "phone": "+351 800 226 624",
    "ref": "TVD-00019",
    "socket:chademo": "1",
    "socket:chademo:current": "120",
    "socket:chademo:output": "50kW",
    "socket:chademo:voltage": "500",
    "socket:type2_cable": "1",
    "socket:type2_cable:current": "32",
    "socket:type2_cable:output": "22kW",
    "socket:type2_cable:voltage": "400",
    "socket:type2_combo": "1",
    "socket:type2_combo:current": "125",
    "socket:type2_combo:output": "50kW",
    "socket:type2_combo:voltage": "500",
    "website": "https://www.mobie.pt/",
    "id": "node/8757641255"
  },
  "geometry": {
    "type": "Point",
    "coordinates": [
      -9.260557,
      39.082191
    ]
  }
},
{
  "type": "Feature",
  "id": "node/8781101650",
  "properties": {
    "access": "yes",
    "addr:city": "Faro",
    "addr:country": "PT",
    "addr:street": "Avenida Doutor Júlio Filipe de Almeida Carrapato",
    "amenity": "charging_station",
    "authentication:membership_card": "yes",
    "authentication:none": "no",
    "capacity": "1",
    "fee": "yes",
    "motorcar": "yes",
    "name": "FAR-00011 - Repsol",
    "network": "Mobi.E",
    "opening_hours": "24/7",
    "operator": "Repsol",
    "parking:fee": "no",
    "phone": "+351 800 226 624",
    "ref": "FAR-00011",
    "socket:chademo": "1",
    "socket:chademo:current": "120",
    "socket:chademo:output": "50kW",
    "socket:chademo:voltage": "500",
    "socket:type2_cable": "1",
    "socket:type2_cable:current": "32",
    "socket:type2_cable:output": "22kW",
    "socket:type2_cable:voltage": "400",
    "socket:type2_combo": "1",
    "socket:type2_combo:current": "125",
    "socket:type2_combo:output": "50kW",
    "socket:type2_combo:voltage": "500",
    "website": "https://www.mobie.pt/",
    "id": "node/8781101650"
  },
  "geometry": {
    "type": "Point",
    "coordinates": [
      -7.923571,
      37.0199921
    ]
  }
}
]
}
